zip_code;city;state;latitude;longitude
1000;Amsterdam;Noord-Holland;52.377;4.906
1001;Amsterdam;Noord-Holland;52.377;4.906
1002;Amsterdam;Noord-Holland;51.861;4.359
1003;Amsterdam;Noord-Holland;51.861;4.359
1005;Amsterdam;Noord-Holland;52.377;4.906
1006;Amsterdam;Noord-Holland;52.377;4.906
1007;Amsterdam;Noord-Holland;52.377;4.906
1008;Amsterdam;Noord-Holland;52.377;4.906
1009;Amsterdam;Noord-Holland;52.377;4.906
1011;Amsterdam;Noord-Holland;52.377;4.906
1012;Amsterdam;Noord-Holland;52.379;4.901
1013;Amsterdam;Noord-Holland;52.381;4.895
1014;Amsterdam;Noord-Holland;52.391;4.862
1015;Amsterdam;Noord-Holland;52.378;4.893
1016;Amsterdam;Noord-Holland;52.374;4.889
1017;Amsterdam;Noord-Holland;52.366;4.894
1018;Amsterdam;Noord-Holland;52.37;4.914
1019;Amsterdam;Noord-Holland;52.366;4.935
1020;Amsterdam;Noord-Holland;52.392;4.907
1021;Amsterdam;Noord-Holland;52.384;4.912
1022;Amsterdam;Noord-Holland;52.39;4.937
1023;Amsterdam;Noord-Holland;52.391;4.941
1024;Amsterdam;Noord-Holland;52.396;4.949
1025;Amsterdam;Noord-Holland;52.401;4.948
1026;Amsterdam;Noord-Holland;52.383;4.976
1027;Amsterdam;Noord-Holland;52.421;4.95
1028;Amsterdam;Noord-Holland;52.399;4.984
1030;Amsterdam;Noord-Holland;52.392;4.892
1031;Amsterdam;Noord-Holland;52.391;4.912
1032;Amsterdam;Noord-Holland;52.391;4.917
1033;Amsterdam;Noord-Holland;52.415;4.895
1034;Amsterdam;Noord-Holland;52.407;4.912
1035;Amsterdam;Noord-Holland;52.42;4.886
1036;Amsterdam;Noord-Holland;52.407;4.901
1037;Amsterdam;Noord-Holland;52.43;4.864
1040;Amsterdam;Noord-Holland;52.397;4.854
1041;Amsterdam;Noord-Holland;52.408;4.853
1042;Amsterdam;Noord-Holland;52.4;4.836
1043;Amsterdam;Noord-Holland;52.386;4.827
1044;Amsterdam;Noord-Holland;52.401;4.811
1045;Amsterdam;Noord-Holland;52.405;4.789
1046;Amsterdam;Noord-Holland;52.392;4.789
1047;Amsterdam;Noord-Holland;52.396;4.766
1051;Amsterdam;Noord-Holland;52.384;4.879
1052;Amsterdam;Noord-Holland;52.384;4.88
1053;Amsterdam;Noord-Holland;52.371;4.873
1054;Amsterdam;Noord-Holland;52.366;4.877
1055;Amsterdam;Noord-Holland;52.376;4.844
1056;Amsterdam;Noord-Holland;52.37;4.845
1057;Amsterdam;Noord-Holland;52.365;4.851
1058;Amsterdam;Noord-Holland;52.362;4.858
1059;Amsterdam;Noord-Holland;52.35;4.85
1060;Amsterdam;Noord-Holland;52.379;4.854
1061;Amsterdam;Noord-Holland;52.365;4.836
1062;Amsterdam;Noord-Holland;52.363;4.839
1063;Amsterdam;Noord-Holland;52.38;4.836
1064;Amsterdam;Noord-Holland;52.373;4.834
1065;Amsterdam;Noord-Holland;52.361;4.827
1066;Amsterdam;Noord-Holland;52.35;4.829
1067;Amsterdam;Noord-Holland;52.383;4.807
1068;Amsterdam;Noord-Holland;52.364;4.8
1069;Amsterdam;Noord-Holland;52.348;4.796
1070;Amsterdam;Noord-Holland;52.376;4.872
1071;Amsterdam;Noord-Holland;52.359;4.871
1072;Amsterdam;Noord-Holland;52.359;4.888
1073;Amsterdam;Noord-Holland;52.357;4.893
1074;Amsterdam;Noord-Holland;52.357;4.9
1075;Amsterdam;Noord-Holland;52.355;4.864
1076;Amsterdam;Noord-Holland;52.349;4.863
1077;Amsterdam;Noord-Holland;52.347;4.883
1078;Amsterdam;Noord-Holland;52.349;4.909
1079;Amsterdam;Noord-Holland;52.344;4.903
1080;Amsterdam;Noord-Holland;52.362;4.87
1081;Amsterdam;Noord-Holland;52.331;4.868
1082;Amsterdam;Noord-Holland;52.323;4.879
1083;Amsterdam;Noord-Holland;52.322;4.891
1086;Amsterdam;Noord-Holland;52.363;4.982
1087;Amsterdam;Noord-Holland;52.358;4.993
1090;Amsterdam;Noord-Holland;52.377;4.894
1091;Amsterdam;Noord-Holland;52.361;4.915
1092;Amsterdam;Noord-Holland;52.361;4.917
1093;Amsterdam;Noord-Holland;52.364;4.926
1094;Amsterdam;Noord-Holland;52.366;4.935
1095;Amsterdam;Noord-Holland;52.366;4.94
1096;Amsterdam;Noord-Holland;52.345;4.916
1097;Amsterdam;Noord-Holland;52.354;4.928
1098;Amsterdam;Noord-Holland;52.354;4.929
1099;Amsterdam-Duivendrecht;Noord-Holland;52.324;4.926
1101;Amsterdam Zuidoost;Noord-Holland;52.309;4.932
1102;Amsterdam Zuidoost;Noord-Holland;52.32;4.951
1103;Amsterdam Zuidoost;Noord-Holland;52.324;4.96
1104;Amsterdam Zuidoost;Noord-Holland;52.316;4.979
1105;Amsterdam Zuidoost;Noord-Holland;52.283;4.964
1106;Amsterdam Zuidoost;Noord-Holland;52.298;4.974
1107;Amsterdam Zuidoost;Noord-Holland;52.295;4.99
1108;Amsterdam Zuidoost;Noord-Holland;52.305;5.01
1109;Amsterdam Zuidoost;Noord-Holland;52.304;5.016
1110;Diemen;Noord-Holland;52.34;4.955
1111;Diemen;Noord-Holland;52.34;4.955
1112;Diemen;Noord-Holland;52.33;4.985
1113;Diemen;Noord-Holland;52.352;4.977
1114;Amsterdam-Duivendrecht;Noord-Holland;52.33;4.931
1115;Duivendrecht;Noord-Holland;52.337;4.946
1117;Schiphol;Noord-Holland;52.313;4.807
1118;Schiphol-Rijk;Noord-Holland;52.322;4.8
1119;Schiphol-Rijk;Noord-Holland;52.283;4.763
1120;Landsmeer;Noord-Holland;52.442;4.915
1121;Landsmeer;Noord-Holland;52.442;4.915
1127;Den Ilp;Noord-Holland;52.444;4.913
1130;Volendam;Noord-Holland;52.49;5.067
1131;Volendam;Noord-Holland;52.49;5.067
1132;Volendam;Noord-Holland;52.501;5.057
1135;Edam;Noord-Holland;52.51;5.045
1140;Monnickendam;Noord-Holland;52.459;5.034
1141;Monnickendam;Noord-Holland;52.459;5.034
1145;Katwoude;Noord-Holland;52.468;5.03
1150;Broek in Waterland;Noord-Holland;52.433;4.996
1151;Broek in Waterland;Noord-Holland;52.433;4.996
1153;Zuiderwoude;Noord-Holland;52.429;5.032
1154;Uitdam;Noord-Holland;52.421;5.072
1156;Marken;Noord-Holland;52.459;5.104
1161;Zwanenburg;Noord-Holland;52.385;4.732
1165;Halfweg;Noord-Holland;52.383;4.696
1170;Badhoevedorp;Noord-Holland;52.345;4.779
1171;Badhoevedorp;Noord-Holland;52.345;4.779
1175;Lijnden;Noord-Holland;52.335;4.734
1180;Amstelveen;Noord-Holland;52.321;4.864
1181;Amsterdam;Noord-Holland;52.321;4.864
1182;Amstelveen;Noord-Holland;52.32;4.853
1183;Amsterdam;Noord-Holland;52.319;4.872
1184;Amstelveen;Noord-Holland;52.299;4.898
1185;Amstelveen;Noord-Holland;52.302;4.85
1186;Amstelveen;Noord-Holland;52.29;4.868
1187;Amstelveen;Noord-Holland;52.292;4.839
1188;Amstelveen;Noord-Holland;52.282;4.857
1189;Amstelveen;Noord-Holland;52.261;4.876
1190;Ouderkerk aan de Amstel;Noord-Holland;52.31;4.907
1191;Ouderkerk aan de Amstel;Noord-Holland;52.31;4.907
1200;Hilversum;Noord-Holland;52.23;5.177
1201;Hilversum;Noord-Holland;52.23;5.177
1202;Hilversum;Noord-Holland;52.23;5.177
1211;Hilversum;Noord-Holland;52.23;5.177
1212;Hilversum;Noord-Holland;52.219;5.191
1213;Hilversum;Noord-Holland;52.22;5.182
1214;Hilversum;Noord-Holland;52.219;5.175
1215;Hilversum;Noord-Holland;52.219;5.166
1216;Hilversum;Noord-Holland;52.222;5.155
1217;Hilversum;Noord-Holland;52.228;5.168
1218;Hilversum;Noord-Holland;52.274;5.139
1221;Hilversum;Noord-Holland;52.228;5.181
1222;Hilversum;Noord-Holland;52.253;5.172
1223;Hilversum;Noord-Holland;52.237;5.196
1230;Loosdrecht;Noord-Holland;52.205;5.131
1231;Loosdrecht;Noord-Holland;52.205;5.131
1240;Kortenhoef;Noord-Holland;52.242;5.119
1241;Kortenhoef;Noord-Holland;52.242;5.119
1243;'s-Graveland;Noord-Holland;52.269;5.12
1244;Ankeveen;Noord-Holland;52.276;5.105
1250;Laren;Noord-Holland;52.189;6.37
1251;Blaricum;Noord-Holland;52.272;5.225
1252;Laren;Noord-Holland;52.245;5.233
1260;Blaricum;Noord-Holland;52.273;5.231
1261;Blaricum;Noord-Holland;52.277;5.212
1270;Huizen;Noord-Holland;52.307;5.238
1271;Huizen;Noord-Holland;52.307;5.238
1272;Huizen;Noord-Holland;52.3;5.225
1273;Huizen;Noord-Holland;52.299;5.247
1274;Huizen;Noord-Holland;52.304;5.269
1275;Huizen;Noord-Holland;52.29;5.267
1276;Huizen;Noord-Holland;52.294;5.248
1277;Huizen;Noord-Holland;52.294;5.273
1300;Almere;Flevoland;52.416;5.22
1301;Almere;Flevoland;52.416;5.22
1302;Almere;Flevoland;52.416;5.22
1303;Almere;Flevoland;52.416;5.22
1305;Almere;Flevoland;52.416;5.22
1309;Almere;Flevoland;52.416;5.22
1311;Almere;Flevoland;52.367;5.173
1312;Almere;Flevoland;52.375;5.212
1313;Almere;Flevoland;52.385;5.203
1314;Almere;Flevoland;52.386;5.214
1315;Almere;Flevoland;52.368;5.217
1316;Almere;Flevoland;52.386;5.218
1317;Almere;Flevoland;52.385;5.232
1318;Almere;Flevoland;52.379;5.239
1319;Almere;Flevoland;52.385;5.182
1320;Almere;Flevoland;52.368;5.216
1321;Almere;Flevoland;52.36;5.192
1322;Almere;Flevoland;52.351;5.193
1323;Almere;Flevoland;52.367;5.2
1324;Almere;Flevoland;52.373;5.213
1325;Almere;Flevoland;52.373;5.226
1326;Almere;Flevoland;52.375;5.236
1327;Almere;Flevoland;52.357;5.254
1328;Almere;Flevoland;52.376;5.254
1329;Almere;Flevoland;52.375;5.275
1331;Almere;Flevoland;52.415;5.272
1332;Almere;Flevoland;52.403;5.256
1333;Almere;Flevoland;52.399;5.27
1334;Almere;Flevoland;52.395;5.274
1335;Almere;Flevoland;52.402;5.293
1336;Almere;Flevoland;52.402;5.31
1338;Almere;Flevoland;52.391;5.275
1339;Almere;Flevoland;52.395;5.29
1341;Almere;Flevoland;52.347;5.288
1343;Almere;Flevoland;52.342;5.296
1349;Almere;Flevoland;52.347;5.324
1351;Almere;Flevoland;52.351;5.22
1352;Almere;Flevoland;52.343;5.217
1353;Almere;Flevoland;52.335;5.216
1354;Almere;Flevoland;52.335;5.22
1355;Almere;Flevoland;52.338;5.225
1356;Almere;Flevoland;52.337;5.233
1357;Almere;Flevoland;52.337;5.227
1358;Almere;Flevoland;52.341;5.266
1359;Almere;Flevoland;52.338;5.186
1361;Almere;Flevoland;52.342;5.134
1362;Almere;Flevoland;52.354;5.171
1363;Almere;Flevoland;52.35;5.155
1380;Weesp;Noord-Holland;52.308;5.038
1381;Weesp;Noord-Holland;52.308;5.038
1382;Weesp;Noord-Holland;52.31;5.043
1383;Weesp;Noord-Holland;52.301;5.038
1390;Abcoude;Utrecht;52.273;4.972
1391;Abcoude;Utrecht;52.273;4.972
1393;Nigtevecht;Utrecht;52.272;5.027
1394;Nederhorst den Berg;Noord-Holland;52.252;5.049
1396;Baambrugge;Utrecht;52.256;4.978
1398;Muiden;Noord-Holland;52.332;5.071
1399;Muiderberg;Noord-Holland;52.32;5.105
1400;Bussum;Noord-Holland;52.27;5.165
1401;Bussum;Noord-Holland;52.28;5.164
1402;Bussum;Noord-Holland;52.273;5.167
1403;Hilversum;Noord-Holland;52.267;5.17
1404;Bussum;Noord-Holland;52.282;5.161
1405;Bussum;Noord-Holland;52.281;5.154
1406;Bussum;Noord-Holland;52.273;5.159
1410;Naarden;Noord-Holland;52.308;5.143
1411;Naarden;Noord-Holland;52.308;5.143
1412;Naarden;Noord-Holland;52.302;5.13
1420;Uithoorn;Noord-Holland;52.234;4.835
1421;Uithoorn;Noord-Holland;52.234;4.835
1422;Amstelveen;Noord-Holland;52.24;4.838
1423;Uithoorn;Noord-Holland;52.232;4.826
1424;Aalsmeer;Noord-Holland;52.241;4.787
1426;de Hoef;Utrecht;52.226;4.82
1427;Amstelhoek;Utrecht;52.231;4.833
1428;Vrouwenakker;Zuid-Holland;52.227;4.788
1430;Aalsmeer;Noord-Holland;52.259;4.762
1431;Aalsmeer;Noord-Holland;52.265;4.747
1432;Amstelveen;Noord-Holland;52.27;4.759
1433;Aalsmeer;Noord-Holland;52.238;4.753
1435;Rijsenhout;Noord-Holland;52.266;4.731
1436;Aalsmeerderbrug;Noord-Holland;52.278;4.767
1437;Rozenburg;Noord-Holland;52.281;4.739
1438;Oude Meer;Noord-Holland;52.291;4.79
1440;Purmerend;Noord-Holland;52.51;4.95
1441;Purmerend;Noord-Holland;52.51;4.95
1442;Purmerend;Noord-Holland;52.512;4.952
1443;Purmerend;Noord-Holland;52.508;4.96
1444;Purmerend;Noord-Holland;52.518;4.958
1445;Purmerend;Noord-Holland;52.495;4.987
1446;Purmerend;Noord-Holland;52.52;4.998
1447;Purmerend;Noord-Holland;52.488;4.975
1448;Purmerend;Noord-Holland;52.497;4.945
1451;Purmerland;Noord-Holland;52.485;4.928
1452;Ilpendam;Noord-Holland;52.464;4.972
1454;Watergang;Noord-Holland;52.438;4.951
1456;Wijdewormer;Noord-Holland;52.507;4.919
1458;Spijkerboor;Noord-Holland;52.538;4.831
1461;Zuidoostbeemster;Noord-Holland;52.513;4.944
1462;Middenbeemster;Noord-Holland;52.548;4.921
1463;Noordbeemster;Noord-Holland;52.576;4.98
1464;Westbeemster;Noord-Holland;52.525;4.86
1471;Kwadijk;Noord-Holland;52.531;4.967
1472;Middelie;Noord-Holland;52.527;5.038
1473;Warder;Noord-Holland;52.561;5.008
1474;Oosthuizen;Noord-Holland;52.565;4.994
1475;Beets;Noord-Holland;52.593;5.004
1476;Schardam;Noord-Holland;52.593;5.017
1477;Hobrede;Noord-Holland;52.544;4.987
1481;Purmer;Noord-Holland;52.494;5.013
1482;Purmer;Noord-Holland;52.473;4.993
1483;Zuidschermer;Noord-Holland;52.561;4.86
1484;Graft;Noord-Holland;52.559;4.837
1485;Noordeinde;Noord-Holland;52.572;4.834
1486;West-Graftdijk;Noord-Holland;52.551;4.805
1487;Oost-Graftdijk;Noord-Holland;52.543;4.823
1488;Starnmeer;Noord-Holland;52.553;4.788
1489;de Woude;Noord-Holland;52.546;4.778
1500;Zaandam;Noord-Holland;52.437;4.828
1501;Zaandam;Noord-Holland;52.437;4.828
1502;Zaandam;Noord-Holland;52.44;4.825
1503;Zaandam;Noord-Holland;52.442;4.847
1504;Zaandam;Noord-Holland;52.44;4.839
1505;Zaandam;Noord-Holland;52.434;4.843
1506;Zaandam;Noord-Holland;52.437;4.823
1507;Zaandam;Noord-Holland;52.435;4.813
1508;Zaandam;Noord-Holland;52.459;4.83
1509;Zaandam;Noord-Holland;52.463;4.816
1510;Oostzaan;Noord-Holland;52.446;4.872
1511;Oostzaan;Noord-Holland;52.446;4.872
1520;Wormerveer;Noord-Holland;52.489;4.796
1521;Wormerveer;Noord-Holland;52.489;4.796
1525;Westknollendam;Noord-Holland;52.516;4.785
1530;Wormer;Noord-Holland;52.495;4.801
1531;Wormer;Noord-Holland;52.495;4.801
1534;Oostknollendam;Noord-Holland;52.513;4.805
1536;Markenbinnen;Noord-Holland;52.523;4.782
1540;Koog aan de Zaan;Noord-Holland;52.455;4.81
1541;Koog aan de Zaan;Noord-Holland;52.455;4.81
1544;Zaandijk;Noord-Holland;52.471;4.811
1546;Jisp;Noord-Holland;52.506;4.847
1550;Westzaan;Noord-Holland;52.462;4.773
1551;Westzaan;Noord-Holland;52.462;4.773
1560;Krommenie;Noord-Holland;52.495;4.766
1561;Krommenie;Noord-Holland;52.495;4.766
1562;Krommenie;Noord-Holland;52.505;4.761
1566;Assendelft;Noord-Holland;52.439;4.717
1567;Assendelft;Noord-Holland;52.487;4.754
1600;Enkhuizen;Noord-Holland;52.704;5.293
1601;Enkhuizen;Noord-Holland;52.704;5.293
1602;Enkhuizen;Noord-Holland;52.717;5.265
1606;Venhuizen;Noord-Holland;52.678;5.238
1607;Hem;Noord-Holland;52.661;5.196
1608;Wijdenes;Noord-Holland;52.646;5.161
1609;Oosterleek;Noord-Holland;52.638;5.197
1610;Bovenkarspel;Noord-Holland;52.697;5.236
1611;Bovenkarspel;Noord-Holland;52.697;5.236
1613;Grootebroek;Noord-Holland;52.69;5.232
1614;Grootebroek;Noord-Holland;52.7;5.21
1616;Lutjebroek;Noord-Holland;52.69;5.156
1617;Westwoud;Noord-Holland;52.683;5.134
1619;Andijk;Noord-Holland;52.744;5.252
1620;Hoorn;Noord-Holland;52.635;5.057
1621;Hoorn;Noord-Holland;52.635;5.057
1622;Hoorn;Noord-Holland;52.642;5.049
1623;Hoorn;Noord-Holland;52.642;5.072
1624;Hoorn;Noord-Holland;52.644;5.059
1625;Hoorn;Noord-Holland;52.654;5.049
1627;Hoorn;Noord-Holland;52.635;5.106
1628;Hoorn;Noord-Holland;52.653;5.081
1631;Oudendijk;Noord-Holland;52.605;4.96
1633;Avenhorn;Noord-Holland;52.623;4.953
1634;Avenhorn;Noord-Holland;52.623;5.016
1636;Schermerhorn;Noord-Holland;52.601;4.888
1641;Spierdijk;Noord-Holland;52.649;4.94
1642;Spierdijk;Noord-Holland;52.649;4.949
1643;Spierdijk;Noord-Holland;52.652;4.941
1645;Ursem;Noord-Holland;52.623;4.928
1646;Ursem gem. S;Noord-Holland;52.624;4.87
1647;Berkhout;Noord-Holland;52.643;5.026
1648;De Goorn;Noord-Holland;52.629;4.951
1652;Zuidermeer;Noord-Holland;52.663;4.975
1654;Benningbroek;Noord-Holland;52.711;5.028
1655;Sijbekarspel;Noord-Holland;52.704;5.01
1657;De Weere;Noord-Holland;52.739;5.019
1658;Lambertschaag;Noord-Holland;52.749;5.038
1661;De Weere;Noord-Holland;52.73;4.992
1662;De Weere;Noord-Holland;52.722;4.998
1663;De Weere;Noord-Holland;52.721;5
1670;Medemblik;Noord-Holland;52.771;5.108
1671;Medemblik;Noord-Holland;52.771;5.108
1674;Opperdoes;Noord-Holland;52.759;5.082
1676;Twisk;Noord-Holland;52.746;5.064
1678;Oostwoud;Noord-Holland;52.724;5.091
1679;Midwoud;Noord-Holland;52.701;5.073
1681;Zwaagdijk-Oost;Noord-Holland;52.71;5.154
1682;Zwaagdijk-Oost;Noord-Holland;52.699;5.113
1683;Zwaagdijk-Oost;Noord-Holland;52.708;5.141
1684;Zwaagdijk-Oost;Noord-Holland;52.698;5.118
1685;Zwaagdijk-West;Noord-Holland;52.682;5.075
1686;Zwaagdijk-West;Noord-Holland;52.671;5.04
1687;Wognum;Noord-Holland;52.681;5.033
1688;Nibbixwoud;Noord-Holland;52.691;5.053
1689;Zwaag;Noord-Holland;52.663;5.063
1691;Hauwert;Noord-Holland;52.7;5.088
1692;Hauwert;Noord-Holland;52.718;5.115
1693;Wervershoof;Noord-Holland;52.726;5.15
1695;Blokker;Noord-Holland;52.664;5.101
1696;Oosterblokker;Noord-Holland;52.67;5.097
1697;Schellinkhout;Noord-Holland;52.648;5.112
1700;Heerhugowaard;Noord-Holland;52.674;4.845
1701;Heerhugowaard;Noord-Holland;52.674;4.845
1702;Heerhugowaard;Noord-Holland;52.664;4.833
1703;Heerhugowaard;Noord-Holland;52.656;4.82
1704;Obdam;Noord-Holland;52.67;4.821
1705;Heerhugowaard;Noord-Holland;52.653;4.841
1706;Heerhugowaard;Noord-Holland;52.667;4.862
1710;Hensbroek;Noord-Holland;52.658;4.888
1711;Hensbroek;Noord-Holland;52.658;4.888
1713;Obdam;Noord-Holland;52.674;4.913
1715;Spanbroek;Noord-Holland;52.699;4.958
1716;Opmeer;Noord-Holland;52.705;4.947
1718;Hoogwoud;Noord-Holland;52.712;4.942
1719;Aartswoud;Noord-Holland;52.743;4.951
1720;Broek op Langedijk;Noord-Holland;52.669;4.802
1721;Broek op Langedijk;Noord-Holland;52.669;4.802
1722;Zuid-Scharwoude;Noord-Holland;52.69;4.812
1723;Noord-Scharwoude;Noord-Holland;52.697;4.806
1724;Oudkarspel;Noord-Holland;52.702;4.781
1730;Winkel;Noord-Holland;52.761;4.889
1731;Winkel;Noord-Holland;52.761;4.889
1732;Lutjewinkel;Noord-Holland;52.762;4.866
1733;Nieuwe Niedorp;Noord-Holland;52.747;4.901
1734;Oude Niedorp;Noord-Holland;52.726;4.873
1735;'t Veld;Noord-Holland;52.746;4.864
1736;Zijdewind;Noord-Holland;52.742;4.836
1738;Waarland;Noord-Holland;52.725;4.836
1740;Schagen;Noord-Holland;52.786;4.794
1741;Schagen;Noord-Holland;52.786;4.794
1742;Schagen;Noord-Holland;52.784;4.789
1744;Sint Maarten;Noord-Holland;52.764;4.789
1746;Dirkshorn;Noord-Holland;52.748;4.779
1747;Dirkshorn;Noord-Holland;52.735;4.773
1749;Warmenhuizen;Noord-Holland;52.726;4.74
1750;Schagerbrug;Noord-Holland;52.801;4.761
1751;Schagerbrug;Noord-Holland;52.801;4.761
1752;Sint Maartensbrug;Noord-Holland;52.779;4.73
1753;Sint Maartensvlotbrug;Noord-Holland;52.792;4.69
1754;Burgerbrug;Noord-Holland;52.753;4.682
1755;Petten;Noord-Holland;52.759;4.666
1756;'t Zand;Noord-Holland;52.833;4.752
1757;Oudesluis;Noord-Holland;52.819;4.823
1759;Callantsoog;Noord-Holland;52.837;4.697
1760;Anna Paulowna;Noord-Holland;52.861;4.834
1761;Anna Paulowna;Noord-Holland;52.861;4.834
1764;Breezand;Noord-Holland;52.872;4.8
1766;Wieringerwaard;Noord-Holland;52.829;4.893
1767;Kolhorn;Noord-Holland;52.79;4.888
1768;Barsingerhorn;Noord-Holland;52.784;4.843
1769;Haringhuizen;Noord-Holland;52.773;4.829
1770;Wieringerwerf;Noord-Holland;52.847;5.025
1771;Wieringerwerf;Noord-Holland;52.847;5.025
1773;Kreileroord;Noord-Holland;52.84;5.082
1774;Slootdorp;Noord-Holland;52.839;4.971
1775;Middenmeer;Noord-Holland;52.81;4.991
1777;Hippolytushoef;Noord-Holland;52.905;4.963
1778;Westerland;Noord-Holland;52.892;4.951
1779;Den Oever;Noord-Holland;52.933;5.036
1780;Den Helder;Noord-Holland;52.963;4.772
1781;Den Helder;Noord-Holland;52.963;4.772
1782;Den Helder;Noord-Holland;52.956;4.76
1783;Den Helder;Noord-Holland;52.951;4.737
1784;Den Helder;Noord-Holland;52.948;4.746
1785;Den Helder;Noord-Holland;52.946;4.77
1786;Den Helder;Noord-Holland;52.895;4.757
1787;Julianadorp;Noord-Holland;52.895;4.752
1788;Julianadorp;Noord-Holland;52.892;4.75
1789;Den Helder;Noord-Holland;52.954;4.736
1790;Den Burg;Noord-Holland;53.055;4.798
1791;Den Burg;Noord-Holland;53.055;4.798
1792;Oudeschild;Noord-Holland;53.039;4.846
1793;De Waal;Noord-Holland;53.072;4.819
1794;Oosterend;Noord-Holland;53.086;4.872
1795;De Cocksdorp;Noord-Holland;53.156;4.871
1796;De Koog;Noord-Holland;53.1;4.76
1797;Den Hoorn;Noord-Holland;53.025;4.754
1800;Alkmaar;Noord-Holland;52.624;4.752
1801;Alkmaar;Noord-Holland;52.624;4.752
1802;Alkmaar;Noord-Holland;52.624;4.752
1810;Alkmaar;Noord-Holland;52.624;4.752
1811;Alkmaar;Noord-Holland;52.627;4.753
1812;Alkmaar;Noord-Holland;52.612;4.741
1813;Alkmaar;Noord-Holland;52.624;4.752
1814;Alkmaar;Noord-Holland;52.625;4.752
1815;Alkmaar;Noord-Holland;52.636;4.746
1816;Alkmaar;Noord-Holland;52.636;4.734
1817;Alkmaar;Noord-Holland;52.643;4.743
1821;Alkmaar;Noord-Holland;52.629;4.757
1822;Alkmaar;Noord-Holland;52.639;4.779
1823;Alkmaar;Noord-Holland;52.632;4.756
1824;Alkmaar;Noord-Holland;52.643;4.755
1825;Alkmaar;Noord-Holland;52.648;4.745
1826;Alkmaar;Noord-Holland;52.649;4.758
1827;Alkmaar;Noord-Holland;52.669;4.757
1829;Oudorp;Noord-Holland;52.631;4.773
1830;Koedijk;Noord-Holland;52.687;4.735
1831;Koedijk;Noord-Holland;52.673;4.757
1832;Koedijk;Noord-Holland;52.687;4.735
1834;Sint Pancras;Noord-Holland;52.665;4.789
1840;Stompetoren;Noord-Holland;52.609;4.84
1841;Stompetoren;Noord-Holland;52.615;4.823
1842;Heerhugowaard;Noord-Holland;52.638;4.836
1843;Grootschermer;Noord-Holland;52.592;4.856
1844;Driehuizen;Noord-Holland;52.583;4.825
1846;Zuidschermer;Noord-Holland;52.56;4.789
1847;Driehuizen;Noord-Holland;52.596;4.761
1850;Heiloo;Noord-Holland;52.619;4.721
1851;Heiloo;Noord-Holland;52.619;4.721
1852;Heiloo;Noord-Holland;52.608;4.708
1853;Heiloo;Noord-Holland;52.593;4.703
1860;Bergen (NH);Noord-Holland;51.974;4.507
1861;Bergen (NH);Noord-Holland;52.664;4.686
1862;Bergen (NH);Noord-Holland;52.682;4.7
1865;Bergen aan Zee;Noord-Holland;52.661;4.655
1870;Schoorl;Noord-Holland;52.721;4.676
1871;Schoorl;Noord-Holland;52.687;4.7
1873;Groet;Noord-Holland;52.719;4.672
1900;Castricum;Noord-Holland;52.545;4.659
1901;Castricum;Noord-Holland;52.545;4.659
1902;Castricum;Noord-Holland;52.544;4.676
1906;Heiloo;Noord-Holland;52.554;4.702
1910;Uitgeest;Noord-Holland;52.52;4.71
1911;Uitgeest;Noord-Holland;52.52;4.71
1920;Akersloot;Noord-Holland;52.56;4.731
1921;Akersloot;Noord-Holland;52.56;4.731
1930;Egmond aan Zee;Noord-Holland;52.616;4.621
1931;Egmond aan den Hoef;Noord-Holland;52.616;4.621
1934;Egmond aan den Hoef;Noord-Holland;52.619;4.649
1935;Egmond-Binnen;Noord-Holland;52.587;4.656
1940;Beverwijk;Noord-Holland;50.082;4.447
1941;Beverwijk;Noord-Holland;52.48;4.655
1942;Beverwijk;Noord-Holland;52.481;4.652
1943;Beverwijk;Noord-Holland;52.484;4.644
1944;Beverwijk;Noord-Holland;52.489;4.66
1945;Beverwijk;Noord-Holland;52.494;4.669
1946;Beverwijk;Noord-Holland;52.489;4.676
1947;Beverwijk;Noord-Holland;52.484;4.661
1948;Beverwijk;Noord-Holland;52.486;4.679
1949;Wijk aan Zee;Noord-Holland;52.49;4.611
1950;Velsen-Noord;Noord-Holland;52.474;4.649
1951;Velsen-Noord;Noord-Holland;52.474;4.649
1954;Tiel;Gelderland;51.89;5.415
1960;Heemskerk;Noord-Holland;52.516;4.671
1961;Heemskerk;Noord-Holland;52.509;4.671
1962;Heemskerk;Noord-Holland;52.516;4.671
1963;Heemskerk;Noord-Holland;52.519;4.681
1964;Heemskerk;Noord-Holland;52.502;4.667
1965;Heemskerk;Noord-Holland;52.498;4.655
1966;Heemskerk;Noord-Holland;52.498;4.684
1967;Heemskerk;Noord-Holland;52.492;4.687
1968;Heemskerk;Noord-Holland;52.519;4.666
1969;Heemskerk;Noord-Holland;52.501;4.602
1970;IJmuiden;Noord-Holland;52.462;4.625
1971;IJmuiden;Noord-Holland;52.462;4.625
1972;IJmuiden;Noord-Holland;52.461;4.618
1973;IJmuiden;Noord-Holland;52.46;4.602
1974;IJmuiden;Noord-Holland;52.452;4.595
1975;IJmuiden;Noord-Holland;52.464;4.598
1976;IJmuiden;Noord-Holland;52.453;4.593
1980;Velsen-Zuid;Noord-Holland;52.461;4.649
1981;Velsen-Zuid;Noord-Holland;52.461;4.649
1985;Driehuis NH;Noord-Holland;52.449;4.64
1990;Velserbroek;Noord-Holland;52.443;4.654
1991;Velserbroek;Noord-Holland;52.443;4.654
1992;Velserbroek;Noord-Holland;52.429;4.672
2000;Haarlem;Noord-Holland;52.381;4.646
2001;Haarlem;Noord-Holland;52.381;4.646
2002;Haarlem;Noord-Holland;52.381;4.646
2003;Haarlem;Noord-Holland;52.381;4.646
2011;Haarlem;Noord-Holland;52.381;4.646
2012;Haarlem;Noord-Holland;52.376;4.641
2013;Haarlem;Noord-Holland;52.386;4.625
2014;Overveen;Noord-Holland;52.38;4.616
2015;Haarlem;Noord-Holland;52.384;4.619
2019;Haarlem;Noord-Holland;52.381;4.642
2021;Haarlem;Noord-Holland;52.392;4.648
2022;Haarlem;Noord-Holland;52.396;4.643
2023;Haarlem;Noord-Holland;52.39;4.633
2024;Haarlem;Noord-Holland;52.401;4.629
2025;Haarlem;Noord-Holland;52.406;4.656
2026;Haarlem;Noord-Holland;52.418;4.651
2031;Haarlem;Noord-Holland;52.401;4.66
2032;Haarlem;Noord-Holland;52.38;4.648
2033;Haarlem;Noord-Holland;52.381;4.669
2034;Haarlem;Noord-Holland;52.365;4.645
2035;Haarlem;Noord-Holland;52.363;4.666
2036;Haarlem;Noord-Holland;52.355;4.654
2037;Haarlem;Noord-Holland;52.36;4.654
2040;Zandvoort;Noord-Holland;52.376;4.53
2041;Zandvoort;Noord-Holland;52.376;4.53
2042;Zandvoort;Noord-Holland;52.369;4.522
2050;Overveen;Noord-Holland;52.389;4.61
2051;Overveen;Noord-Holland;52.385;4.598
2060;Bloemendaal;Noord-Holland;52.41;4.612
2061;Bloemendaal;Noord-Holland;52.41;4.612
2063;Spaarndam gem. Haarlem;Noord-Holland;52.415;4.675
2064;Spaarndam;Noord-Holland;52.403;4.68
2065;Haarlemmerliede;Noord-Holland;52.385;4.702
2070;Santpoort-Noord;Noord-Holland;52.422;4.64
2071;Santpoort-Noord;Noord-Holland;52.422;4.64
2080;Santpoort-Zuid;Noord-Holland;52.419;4.633
2082;Santpoort-Zuid;Noord-Holland;52.419;4.633
2100;Heemstede;Noord-Holland;52.357;4.622
2101;Heemstede;Noord-Holland;52.357;4.622
2102;Heemstede;Noord-Holland;52.357;4.635
2103;Heemstede;Noord-Holland;52.343;4.618
2104;Heemstede;Noord-Holland;52.331;4.605
2105;Heemstede;Noord-Holland;52.337;4.598
2106;Heemstede;Noord-Holland;52.356;4.603
2110;Aerdenhout;Noord-Holland;52.365;4.579
2111;Aerdenhout;Noord-Holland;52.365;4.579
2114;Vogelenzang;Noord-Holland;52.324;4.588
2116;Bentveld;Noord-Holland;52.366;4.576
2120;Bennebroek;Noord-Holland;52.326;4.596
2121;Bennebroek;Noord-Holland;52.326;4.596
2130;Hoofddorp;Noord-Holland;52.313;4.694
2131;Hoofddorp;Noord-Holland;52.313;4.694
2132;Hoofddorp;Noord-Holland;52.301;4.707
2133;Hoofddorp;Noord-Holland;52.313;4.675
2134;Hoofddorp;Noord-Holland;52.3;4.635
2135;Hoofddorp;Noord-Holland;52.289;4.656
2136;Zwaanshoek;Noord-Holland;52.311;4.617
2140;Vijfhuizen;Noord-Holland;52.351;4.679
2141;Vijfhuizen;Noord-Holland;52.351;4.679
2142;Cruquius;Noord-Holland;52.335;4.634
2143;Boesingheliede;Noord-Holland;52.358;4.729
2144;Beinsdorp;Noord-Holland;52.286;4.595
2150;Nieuw-Vennep;Noord-Holland;51.974;4.507
2151;Nieuw-Vennep;Noord-Holland;52.265;4.632
2152;Nieuw-Vennep;Noord-Holland;52.268;4.638
2153;Nieuw-Vennep;Noord-Holland;52.261;4.641
2154;Burgerveen;Noord-Holland;52.241;4.68
2155;Leimuiderbrug;Noord-Holland;52.231;4.671
2156;Weteringbrug;Noord-Holland;52.222;4.646
2157;Abbenes;Noord-Holland;52.226;4.618
2158;Buitenkaag;Noord-Holland;52.218;4.564
2159;Kaag;Zuid-Holland;52.214;4.586
2160;Lisse;Zuid-Holland;52.265;4.559
2161;Lisse;Zuid-Holland;52.265;4.559
2162;Lisse;Zuid-Holland;52.249;4.561
2163;Lisse;Zuid-Holland;52.265;4.564
2165;Lisserbroek;Noord-Holland;52.238;4.565
2166;Sassenheim;Zuid-Holland;51.974;4.507
2170;Sassenheim;Zuid-Holland;52.222;4.514
2171;Sassenheim;Zuid-Holland;52.222;4.514
2172;Sassenheim;Zuid-Holland;52.226;4.53
2180;Hillegom;Zuid-Holland;52.303;4.586
2181;Hillegom;Zuid-Holland;52.289;4.587
2182;Hillegom;Zuid-Holland;52.296;4.578
2190;De Zilk;Zuid-Holland;52.3;4.547
2191;De Zilk;Zuid-Holland;52.3;4.547
2200;Noordwijk;Zuid-Holland;52.218;4.434
2201;Noordwijk;Zuid-Holland;52.218;4.434
2202;Noordwijk;Zuid-Holland;52.232;4.425
2203;Noordwijk;Zuid-Holland;52.238;4.456
2204;Noordwijk;Zuid-Holland;52.294;4.506
2210;Noordwijkerhout;Zuid-Holland;52.264;4.493
2211;Noordwijkerhout;Zuid-Holland;52.264;4.493
2215;Voorhout;Zuid-Holland;52.224;4.479
2220;Katwijk;Zuid-Holland;52.206;4.412
2221;Katwijk;Zuid-Holland;52.206;4.412
2222;Katwijk;Zuid-Holland;52.202;4.427
2223;Katwijk;Zuid-Holland;52.198;4.426
2224;Katwijk;Zuid-Holland;52.202;4.419
2225;Katwijk;Zuid-Holland;52.208;4.398
2230;Rijnsburg;Zuid-Holland;52.183;4.446
2231;Rijnsburg;Zuid-Holland;52.183;4.446
2235;Valkenburg;Zuid-Holland;52.182;4.426
2240;Wassenaar;Zuid-Holland;52.14;4.408
2241;Wassenaar;Zuid-Holland;52.14;4.408
2242;Katwijk;Zuid-Holland;52.141;4.414
2243;Wassenaar;Zuid-Holland;52.134;4.396
2244;'s-Gravenhage;Zuid-Holland;52.118;4.357
2245;Wassenaar;Zuid-Holland;52.149;4.433
2250;Voorschoten;Zuid-Holland;52.12;4.446
2251;Voorschoten;Zuid-Holland;52.12;4.446
2252;Voorschoten;Zuid-Holland;52.122;4.442
2253;Voorschoten;Zuid-Holland;52.13;4.454
2254;Voorschoten;Zuid-Holland;52.128;4.433
2260;Leidschendam;Zuid-Holland;52.099;4.392
2261;Leidschendam;Zuid-Holland;52.099;4.392
2262;Leidschendam;Zuid-Holland;52.088;4.378
2263;Leidschendam;Zuid-Holland;52.097;4.408
2264;Leidschendam;Zuid-Holland;52.082;4.388
2265;Leidschendam;Zuid-Holland;52.08;4.397
2266;Leidschendam;Zuid-Holland;52.078;4.395
2267;Leidschendam;Zuid-Holland;52.06;4.354
2270;Voorburg;Zuid-Holland;52.078;4.385
2271;Voorburg;Zuid-Holland;52.068;4.357
2272;Voorburg;Zuid-Holland;52.078;4.385
2273;Voorburg;Zuid-Holland;52.073;4.363
2274;Voorburg;Zuid-Holland;52.069;4.355
2275;Voorburg;Zuid-Holland;52.065;4.359
2280;Rijswijk;Zuid-Holland;52.059;4.336
2281;Rijswijk;Zuid-Holland;52.059;4.336
2282;Rijswijk;Zuid-Holland;52.059;4.335
2283;Rijswijk;Zuid-Holland;52.047;4.331
2284;Rijswijk;Zuid-Holland;52.041;4.311
2285;Rijswijk;Zuid-Holland;52.037;4.305
2286;Rijswijk;Zuid-Holland;52.033;4.314
2287;Rijswijk;Zuid-Holland;52.036;4.321
2288;Rijswijk;Zuid-Holland;52.043;4.34
2289;Rijswijk;Zuid-Holland;52.053;4.344
2290;Wateringen;Zuid-Holland;52.025;4.284
2291;'s-Gravenhage;Zuid-Holland;52.025;4.284
2292;Wateringen;Zuid-Holland;52.019;4.282
2295;Kwintsheul;Zuid-Holland;52.015;4.252
2300;Leiden;Zuid-Holland;52.159;4.479
2301;Leiden;Zuid-Holland;52.159;4.479
2302;Leiden;Zuid-Holland;52.159;4.479
2303;Leiden;Zuid-Holland;52.159;4.479
2311;Leiden;Zuid-Holland;52.159;4.479
2312;Leiden;Zuid-Holland;52.161;4.48
2313;Leiden;Zuid-Holland;52.153;4.489
2314;Leiden;Zuid-Holland;52.154;4.515
2315;Leiden;Zuid-Holland;52.169;4.51
2316;Leiden;Zuid-Holland;52.165;4.49
2317;Leiden;Zuid-Holland;52.172;4.509
2318;Leiden;Zuid-Holland;52.178;4.501
2321;Leiden;Zuid-Holland;52.156;4.472
2322;Leiden;Zuid-Holland;52.133;4.494
2323;Leiden;Zuid-Holland;52.136;4.477
2324;Amersfoort;Zuid-Holland;52.14;4.485
2331;Leiden;Zuid-Holland;52.16;4.449
2332;Leiden;Zuid-Holland;52.161;4.472
2333;Leiden;Zuid-Holland;52.168;4.481
2334;Leiden;Zuid-Holland;52.174;4.472
2340;Oegstgeest;Zuid-Holland;52.18;4.449
2341;Oegstgeest;Zuid-Holland;52.18;4.449
2342;Oegstgeest;Zuid-Holland;52.178;4.465
2343;Oegstgeest;Zuid-Holland;52.192;4.466
2350;Leiderdorp;Zuid-Holland;52.15;4.523
2351;Leiderdorp;Zuid-Holland;52.15;4.523
2352;Leiderdorp;Zuid-Holland;52.162;4.516
2353;Leiderdorp;Zuid-Holland;52.171;4.52
2355;Hoogmade;Zuid-Holland;52.166;4.572
2360;Warmond;Zuid-Holland;52.199;4.509
2361;Sassenheim;Zuid-Holland;52.199;4.509
2362;Warmond;Zuid-Holland;52.188;4.529
2370;Roelofarendsveen;Zuid-Holland;52.193;4.615
2371;Oude Wetering;Zuid-Holland;52.193;4.615
2374;Oude Wetering;Zuid-Holland;52.188;4.57
2375;Rijpwetering;Zuid-Holland;52.193;4.584
2376;Nieuwe Wetering;Zuid-Holland;52.213;4.622
2377;Oude Wetering;Zuid-Holland;52.206;4.647
2380;Zoeterwoude;Zuid-Holland;52.116;4.497
2381;Zoeterwoude;Zuid-Holland;52.116;4.497
2382;Zoeterwoude;Zuid-Holland;52.144;4.525
2390;Hazerswoude-Dorp;Zuid-Holland;51.974;4.507
2391;Hazerswoude-Rijndijk;Zuid-Holland;52.095;4.599
2394;Koudekerk aan den Rijn;Zuid-Holland;52.133;4.552
2396;Koudekerk aan den Rijn;Zuid-Holland;52.132;4.597
2400;Alphen aan den Rijn;Zuid-Holland;52.144;4.655
2401;Alphen aan den Rijn;Zuid-Holland;52.144;4.655
2402;Alphen aan den Rijn;Zuid-Holland;52.14;4.667
2403;Alphen aan den Rijn;Zuid-Holland;52.139;4.676
2404;Alphen aan den Rijn;Zuid-Holland;52.136;4.656
2405;Alphen aan den Rijn;Zuid-Holland;52.121;4.662
2406;Alphen aan den Rijn;Zuid-Holland;52.122;4.666
2407;Alphen aan den Rijn;Zuid-Holland;52.099;4.668
2408;Alphen aan den Rijn;Zuid-Holland;52.123;4.633
2409;Alphen aan den Rijn;Zuid-Holland;52.105;4.646
2410;Bodegraven;Zuid-Holland;52.085;4.747
2411;Bodegraven;Zuid-Holland;52.085;4.747
2412;Bodegraven;Zuid-Holland;52.077;4.761
2415;Nieuwerbrug aan den Rijn;Zuid-Holland;52.078;4.813
2420;Nieuwkoop;Zuid-Holland;52.132;4.762
2421;Nieuwkoop;Zuid-Holland;52.132;4.762
2430;Noorden;Zuid-Holland;52.163;4.815
2431;Noorden;Zuid-Holland;52.163;4.815
2432;Noorden;Zuid-Holland;52.17;4.848
2435;Zevenhoven;Zuid-Holland;52.193;4.772
2440;Nieuwveen;Zuid-Holland;52.194;4.754
2441;Nieuwveen;Zuid-Holland;52.194;4.754
2445;Aarlanderveen;Zuid-Holland;52.127;4.731
2450;Leimuiden;Zuid-Holland;52.226;4.682
2451;Rijnsaterwoude;Zuid-Holland;52.225;4.678
2460;Ter Aar;Zuid-Holland;52.166;4.707
2461;Ter Aar;Zuid-Holland;52.166;4.707
2465;Rijnsaterwoude;Zuid-Holland;52.206;4.669
2470;Zwammerdam;Zuid-Holland;52.104;4.73
2471;Zwammerdam;Zuid-Holland;52.104;4.73
2480;Woubrugge;Zuid-Holland;52.167;4.637
2481;Woubrugge;Zuid-Holland;52.167;4.637
2490;'s-Gravenhage;Zuid-Holland;51.974;4.507
2491;'s-Gravenhage;Zuid-Holland;52.071;4.4
2492;'s-Gravenhage;Zuid-Holland;52.066;4.407
2493;'s-Gravenhage;Zuid-Holland;52.059;4.391
2495;'s-Gravenhage;Zuid-Holland;52.063;4.365
2496;'s-Gravenhage;Zuid-Holland;52.051;4.383
2497;'s-Gravenhage;Zuid-Holland;52.036;4.356
2498;'s-Gravenhage;Zuid-Holland;52.033;4.379
2500;'s-Gravenhage;Zuid-Holland;51.974;4.507
2501;'s-Gravenhage;Zuid-Holland;51.974;4.507
2502;'s-Gravenhage;Zuid-Holland;51.974;4.507
2503;'s-Gravenhage;Zuid-Holland;51.974;4.507
2504;'s-Gravenhage;Zuid-Holland;51.974;4.507
2505;'s-Gravenhage;Zuid-Holland;51.974;4.507
2506;'s-Gravenhage;Zuid-Holland;51.974;4.507
2507;'s-Gravenhage;Zuid-Holland;51.974;4.507
2508;'s-Gravenhage;Zuid-Holland;51.974;4.507
2509;'s-Gravenhage;Zuid-Holland;51.974;4.507
2511;'s-Gravenhage;Zuid-Holland;52.078;4.312
2512;'s-Gravenhage;Zuid-Holland;52.074;4.317
2513;'s-Gravenhage;Zuid-Holland;52.079;4.313
2514;'s-Gravenhage;Zuid-Holland;52.086;4.314
2515;'s-Gravenhage;Zuid-Holland;52.076;4.326
2516;'s-Gravenhage;Zuid-Holland;52.063;4.346
2517;'s-Gravenhage;Zuid-Holland;52.086;4.3
2518;'s-Gravenhage;Zuid-Holland;52.084;4.304
2521;'s-Gravenhage;Zuid-Holland;52.061;4.315
2522;'s-Gravenhage;Zuid-Holland;52.063;4.327
2523;'s-Gravenhage;Zuid-Holland;52.058;4.321
2524;'s-Gravenhage;Zuid-Holland;52.057;4.315
2525;'s-Gravenhage;Zuid-Holland;52.069;4.299
2526;'s-Gravenhage;Zuid-Holland;52.064;4.307
2531;'s-Gravenhage;Zuid-Holland;52.058;4.294
2532;'s-Gravenhage;Zuid-Holland;52.043;4.294
2533;'s-Gravenhage;Zuid-Holland;52.056;4.275
2541;'s-Gravenhage;Zuid-Holland;52.053;4.272
2542;'s-Gravenhage;Zuid-Holland;52.04;4.272
2543;'s-Gravenhage;Zuid-Holland;52.044;4.264
2544;'s-Gravenhage;Zuid-Holland;52.055;4.274
2545;'s-Gravenhage;Zuid-Holland;52.053;4.262
2546;'s-Gravenhage;Zuid-Holland;52.06;4.281
2547;'s-Gravenhage;Zuid-Holland;52.061;4.272
2548;'s-Gravenhage;Zuid-Holland;52.034;4.277
2551;'s-Gravenhage;Zuid-Holland;52.061;4.23
2552;'s-Gravenhage;Zuid-Holland;52.054;4.24
2553;'s-Gravenhage;Zuid-Holland;52.057;4.226
2554;'s-Gravenhage;Zuid-Holland;52.063;4.227
2555;'s-Gravenhage;Zuid-Holland;52.062;4.227
2561;'s-Gravenhage;Zuid-Holland;52.079;4.283
2562;'s-Gravenhage;Zuid-Holland;52.071;4.284
2563;'s-Gravenhage;Zuid-Holland;52.08;4.281
2564;'s-Gravenhage;Zuid-Holland;52.074;4.264
2565;'s-Gravenhage;Zuid-Holland;52.072;4.247
2566;'s-Gravenhage;Zuid-Holland;52.067;4.245
2571;'s-Gravenhage;Zuid-Holland;52.073;4.295
2572;'s-Gravenhage;Zuid-Holland;52.067;4.293
2573;'s-Gravenhage;Zuid-Holland;52.068;4.278
2574;'s-Gravenhage;Zuid-Holland;52.066;4.27
2581;'s-Gravenhage;Zuid-Holland;52.086;4.273
2582;'s-Gravenhage;Zuid-Holland;52.088;4.279
2583;'s-Gravenhage;Zuid-Holland;52.096;4.27
2584;'s-Gravenhage;Zuid-Holland;52.102;4.279
2585;'s-Gravenhage;Zuid-Holland;52.087;4.304
2586;'s-Gravenhage;Zuid-Holland;52.106;4.271
2587;'s-Gravenhage;Zuid-Holland;52.105;4.287
2591;'s-Gravenhage;Zuid-Holland;52.089;4.357
2592;'s-Gravenhage;Zuid-Holland;52.088;4.347
2593;'s-Gravenhage;Zuid-Holland;52.083;4.331
2594;'s-Gravenhage;Zuid-Holland;52.083;4.319
2595;'s-Gravenhage;Zuid-Holland;52.082;4.324
2596;'s-Gravenhage;Zuid-Holland;52.086;4.316
2597;'s-Gravenhage;Zuid-Holland;52.093;4.33
2600;Delft;Zuid-Holland;52.024;4.353
2601;Delft;Zuid-Holland;52.024;4.353
2611;Delft;Zuid-Holland;52.006;4.356
2612;Delft;Zuid-Holland;52.024;4.353
2613;Delft;Zuid-Holland;52.017;4.347
2614;Delft;Zuid-Holland;52.014;4.336
2616;Delft;Zuid-Holland;52.009;4.386
2622;Delft;Zuid-Holland;51.982;4.347
2623;Delft;Zuid-Holland;51.987;4.36
2624;Delft;Zuid-Holland;52.002;4.355
2625;Delft;Zuid-Holland;51.996;4.342
2626;Delft;Zuid-Holland;51.978;4.369
2627;Delft;Zuid-Holland;52.001;4.36
2628;Delft;Zuid-Holland;52.005;4.362
2629;Delft;Zuid-Holland;51.982;4.394
2630;Nootdorp;Zuid-Holland;52.041;4.391
2631;Nootdorp;Zuid-Holland;52.041;4.391
2632;Nootdorp;Zuid-Holland;52.049;4.404
2635;Den Hoorn;Zuid-Holland;51.996;4.327
2636;Schipluiden;Zuid-Holland;51.986;4.283
2640;Pijnacker;Zuid-Holland;52.02;4.431
2641;Pijnacker;Zuid-Holland;52.02;4.431
2642;Pijnacker;Zuid-Holland;52.013;4.444
2643;Pijnacker;Zuid-Holland;52.006;4.443
2645;Delfgauw;Zuid-Holland;52.01;4.399
2650;Berkel en Rodenrijs;Zuid-Holland;51.976;4.43
2651;Berkel en Rodenrijs;Zuid-Holland;51.976;4.43
2652;Berkel en Rodenrijs;Zuid-Holland;52.017;4.459
2660;Bergschenhoek;Zuid-Holland;51.977;4.476
2661;Bergschenhoek;Zuid-Holland;51.977;4.476
2662;Bergschenhoek;Zuid-Holland;51.985;4.496
2665;Bleiswijk;Zuid-Holland;52.013;4.528
2670;Naaldwijk;Zuid-Holland;51.997;4.202
2671;Naaldwijk;Zuid-Holland;51.997;4.202
2672;Naaldwijk;Zuid-Holland;51.996;4.214
2673;Naaldwijk;Zuid-Holland;51.998;4.205
2675;Honselersdijk;Zuid-Holland;52.004;4.215
2676;Maasdijk;Zuid-Holland;51.966;4.212
2678;De Lier;Zuid-Holland;51.974;4.245
2680;Monster;Zuid-Holland;52.023;4.174
2681;Monster;Zuid-Holland;52.023;4.174
2684;Ter Heijde;Zuid-Holland;52.03;4.168
2685;Monster;Zuid-Holland;52.026;4.21
2690;'s-Gravenzande;Zuid-Holland;52.004;4.162
2691;'s-Gravenzande;Zuid-Holland;52.004;4.162
2692;'s-Gravenzande;Zuid-Holland;52;4.159
2693;'s-Gravenzande;Zuid-Holland;51.999;4.178
2694;'s-Gravenzande;Zuid-Holland;52.006;4.167
2700;Zoetermeer;Zuid-Holland;52.06;4.483
2701;Zoetermeer;Zuid-Holland;52.06;4.483
2702;Zoetermeer;Zuid-Holland;52.06;4.483
2711;Zoetermeer;Zuid-Holland;52.06;4.483
2712;Zoetermeer;Zuid-Holland;52.057;4.493
2713;Zoetermeer;Zuid-Holland;52.055;4.491
2715;Zoetermeer;Zuid-Holland;52.05;4.473
2716;Zoetermeer;Zuid-Holland;52.05;4.465
2717;Zoetermeer;Zuid-Holland;52.065;4.467
2718;Zoetermeer;Zuid-Holland;52.045;4.49
2719;Zoetermeer;Zuid-Holland;52.045;4.486
2721;Zoetermeer;Zuid-Holland;52.063;4.548
2722;Zoetermeer;Zuid-Holland;52.052;4.508
2723;Zoetermeer;Zuid-Holland;52.06;4.513
2724;Zoetermeer;Zuid-Holland;52.062;4.506
2725;Zoetermeer;Zuid-Holland;52.073;4.495
2726;Zoetermeer;Zuid-Holland;52.063;4.488
2727;Zoetermeer;Zuid-Holland;52.069;4.505
2728;Zoetermeer;Zuid-Holland;52.077;4.513
2729;Zoetermeer;Zuid-Holland;52.066;4.528
2730;Benthuizen;Zuid-Holland;52.078;4.544
2731;Benthuizen;Zuid-Holland;52.078;4.544
2735;Gelderswoude;Zuid-Holland;52.093;4.533
2740;Waddinxveen;Zuid-Holland;52.058;4.651
2741;Waddinxveen;Zuid-Holland;52.058;4.651
2742;Waddinxveen;Zuid-Holland;52.062;4.639
2743;Waddinxveen;Zuid-Holland;52.04;4.646
2750;Moerkapelle;Zuid-Holland;52.046;4.578
2751;Moerkapelle;Zuid-Holland;52.046;4.578
2752;Moerkapelle;Zuid-Holland;52.04;4.582
2760;Zevenhuizen;Zuid-Holland;52.01;4.582
2761;Nieuwerkerk aan den IJssel;Zuid-Holland;52.01;4.582
2770;Boskoop;Zuid-Holland;52.091;4.692
2771;Boskoop;Zuid-Holland;52.091;4.692
2800;Gouda;Zuid-Holland;52.013;4.7
2801;Gouda;Zuid-Holland;52.013;4.7
2802;Gouda;Zuid-Holland;52.012;4.69
2803;Gouda;Zuid-Holland;52.027;4.698
2804;Gouda;Zuid-Holland;52.033;4.694
2805;Gouda;Zuid-Holland;52.018;4.71
2806;Gouda;Zuid-Holland;52.015;4.711
2807;Gouda;Zuid-Holland;52.009;4.736
2808;Gouda;Zuid-Holland;52.004;4.721
2809;Gouda;Zuid-Holland;52.006;4.687
2810;Reeuwijk;Zuid-Holland;52.048;4.726
2811;Reeuwijk;Zuid-Holland;52.048;4.726
2820;Stolwijk;Zuid-Holland;51.97;4.773
2821;Stolwijk;Zuid-Holland;51.97;4.773
2825;Berkenwoude;Zuid-Holland;51.947;4.718
2830;Gouderak;Zuid-Holland;51.982;4.673
2831;Gouderak;Zuid-Holland;51.982;4.673
2840;Moordrecht;Zuid-Holland;51.999;4.652
2841;Moordrecht;Zuid-Holland;51.994;4.68
2850;Haastrecht;Zuid-Holland;52.015;4.84
2851;Haastrecht;Zuid-Holland;52.015;4.84
2855;Vlist;Zuid-Holland;51.965;4.84
2860;Bergambacht;Zuid-Holland;51.931;4.784
2861;Bergambacht;Zuid-Holland;51.931;4.784
2865;Ammerstol;Zuid-Holland;51.928;4.809
2870;Schoonhoven;Zuid-Holland;51.942;4.87
2871;Schoonhoven;Zuid-Holland;51.942;4.87
2900;Capelle aan den IJssel;Zuid-Holland;51.914;4.569
2901;Capelle aan den IJssel;Zuid-Holland;51.914;4.569
2902;Capelle aan den IJssel;Zuid-Holland;51.926;4.578
2903;Capelle aan den IJssel;Zuid-Holland;51.93;4.589
2904;Capelle aan den IJssel;Zuid-Holland;51.929;4.608
2905;Capelle aan den IJssel;Zuid-Holland;51.938;4.598
2906;Capelle aan den IJssel;Zuid-Holland;51.933;4.57
2907;Capelle aan den IJssel;Zuid-Holland;51.949;4.568
2908;Capelle aan den IJssel;Zuid-Holland;51.956;4.586
2909;Capelle aan den IJssel;Zuid-Holland;51.906;4.545
2910;Nieuwerkerk aan den IJssel;Zuid-Holland;51.978;4.614
2911;Nieuwerkerk aan den IJssel;Zuid-Holland;51.964;4.621
2912;Nieuwerkerk aan den IJssel;Zuid-Holland;51.966;4.607
2913;Nieuwerkerk aan den IJssel;Zuid-Holland;51.965;4.593
2914;Nieuwerkerk aan den IJssel;Zuid-Holland;51.972;4.613
2920;Krimpen aan den IJssel;Zuid-Holland;51.912;4.58
2921;Krimpen aan den IJssel;Zuid-Holland;51.912;4.58
2922;Krimpen aan den IJssel;Zuid-Holland;51.918;4.585
2923;Krimpen aan den IJssel;Zuid-Holland;51.909;4.597
2924;Krimpen aan den IJssel;Zuid-Holland;51.927;4.62
2925;Krimpen aan den IJssel;Zuid-Holland;51.92;4.609
2926;Krimpen aan den IJssel;Zuid-Holland;51.909;4.606
2930;Krimpen aan de Lek;Zuid-Holland;51.893;4.622
2931;Krimpen aan de Lek;Zuid-Holland;51.893;4.622
2935;Ouderkerk aan den IJssel;Zuid-Holland;51.936;4.636
2940;Lekkerkerk;Zuid-Holland;51.895;4.685
2941;Lekkerkerk;Zuid-Holland;51.895;4.685
2950;Alblasserdam;Zuid-Holland;51.864;4.665
2951;Alblasserdam;Zuid-Holland;51.864;4.665
2952;Alblasserdam;Zuid-Holland;51.859;4.666
2953;Alblasserdam;Zuid-Holland;51.867;4.656
2954;Alblasserdam;Zuid-Holland;51.871;4.663
2957;Nieuw-Lekkerland;Zuid-Holland;51.89;4.688
2959;Streefkerk;Zuid-Holland;51.916;4.79
2960;Kinderdijk;Zuid-Holland;51.888;4.632
2961;Kinderdijk;Zuid-Holland;51.888;4.632
2964;Groot-Ammers;Zuid-Holland;51.924;4.815
2965;Nieuwpoort;Zuid-Holland;51.934;4.87
2967;Langerak;Zuid-Holland;51.932;4.876
2968;Waal;Zuid-Holland;51.938;4.899
2969;Oud-Alblas;Zuid-Holland;51.856;4.701
2970;Bleskensgraaf ca;Zuid-Holland;51.974;4.507
2971;Bleskensgraaf ca;Zuid-Holland;51.873;4.78
2973;Molenaarsgraaf;Zuid-Holland;51.876;4.825
2974;Brandwijk;Zuid-Holland;51.879;4.823
2975;Ottoland;Zuid-Holland;51.89;4.863
2977;Goudriaan;Zuid-Holland;51.901;4.894
2980;Ridderkerk;Zuid-Holland;51.865;4.596
2981;Ridderkerk;Zuid-Holland;51.865;4.596
2982;Ridderkerk;Zuid-Holland;51.873;4.595
2983;Ridderkerk;Zuid-Holland;51.885;4.603
2984;Ridderkerk;Zuid-Holland;51.874;4.626
2985;Ridderkerk;Zuid-Holland;51.864;4.597
2986;Ridderkerk;Zuid-Holland;51.86;4.637
2987;Ridderkerk;Zuid-Holland;51.898;4.58
2988;Ridderkerk;Zuid-Holland;51.861;4.587
2989;Ridderkerk;Zuid-Holland;51.851;4.636
2990;Barendrecht;Zuid-Holland;51.856;4.539
2991;Barendrecht;Zuid-Holland;51.858;4.538
2992;Barendrecht;Zuid-Holland;51.858;4.529
2993;Barendrecht;Zuid-Holland;51.857;4.482
2994;Barendrecht;Zuid-Holland;51.857;4.493
2995;Heerjansdam;Zuid-Holland;51.834;4.566
3000;Rotterdam;Zuid-Holland;51.955;4.53
3001;Rotterdam;Zuid-Holland;51.955;4.53
3002;Rotterdam;Zuid-Holland;51.955;4.53
3003;Rotterdam;Zuid-Holland;51.955;4.53
3004;Rotterdam;Zuid-Holland;51.955;4.53
3005;Rotterdam;Zuid-Holland;51.955;4.53
3006;Rotterdam;Zuid-Holland;51.955;4.53
3007;Rotterdam;Zuid-Holland;51.955;4.53
3008;Rotterdam;Zuid-Holland;51.955;4.53
3009;Rotterdam;Zuid-Holland;51.937;4.505
3011;Rotterdam;Zuid-Holland;51.92;4.481
3012;Rotterdam;Zuid-Holland;51.923;4.478
3013;Rotterdam;Zuid-Holland;51.924;4.473
3014;Rotterdam;Zuid-Holland;51.922;4.466
3015;Rotterdam;Zuid-Holland;51.911;4.476
3016;Rotterdam;Zuid-Holland;51.91;4.476
3021;Rotterdam;Zuid-Holland;51.922;4.462
3022;Rotterdam;Zuid-Holland;51.917;4.453
3023;Rotterdam;Zuid-Holland;51.916;4.453
3024;Rotterdam;Zuid-Holland;51.907;4.461
3025;Rotterdam;Zuid-Holland;51.909;4.448
3026;Rotterdam;Zuid-Holland;51.909;4.448
3027;Rotterdam;Zuid-Holland;51.915;4.434
3028;Rotterdam;Zuid-Holland;51.917;4.424
3029;Dordrecht;Zuid-Holland;51.91;4.431
3031;Rotterdam;Zuid-Holland;51.927;4.486
3032;Rotterdam;Zuid-Holland;51.927;4.477
3033;Rotterdam;Zuid-Holland;51.93;4.469
3034;Rotterdam;Zuid-Holland;51.933;4.491
3035;Rotterdam;Zuid-Holland;51.932;4.48
3036;Rotterdam;Zuid-Holland;51.94;4.484
3037;Rotterdam;Zuid-Holland;51.94;4.478
3038;Rotterdam;Zuid-Holland;51.931;4.47
3039;Rotterdam;Zuid-Holland;51.93;4.469
3041;Rotterdam;Zuid-Holland;51.926;4.437
3042;Rotterdam;Zuid-Holland;51.935;4.427
3043;Rotterdam;Zuid-Holland;51.937;4.427
3044;Schiedam;Zuid-Holland;51.924;4.424
3045;Rotterdam;Zuid-Holland;51.95;4.43
3046;Rotterdam;Zuid-Holland;51.951;4.41
3047;Rotterdam;Zuid-Holland;51.945;4.411
3050;Rotterdam;Zuid-Holland;51.974;4.507
3051;Rotterdam;Zuid-Holland;51.942;4.481
3052;Rotterdam;Zuid-Holland;51.951;4.465
3053;Rotterdam;Zuid-Holland;51.954;4.464
3054;Rotterdam;Zuid-Holland;51.946;4.483
3055;Rotterdam;Zuid-Holland;51.957;4.497
3056;Rotterdam;Zuid-Holland;51.95;4.516
3059;Rotterdam;Zuid-Holland;51.979;4.593
3061;Rotterdam;Zuid-Holland;51.927;4.51
3062;Rotterdam;Zuid-Holland;51.924;4.517
3063;Rotterdam;Zuid-Holland;51.918;4.513
3064;Rotterdam;Zuid-Holland;51.912;4.553
3065;Rotterdam;Zuid-Holland;51.923;4.541
3066;Rotterdam;Zuid-Holland;51.938;4.549
3067;Rotterdam;Zuid-Holland;51.94;4.549
3068;Rotterdam;Zuid-Holland;51.956;4.534
3069;Rotterdam;Zuid-Holland;51.965;4.549
3071;Rotterdam;Zuid-Holland;51.907;4.496
3072;Rotterdam;Zuid-Holland;51.899;4.477
3073;Rotterdam;Zuid-Holland;51.893;4.509
3074;Rotterdam;Zuid-Holland;51.893;4.51
3075;Rotterdam;Zuid-Holland;51.888;4.5
3076;Rotterdam;Zuid-Holland;51.877;4.53
3077;Rotterdam;Zuid-Holland;51.894;4.525
3078;Rotterdam;Zuid-Holland;51.888;4.549
3079;Rotterdam;Zuid-Holland;51.886;4.536
3081;Rozenburg;Zuid-Holland;51.896;4.49
3082;Rotterdam;Zuid-Holland;51.894;4.467
3083;Rotterdam;Zuid-Holland;51.887;4.496
3084;Rotterdam;Zuid-Holland;51.878;4.485
3085;Rotterdam;Zuid-Holland;51.875;4.482
3086;Rotterdam;Zuid-Holland;51.877;4.477
3087;Rotterdam;Zuid-Holland;51.897;4.46
3088;Rotterdam;Zuid-Holland;51.875;4.44
3089;Rotterdam;Zuid-Holland;51.888;4.471
3100;Schiedam;Zuid-Holland;51.921;4.407
3101;Schiedam;Zuid-Holland;51.921;4.407
3102;Schiedam;Zuid-Holland;51.921;4.407
3109;Schiedam;Zuid-Holland;51.921;4.407
3111;Schiedam;Zuid-Holland;51.913;4.401
3112;Schiedam;Zuid-Holland;51.913;4.412
3113;Schiedam;Zuid-Holland;51.913;4.411
3114;Schiedam;Zuid-Holland;51.908;4.406
3115;Schiedam;Zuid-Holland;51.905;4.385
3116;Schiedam;Zuid-Holland;51.91;4.402
3117;Schiedam;Zuid-Holland;51.913;4.396
3118;Schiedam;Zuid-Holland;51.92;4.386
3119;Schiedam;Zuid-Holland;51.918;4.39
3121;Schiedam;Zuid-Holland;51.93;4.377
3122;Schiedam;Zuid-Holland;51.927;4.372
3123;Schiedam;Zuid-Holland;51.94;4.368
3124;Schiedam;Zuid-Holland;51.941;4.376
3125;Schiedam;Zuid-Holland;51.927;4.407
3130;Vlaardingen;Zuid-Holland;51.904;4.317
3131;Vlaardingen;Zuid-Holland;51.908;4.344
3132;Vlaardingen;Zuid-Holland;51.904;4.317
3133;Vlaardingen;Zuid-Holland;51.899;4.347
3134;Vlaardingen;Zuid-Holland;51.914;4.347
3135;Vlaardingen;Zuid-Holland;51.913;4.355
3136;Vlaardingen;Zuid-Holland;51.927;4.34
3137;Vlaardingen;Zuid-Holland;51.935;4.354
3138;Vlaardingen;Zuid-Holland;51.921;4.297
3140;Maassluis;Zuid-Holland;51.921;4.254
3141;Maassluis;Zuid-Holland;51.921;4.254
3142;Maassluis;Zuid-Holland;51.928;4.251
3143;Maassluis;Zuid-Holland;51.919;4.253
3144;Maassluis;Zuid-Holland;51.927;4.242
3145;Maassluis;Zuid-Holland;51.933;4.232
3146;Maassluis;Zuid-Holland;51.935;4.22
3147;Maassluis;Zuid-Holland;51.935;4.238
3150;Hoek van Holland;Zuid-Holland;51.977;4.131
3151;Hoek van Holland;Zuid-Holland;51.977;4.131
3155;Maasland;Zuid-Holland;51.937;4.275
3160;Rhoon;Zuid-Holland;51.856;4.417
3161;Rhoon;Zuid-Holland;51.856;4.417
3162;Rhoon;Zuid-Holland;51.86;4.477
3165;Rotterdam-Albrandswaard;Zuid-Holland;51.868;4.42
3170;Poortugaal;Zuid-Holland;51.858;4.398
3171;Poortugaal;Zuid-Holland;51.858;4.398
3172;Poortugaal;Zuid-Holland;51.845;4.395
3176;Poortugaal;Zuid-Holland;51.855;4.393
3180;Rozenburg;Zuid-Holland;52.274;4.744
3181;Rozenburg;Zuid-Holland;51.901;4.26
3190;Hoogvliet Rotterdam;Zuid-Holland;51.974;4.507
3191;Hoogvliet Rotterdam;Zuid-Holland;51.86;4.36
3192;Hoogvliet Rotterdam;Zuid-Holland;51.857;4.352
3193;Hoogvliet Rotterdam;Zuid-Holland;51.872;4.352
3194;Hoogvliet Rotterdam;Zuid-Holland;51.872;4.374
3195;Pernis Rotterdam;Zuid-Holland;51.891;4.387
3196;Botlek Rotterdam;Zuid-Holland;51.875;4.378
3197;Botlek Rotterdam;Zuid-Holland;51.89;4.262
3198;Europoort Rotterdam;Zuid-Holland;51.938;4.124
3199;Spijkenisse;Zuid-Holland;51.967;4.036
3200;Spijkenisse;Zuid-Holland;51.853;4.33
3201;Spijkenisse;Zuid-Holland;51.853;4.33
3202;Spijkenisse;Zuid-Holland;51.854;4.315
3203;Spijkenisse;Zuid-Holland;51.839;4.335
3204;Spijkenisse;Zuid-Holland;51.84;4.32
3205;Spijkenisse;Zuid-Holland;51.837;4.337
3206;Spijkenisse;Zuid-Holland;51.834;4.332
3207;Spijkenisse;Zuid-Holland;51.843;4.352
3208;Spijkenisse;Zuid-Holland;51.828;4.313
3209;Hekelingen;Zuid-Holland;51.826;4.344
3211;Geervliet;Zuid-Holland;51.86;4.264
3212;Simonshaven;Zuid-Holland;51.821;4.286
3214;Simonshaven;Zuid-Holland;51.818;4.259
3216;Abbenbroek;Zuid-Holland;51.848;4.245
3218;Heenvliet;Zuid-Holland;51.868;4.243
3220;Hellevoetsluis;Zuid-Holland;51.83;4.131
3221;Hellevoetsluis;Zuid-Holland;51.83;4.131
3222;Hellevoetsluis;Zuid-Holland;51.837;4.121
3223;Hellevoetsluis;Zuid-Holland;51.839;4.137
3224;Hellevoetsluis;Zuid-Holland;51.823;4.135
3225;Hellevoetsluis;Zuid-Holland;51.829;4.161
3227;Oudenhoorn;Zuid-Holland;51.825;4.191
3230;Brielle;Zuid-Holland;51.905;4.177
3231;Brielle;Zuid-Holland;51.905;4.177
3232;Brielle;Zuid-Holland;51.898;4.157
3233;Oostvoorne;Zuid-Holland;51.915;4.108
3234;Tinte;Zuid-Holland;51.887;4.138
3235;Rockanje;Zuid-Holland;51.873;4.064
3237;Vierpolders;Zuid-Holland;51.877;4.181
3238;Zwartewaal;Zuid-Holland;51.881;4.222
3240;Middelharnis;Zuid-Holland;51.753;4.165
3241;Middelharnis;Zuid-Holland;51.753;4.165
3243;Stad aan 't Haringvliet;Zuid-Holland;51.738;4.243
3244;Nieuwe-Tonge;Zuid-Holland;51.714;4.166
3245;Sommelsdijk;Zuid-Holland;51.759;4.154
3247;Dirksland;Zuid-Holland;51.747;4.1
3248;Melissant;Zuid-Holland;51.769;4.066
3249;Herkingen;Zuid-Holland;51.712;4.091
3250;Stellendam;Zuid-Holland;51.807;4.023
3251;Goedereede;Zuid-Holland;51.807;4.023
3252;Goedereede;Zuid-Holland;51.817;3.978
3253;Ouddorp;Zuid-Holland;51.808;3.936
3255;Oude-Tonge;Zuid-Holland;51.69;4.21
3256;Achthuizen;Zuid-Holland;51.675;4.279
3257;Ooltgensplaat;Zuid-Holland;51.681;4.349
3258;Den Bommel;Zuid-Holland;51.715;4.288
3260;Oud-Beijerland;Zuid-Holland;51.822;4.422
3261;Meerssen;Zuid-Holland;51.822;4.422
3262;Oud-Beijerland;Zuid-Holland;51.826;4.408
3263;Oud-Beijerland;Zuid-Holland;51.822;4.39
3264;Nieuw-Beijerland;Zuid-Holland;51.81;4.34
3265;Piershil;Zuid-Holland;51.793;4.311
3267;Goudswaard;Zuid-Holland;51.793;4.276
3270;Mijnsheerenland;Zuid-Holland;51.796;4.487
3271;Mijnsheerenland;Zuid-Holland;51.796;4.487
3273;Westmaas;Zuid-Holland;51.787;4.47
3274;Heinenoord;Zuid-Holland;51.827;4.476
3280;Numansdorp;Zuid-Holland;51.742;4.444
3281;Numansdorp;Zuid-Holland;51.742;4.444
3284;Zuid-Beijerland;Zuid-Holland;51.752;4.365
3286;Klaaswaal;Zuid-Holland;51.771;4.446
3290;Strijen;Zuid-Holland;51.742;4.552
3291;Strijen;Zuid-Holland;51.742;4.552
3292;Strijensas;Zuid-Holland;51.715;4.587
3293;Mookhoek;Zuid-Holland;51.752;4.597
3295;'s-Gravendeel;Zuid-Holland;51.778;4.623
3297;Puttershoek;Zuid-Holland;51.807;4.574
3299;Maasdam;Zuid-Holland;51.789;4.552
3300;Dordrecht;Zuid-Holland;51.804;4.699
3301;Dordrecht;Zuid-Holland;51.804;4.699
3311;Dordrecht;Zuid-Holland;51.817;4.664
3312;Dordrecht;Zuid-Holland;51.813;4.691
3313;Dordrecht;Zuid-Holland;51.814;4.711
3314;Dordrecht;Zuid-Holland;51.805;4.655
3315;Dordrecht;Zuid-Holland;51.799;4.72
3316;Dordrecht;Zuid-Holland;51.804;4.649
3317;Dordrecht;Zuid-Holland;51.794;4.649
3318;Dordrecht;Zuid-Holland;51.79;4.68
3319;Dordrecht;Zuid-Holland;51.792;4.688
3328;Dordrecht;Zuid-Holland;51.776;4.683
3329;Dordrecht;Zuid-Holland;51.787;4.707
3330;Zwijndrecht;Zuid-Holland;51.816;4.651
3331;Dordrecht;Zuid-Holland;51.816;4.651
3332;Zwijndrecht;Zuid-Holland;51.823;4.644
3333;Zwijndrecht;Zuid-Holland;51.811;4.636
3334;Zwijndrecht;Zuid-Holland;51.814;4.617
3335;Zwijndrecht;Zuid-Holland;51.818;4.618
3336;Heerjansdam;Zuid-Holland;51.811;4.617
3340;Hendrik-Ido-Ambacht;Zuid-Holland;51.846;4.632
3341;Hendrik-Ido-Ambacht;Zuid-Holland;51.84;4.658
3342;Hendrik-Ido-Ambacht;Zuid-Holland;51.846;4.632
3343;Hendrik-Ido-Ambacht;Zuid-Holland;51.837;4.624
3344;Hendrik-Ido-Ambacht;Zuid-Holland;51.829;4.652
3350;Papendrecht;Zuid-Holland;51.824;4.682
3351;Papendrecht;Zuid-Holland;51.824;4.682
3352;Papendrecht;Zuid-Holland;51.84;4.687
3353;Papendrecht;Zuid-Holland;51.828;4.692
3354;Papendrecht;Zuid-Holland;51.83;4.703
3355;Papendrecht;Zuid-Holland;51.835;4.7
3356;Papendrecht;Zuid-Holland;51.829;4.714
3360;Sliedrecht;Zuid-Holland;51.827;4.746
3361;Sliedrecht;Zuid-Holland;51.816;4.784
3362;Sliedrecht;Zuid-Holland;51.822;4.777
3363;Sliedrecht;Zuid-Holland;51.827;4.746
3364;Sliedrecht;Zuid-Holland;51.83;4.765
3366;Wijngaarden;Zuid-Holland;51.844;4.763
3370;Hardinxveld-Giessendam;Zuid-Holland;51.828;4.831
3371;Hardinxveld-Giessendam;Zuid-Holland;51.828;4.831
3372;Hardinxveld-Giessendam;Zuid-Holland;51.823;4.883
3373;Hardinxveld-Giessendam;Zuid-Holland;51.833;4.836
3380;Giessenburg;Zuid-Holland;51.849;4.893
3381;Giessenburg;Zuid-Holland;51.849;4.893
3400;IJsselstein;Utrecht;52.023;5.04
3401;IJsselstein;Utrecht;52.023;5.04
3402;IJsselstein;Utrecht;52.021;5.057
3403;IJsselstein;Utrecht;52.02;5.028
3404;IJsselstein;Utrecht;52.013;5.048
3405;Benschop;Utrecht;52.008;4.981
3410;Lopik;Utrecht;51.974;4.948
3411;Benschop;Utrecht;51.974;4.948
3412;Lopikerkapel;Utrecht;51.983;5.016
3413;Jaarsveld;Utrecht;51.969;4.977
3415;Polsbroek;Utrecht;51.975;4.847
3417;Montfoort;Utrecht;52.047;4.951
3420;Oudewater;Utrecht;52.023;4.872
3421;Oudewater;Utrecht;52.023;4.872
3425;Snelrewaard;Utrecht;52.025;4.875
3430;Nieuwegein;Utrecht;52.037;5.083
3431;Nieuwegein;Utrecht;52.037;5.083
3432;Nieuwegein;Utrecht;52.026;5.098
3433;Nieuwegein;Utrecht;52.007;5.101
3434;Nieuwegein;Utrecht;52.008;5.091
3435;Nieuwegein;Utrecht;52.025;5.071
3436;Nieuwegein;Utrecht;52.028;5.069
3437;Nieuwegein;Utrecht;52.04;5.075
3438;Nieuwegein;Utrecht;52.037;5.092
3439;Nieuwegein;Utrecht;52.024;5.118
3440;Woerden;Utrecht;50.014;4.683
3441;Woerden;Utrecht;52.085;4.88
3442;Woerden;Utrecht;52.077;4.88
3443;Woerden;Utrecht;52.087;4.892
3444;Woerden;Utrecht;52.095;4.896
3445;Woerden;Utrecht;52.086;4.892
3446;Woerden;Utrecht;52.083;4.897
3447;Woerden;Utrecht;52.075;4.896
3448;Woerden;Utrecht;52.079;4.87
3449;Woerden;Utrecht;52.085;4.873
3450;Vleuten;Utrecht;52.107;5.013
3451;Utrecht;Utrecht;52.107;5.013
3452;Vleuten;Utrecht;52.098;4.997
3453;De Meern;Utrecht;52.083;5.025
3454;De Meern;Utrecht;52.081;5.039
3455;Haarzuilens;Utrecht;52.123;4.983
3460;Linschoten;Utrecht;52.059;4.905
3461;Linschoten;Utrecht;52.059;4.905
3464;Papekop;Utrecht;52.046;4.853
3465;Driebruggen;Zuid-Holland;52.031;4.8
3466;Waarder;Zuid-Holland;52.059;4.829
3467;Hekendorp;Utrecht;52.017;4.823
3470;Kamerik;Utrecht;52.11;4.892
3471;Kamerik;Utrecht;52.11;4.892
3474;Zegveld;Utrecht;52.116;4.839
3480;Harmelen;Utrecht;52.086;4.966
3481;Harmelen;Utrecht;52.086;4.966
3500;Utrecht;Utrecht;52.093;5.076
3501;Utrecht;Utrecht;52.093;5.076
3502;Utrecht;Utrecht;52.093;5.076
3503;Utrecht;Utrecht;52.093;5.076
3504;Utrecht;Utrecht;52.093;5.076
3505;Utrecht;Utrecht;52.093;5.076
3506;Utrecht;Utrecht;52.093;5.076
3507;Utrecht;Utrecht;52.093;5.076
3508;Utrecht;Utrecht;52.093;5.076
3509;Utrecht;Utrecht;52.093;5.076
3511;Utrecht;Utrecht;52.092;5.116
3512;Utrecht;Utrecht;52.092;5.118
3513;Utrecht;Utrecht;52.096;5.108
3514;Utrecht;Utrecht;52.096;5.117
3515;Utrecht;Utrecht;52.1;5.119
3521;Utrecht;Utrecht;52.085;5.099
3522;Utrecht;Utrecht;52.076;5.12
3523;Ouddorp;Utrecht;52.076;5.124
3524;Utrecht;Utrecht;52.069;5.138
3525;Utrecht;Utrecht;52.066;5.118
3526;Utrecht;Utrecht;52.063;5.104
3527;Utrecht;Utrecht;52.074;5.086
3528;Utrecht;Utrecht;52.066;5.08
3531;Utrecht;Utrecht;52.088;5.102
3532;Utrecht;Utrecht;52.093;5.084
3533;Utrecht;Utrecht;52.083;5.087
3534;Utrecht;Utrecht;52.102;5.078
3540;Utrecht;Utrecht;52.076;5.099
3541;Utrecht;Utrecht;52.093;5.062
3542;Utrecht;Utrecht;52.108;5.066
3543;Utrecht;Utrecht;52.114;5.034
3544;Utrecht;Utrecht;52.082;5.063
3545;Utrecht;Utrecht;52.075;5.065
3546;Utrecht;Utrecht;52.042;5.059
3551;Utrecht;Utrecht;52.099;5.104
3552;Utrecht;Utrecht;52.104;5.109
3553;Utrecht;Utrecht;52.11;5.091
3554;Utrecht;Utrecht;52.108;5.095
3555;Utrecht;Utrecht;52.113;5.087
3561;Utrecht;Utrecht;52.116;5.129
3562;Utrecht;Utrecht;52.117;5.127
3563;Utrecht;Utrecht;52.117;5.109
3564;Utrecht;Utrecht;52.117;5.11
3565;Utrecht;Utrecht;52.123;5.09
3566;Utrecht;Utrecht;52.118;5.13
3571;Utrecht;Utrecht;52.107;5.119
3572;Utrecht;Utrecht;52.094;5.127
3573;Utrecht;Utrecht;52.106;5.142
3581;Utrecht;Utrecht;52.092;5.129
3582;Utrecht;Utrecht;52.084;5.13
3583;Utrecht;Utrecht;52.083;5.139
3584;Utrecht;Utrecht;52.078;5.145
3585;Utrecht;Utrecht;52.072;5.145
3600;Maarssen;Utrecht;52.14;5.046
3601;Maarssen;Utrecht;52.14;5.046
3602;Maarssen;Utrecht;52.129;5.055
3603;Maarssen;Utrecht;52.14;5.041
3604;Maarssen;Utrecht;52.125;5.057
3605;Maarssen;Utrecht;52.145;5.014
3606;Maarssen;Utrecht;52.13;5.037
3607;Maarssen;Utrecht;52.13;5.026
3608;Maarssen;Utrecht;52.121;5.033
3611;Oud Zuilen;Utrecht;52.129;5.065
3612;Tienhoven;Utrecht;52.156;5.083
3615;Westbroek;Utrecht;52.138;5.127
3620;Breukelen;Utrecht;52.171;5.004
3621;Breukelen;Utrecht;52.171;5.004
3625;Breukeleveen;Noord-Holland;52.173;5.069
3626;Nieuwer Ter Aa;Utrecht;52.188;4.988
3628;Kockengen;Utrecht;52.147;4.949
3630;Nieuwersluis;Utrecht;52.194;5.006
3631;Nieuwersluis;Utrecht;52.194;5.006
3632;Loenen aan de Vecht;Utrecht;52.204;5.018
3633;Loenen aan de Vecht;Utrecht;52.227;5.034
3634;Loenersloot;Utrecht;52.23;5.003
3640;Mijdrecht;Utrecht;52.203;4.864
3641;Mijdrecht;Utrecht;52.203;4.864
3642;Mijdrecht;Utrecht;52.201;4.868
3643;Mijdrecht;Utrecht;52.216;4.866
3645;Vinkeveen;Utrecht;52.221;4.935
3646;Waverveen;Utrecht;52.238;4.925
3648;Wilnis;Utrecht;52.195;4.907
3651;Zegveld;Zuid-Holland;52.153;4.863
3652;Woerdense Verlaat;Zuid-Holland;52.158;4.881
3653;Woerdense Verlaat;Zuid-Holland;52.153;4.863
3700;Zeist;Utrecht;52.081;5.24
3701;Zeist;Utrecht;52.081;5.24
3702;Zeist;Utrecht;52.086;5.232
3703;Zeist;Utrecht;52.08;5.231
3704;Zeist;Utrecht;52.087;5.226
3705;Zeist;Utrecht;52.09;5.229
3706;Zeist;Utrecht;52.101;5.226
3707;Zeist;Utrecht;52.093;5.242
3708;Zeist;Utrecht;52.074;5.259
3709;Zeist;Utrecht;52.065;5.256
3710;Austerlitz;Utrecht;52.09;5.298
3711;Zeist;Utrecht;52.093;5.296
3712;Zeist;Utrecht;52.111;5.254
3720;Bilthoven;Utrecht;52.114;5.192
3721;Bilthoven;Utrecht;52.114;5.192
3722;Bilthoven;Utrecht;52.128;5.206
3723;Bilthoven;Utrecht;52.127;5.188
3730;De Bilt;Utrecht;52.114;5.182
3731;De Bilt;Utrecht;52.114;5.182
3732;De Bilt;Utrecht;52.112;5.188
3734;Den Dolder;Utrecht;52.145;5.244
3735;Bosch en Duin;Utrecht;52.127;5.243
3737;Groenekan;Utrecht;52.125;5.146
3738;Maartensdijk;Utrecht;52.157;5.178
3739;Hollandsche Rading;Utrecht;52.176;5.176
3740;Baarn;Utrecht;52.22;5.259
3741;Baarn;Utrecht;52.212;5.295
3742;Baarn;Utrecht;52.211;5.3
3743;Baarn;Utrecht;52.195;5.281
3744;Baarn;Utrecht;52.197;5.274
3749;Lage Vuursche;Utrecht;52.179;5.224
3750;Bunschoten-Spakenburg;Utrecht;52.252;5.389
3751;Bunschoten-Spakenburg;Utrecht;52.252;5.389
3752;Bunschoten-Spakenburg;Utrecht;52.255;5.38
3754;Eemdijk;Utrecht;52.253;5.33
3755;Eemnes;Utrecht;52.26;5.25
3760;Soest;Utrecht;52.182;5.296
3761;Soest;Utrecht;52.182;5.296
3762;Soest;Utrecht;52.178;5.293
3763;Soest;Utrecht;52.179;5.265
3764;Soest;Utrecht;52.185;5.303
3765;Soest;Utrecht;52.172;5.288
3766;Soest;Utrecht;52.163;5.299
3768;Soest;Utrecht;52.163;5.305
3769;Soesterberg;Utrecht;52.122;5.288
3770;Barneveld;Gelderland;52.137;5.595
3771;Barneveld;Gelderland;52.137;5.595
3772;Barneveld;Gelderland;52.133;5.586
3773;Barneveld;Gelderland;52.14;5.609
3774;Kootwijkerbroek;Gelderland;52.151;5.666
3775;Kootwijk;Gelderland;52.181;5.765
3776;Stroe;Gelderland;52.184;5.694
3780;Voorthuizen;Gelderland;52.172;5.579
3781;Voorthuizen;Gelderland;52.181;5.59
3784;Terschuur;Gelderland;52.167;5.518
3785;Zwartebroek;Gelderland;52.187;5.533
3790;Achterveld;Utrecht;52.133;5.517
3791;Achterveld;Utrecht;52.136;5.496
3792;Achterveld;Gelderland;52.133;5.517
3794;De Glind;Gelderland;52.112;5.499
3800;Amersfoort;Utrecht;52.177;5.381
3802;Amersfoort;Utrecht;52.177;5.381
3811;Amersfoort;Utrecht;52.154;5.388
3812;Amersfoort;Utrecht;52.155;5.376
3813;Amersfoort;Utrecht;52.16;5.384
3814;Amersfoort;Utrecht;52.159;5.399
3815;Amersfoort;Utrecht;52.167;5.4
3816;Amersfoort;Utrecht;52.153;5.4
3817;Amersfoort;Utrecht;52.151;5.391
3818;Amersfoort;Utrecht;52.144;5.381
3819;Amersfoort;Utrecht;52.161;5.345
3821;Amersfoort;Utrecht;52.175;5.411
3822;Amersfoort;Utrecht;52.184;5.411
3823;Amersfoort;Utrecht;52.182;5.392
3824;Amersfoort;Utrecht;52.196;5.369
3825;Amersfoort;Utrecht;52.197;5.406
3826;Amersfoort;Utrecht;52.199;5.429
3828;Hoogland;Utrecht;52.18;5.374
3829;Hooglanderveen;Utrecht;52.189;5.431
3830;Leusden;Utrecht;52.132;5.432
3831;Leusden;Utrecht;52.136;5.436
3832;Leusden;Utrecht;52.12;5.409
3833;Leusden;Utrecht;52.14;5.415
3834;Leusden;Utrecht;52.128;5.431
3835;Stoutenburg;Utrecht;52.152;5.448
3836;Stoutenburg Noord;Utrecht;52.163;5.462
3840;Harderwijk;Gelderland;52.352;5.622
3841;Harderwijk;Gelderland;52.352;5.622
3842;Harderwijk;Gelderland;52.343;5.624
3843;Harderwijk;Gelderland;52.336;5.622
3844;Harderwijk;Gelderland;52.333;5.62
3845;Harderwijk;Gelderland;52.329;5.608
3846;Harderwijk;Gelderland;52.352;5.626
3847;Harderwijk;Gelderland;52.325;5.651
3848;Harderwijk;Gelderland;52.342;5.654
3849;Harderwijk;Gelderland;52.352;5.65
3850;Ermelo;Gelderland;52.289;5.615
3851;Ermelo;Gelderland;52.289;5.615
3852;Ermelo;Gelderland;52.304;5.631
3853;Ermelo;Gelderland;52.295;5.605
3860;Nijkerk;Gelderland;52.219;5.479
3861;Nijkerk;Gelderland;52.223;5.484
3862;Putten;Gelderland;52.222;5.488
3863;Nijkerk;Gelderland;52.215;5.471
3864;Nijkerkerveen;Gelderland;52.196;5.471
3868;Nijkerk;Gelderland;52.21;5.462
3870;Hoevelaken;Gelderland;52.176;5.461
3871;Hoevelaken;Gelderland;52.176;5.461
3880;Putten;Gelderland;52.26;5.597
3881;Putten;Gelderland;52.26;5.596
3882;Putten;Gelderland;52.259;5.609
3886;Garderen;Gelderland;52.231;5.715
3888;Uddel;Gelderland;52.256;5.784
3890;Zeewolde;Flevoland;52.357;5.51
3891;Zeewolde;Flevoland;52.332;5.544
3892;Zeewolde;Flevoland;52.329;5.541
3893;Zeewolde;Flevoland;52.326;5.522
3894;Zeewolde;Flevoland;52.338;5.534
3895;Zeewolde;Flevoland;52.347;5.516
3896;Zeewolde;Flevoland;52.288;5.398
3897;Zeewolde;Flevoland;52.348;5.498
3898;Zeewolde;Flevoland;52.363;5.542
3899;Zeewolde;Flevoland;52.357;5.51
3900;Veenendaal;Utrecht;52.026;5.555
3901;Veenendaal;Utrecht;52.026;5.555
3902;Veenendaal;Utrecht;52.034;5.566
3903;Veenendaal;Utrecht;52.019;5.553
3904;Veenendaal;Utrecht;52.024;5.546
3905;Veenendaal;Utrecht;52.024;5.546
3906;Veenendaal;Utrecht;52.029;5.532
3907;Veenendaal;Utrecht;52.033;5.59
3910;Rhenen;Utrecht;51.955;5.575
3911;Rhenen;Utrecht;51.955;5.575
3912;Rhenen;Utrecht;51.964;5.564
3920;Elst;Utrecht;51.916;5.853
3921;Rhenen;Utrecht;51.985;5.491
3922;Elst Ut;Utrecht;51.986;5.482
3925;Scherpenzeel;Gelderland;52.077;5.474
3927;Renswoude;Utrecht;52.074;5.543
3930;Woudenberg;Utrecht;52.072;5.452
3931;Woudenberg;Utrecht;52.084;5.407
3940;Doorn;Utrecht;52.04;5.303
3941;Doorn;Utrecht;52.04;5.303
3945;Wijk bij Duurstede;Utrecht;51.995;5.318
3947;Langbroek;Utrecht;51.992;5.376
3950;Maarn;Utrecht;52.062;5.371
3951;Maarn;Utrecht;52.062;5.371
3953;Amerongen;Utrecht;52.058;5.396
3956;Leersum;Utrecht;52.017;5.429
3958;Amerongen;Utrecht;52.009;5.471
3959;Woudenberg;Utrecht;52.036;5.492
3960;Wijk bij Duurstede;Utrecht;51.975;5.341
3961;Wijk bij Duurstede;Utrecht;51.97;5.349
3962;Wijk bij Duurstede;Utrecht;51.98;5.339
3970;Driebergen-Rijsenburg;Utrecht;52.06;5.301
3971;Driebergen-Rijsenburg;Utrecht;52.06;5.301
3972;Driebergen-Rijsenburg;Utrecht;52.044;5.288
3980;Bunnik;Utrecht;52.064;5.206
3981;Zeewolde;Utrecht;52.064;5.206
3984;Odijk;Utrecht;52.053;5.24
3985;Werkhoven;Utrecht;52.026;5.243
3989;Ossenwaard;Utrecht;51.992;5.139
3990;Houten;Utrecht;52.025;5.165
3991;Houten;Utrecht;52.025;5.165
3992;Houten;Utrecht;52.04;5.148
3993;Houten;Utrecht;52.039;5.167
3994;Houten;Utrecht;52.021;5.178
3995;Houten;Utrecht;52.029;5.172
3997;'t Goy;Utrecht;52.009;5.197
3998;Schalkwijk;Utrecht;51.989;5.2
3999;Tull en 't Waal;Utrecht;52;5.132
4000;Tiel;Gelderland;51.889;5.424
4001;Tiel;Gelderland;51.888;5.432
4002;Tiel;Gelderland;51.891;5.425
4003;Tiel;Gelderland;51.897;5.429
4004;Tiel;Gelderland;51.885;5.412
4005;Tiel;Gelderland;51.891;5.44
4006;Tiel;Gelderland;51.877;5.419
4007;Tiel;Gelderland;51.866;5.404
4010;Zoelen;Gelderland;51.898;5.393
4011;Ommeren;Gelderland;51.898;5.393
4012;Buren;Gelderland;51.895;5.384
4013;Kapel Avezaath;Gelderland;51.881;5.374
4014;Wadenoijen;Gelderland;51.873;5.376
4016;Kapel-Avezaath;Gelderland;51.88;5.355
4017;Kerk Avezaath;Gelderland;51.895;5.397
4020;Maurik;Gelderland;51.959;5.412
4021;Eck en Wiel;Gelderland;51.959;5.412
4023;Rijswijk (GLD);Gelderland;51.953;5.37
4024;Eck en Wiel;Gelderland;51.969;5.442
4030;Ingen;Gelderland;51.959;5.49
4031;Ingen;Gelderland;51.959;5.49
4032;Ommeren;Gelderland;51.941;5.462
4033;Lienden;Gelderland;51.946;5.517
4040;Kesteren;Gelderland;51.934;5.574
4041;Kesteren;Gelderland;51.934;5.574
4043;Opheusden;Gelderland;51.93;5.624
4050;Ochten;Gelderland;51.907;5.565
4051;Kesteren;Gelderland;51.907;5.565
4053;IJzendoorn;Gelderland;51.912;5.527
4054;Echteld;Gelderland;51.913;5.505
4060;Ophemert;Gelderland;51.845;5.39
4061;Ophemert;Gelderland;51.845;5.39
4062;Zennewijnen;Gelderland;51.865;5.415
4063;Heesselt;Gelderland;51.813;5.343
4064;Ophemert;Gelderland;51.826;5.376
4100;Culemborg;Gelderland;51.959;5.222
4101;Culemborg;Gelderland;51.959;5.222
4102;Culemborg;Gelderland;51.953;5.234
4103;Culemborg;Gelderland;51.948;5.227
4104;Culemborg;Gelderland;51.946;5.223
4105;Culemborg;Gelderland;51.952;5.22
4106;Culemborg;Gelderland;51.943;5.194
4107;Culemborg;Gelderland;51.947;5.164
4110;Zoelmond;Gelderland;51.945;5.305
4111;Zoelmond;Gelderland;51.945;5.305
4112;Beusichem;Gelderland;51.953;5.29
4115;Asch;Gelderland;51.936;5.327
4116;Buren;Gelderland;51.91;5.333
4117;Erichem;Gelderland;51.904;5.357
4119;Ravenswaaij;Gelderland;51.943;5.31
4121;Everdingen;Utrecht;51.965;5.156
4122;Zijderveld;Utrecht;51.942;5.142
4124;Hagestein;Utrecht;51.978;5.116
4126;Hei- en Boeicop;Zuid-Holland;51.944;5.048
4128;Lexmond;Zuid-Holland;51.963;5.036
4130;Vianen;Utrecht;51.995;5.101
4131;Vianen;Utrecht;51.995;5.101
4132;Vianen;Utrecht;51.996;5.091
4133;Vianen;Utrecht;51.984;5.088
4140;Leerdam;Zuid-Holland;51.893;5.095
4141;Leerdam;Zuid-Holland;51.893;5.095
4142;Leerdam;Zuid-Holland;51.892;5.088
4143;Leerdam;Zuid-Holland;51.896;5.092
4145;Schoonrewoerd;Zuid-Holland;51.919;5.116
4147;Asperen;Gelderland;51.882;5.115
4151;Acquoy;Gelderland;51.875;5.121
4152;Rhenoy;Gelderland;51.882;5.156
4153;Beesd;Gelderland;51.886;5.194
4155;Gellicum;Gelderland;51.879;5.156
4156;Rumpt;Gelderland;51.881;5.178
4157;Enspijk;Gelderland;51.883;5.215
4158;Deil;Gelderland;51.881;5.257
4161;Heukelum;Gelderland;51.876;5.086
4163;Oosterwijk;Zuid-Holland;51.879;5.079
4170;Herwijnen;Gelderland;51.825;5.128
4171;Herwijnen;Gelderland;51.825;5.128
4174;Haaften;Gelderland;51.843;5.198
4175;Haaften;Gelderland;51.818;5.207
4176;Tuil;Gelderland;51.824;5.228
4180;Waardenburg;Gelderland;51.829;5.258
4181;Neerijnen;Gelderland;51.829;5.258
4182;Neerijnen;Gelderland;51.833;5.278
4184;Est;Gelderland;51.829;5.297
4185;Est;Gelderland;51.852;5.313
4190;Geldermalsen;Gelderland;51.88;5.28
4191;Geldermalsen;Gelderland;51.882;5.287
4194;Meteren;Gelderland;51.869;5.29
4196;Tricht;Gelderland;51.889;5.27
4197;Buurmalsen;Gelderland;51.891;5.294
4200;Gorinchem;Zuid-Holland;51.834;4.964
4201;Gorinchem;Zuid-Holland;51.83;4.978
4202;Gorinchem;Zuid-Holland;51.828;4.962
4203;Gorinchem;Zuid-Holland;51.831;4.964
4204;Gorinchem;Zuid-Holland;51.839;4.957
4205;Gorinchem;Zuid-Holland;51.835;4.971
4206;Gorinchem;Zuid-Holland;51.838;4.982
4207;Gorinchem;Zuid-Holland;51.834;4.99
4208;Gorinchem;Zuid-Holland;51.837;5.02
4209;Schelluinen;Zuid-Holland;51.84;4.915
4211;Spijk;Gelderland;51.856;5.041
4212;Spijk;Gelderland;51.857;5.004
4213;Gorinchem;Zuid-Holland;51.828;5.009
4214;Vuren;Gelderland;51.824;5.047
4221;Hoogblokland;Zuid-Holland;51.875;4.974
4223;Hoornaar;Zuid-Holland;51.877;4.95
4225;Noordeloos;Zuid-Holland;51.889;4.926
4230;Meerkerk;Zuid-Holland;51.919;4.994
4231;Lexmond;Zuid-Holland;51.919;4.994
4233;Ameide;Zuid-Holland;51.952;4.981
4235;Tienhoven;Zuid-Holland;51.957;4.957
4240;Arkel;Zuid-Holland;51.864;4.998
4241;Arkel;Zuid-Holland;51.864;4.998
4243;Nieuwland;Zuid-Holland;51.903;5.015
4245;Leerbroek;Zuid-Holland;51.902;5.023
4247;Kedichem;Zuid-Holland;51.861;5.049
4250;Werkendam;Noord-Brabant;51.815;4.896
4251;Dussen;Noord-Brabant;51.815;4.896
4254;Sleeuwijk;Noord-Brabant;51.814;4.954
4255;Nieuwendijk;Noord-Brabant;51.771;4.918
4260;Wijk en Aalburg;Noord-Brabant;51.753;5.127
4261;Wijk en Aalburg;Noord-Brabant;51.753;5.127
4264;Veen;Noord-Brabant;51.772;5.099
4265;Genderen;Noord-Brabant;51.739;5.076
4266;Eethen;Noord-Brabant;51.731;5.053
4267;Drongelen;Noord-Brabant;51.715;5.053
4268;Meeuwen;Noord-Brabant;51.729;5.02
4269;Babyloninbroek;Noord-Brabant;51.769;5.032
4270;Dussen;Noord-Brabant;51.785;4.157
4271;Dussen;Noord-Brabant;51.729;4.961
4273;Hank;Noord-Brabant;51.734;4.896
4280;Andel;Noord-Brabant;51.782;5.049
4281;Andel;Noord-Brabant;51.782;5.049
4283;Giessen;Noord-Brabant;51.79;5.032
4284;Rijswijk;Noord-Brabant;51.796;5.029
4285;Woudrichem;Noord-Brabant;51.817;5.003
4286;Almkerk;Noord-Brabant;51.771;4.957
4287;Waardhuizen;Noord-Brabant;51.777;5.005
4288;Uitwijk;Noord-Brabant;51.788;5.01
4300;Zierikzee;Zeeland;51.649;3.918
4301;Zierikzee;Zeeland;51.649;3.918
4302;Burgh-Haamstede;Zeeland;51.702;3.741
4303;Zierikzee;Zeeland;51.658;3.933
4305;Ouwerkerk;Zeeland;51.624;3.981
4306;Nieuwerkerk;Zeeland;51.649;4.006
4307;Oosterland;Zeeland;51.648;4.036
4308;Sirjansland;Zeeland;51.673;4.033
4310;Bruinisse;Zeeland;51.658;4.095
4311;Bruinisse;Zeeland;51.658;4.095
4315;Dreischor;Zeeland;51.689;3.982
4316;Zonnemaire;Zeeland;51.712;3.952
4317;Noordgouwe;Zeeland;51.693;3.939
4318;Brouwershaven;Zeeland;51.726;3.913
4321;Kerkwerve;Zeeland;51.683;3.897
4322;Scharendijke;Zeeland;51.737;3.84
4323;Ellemeet;Zeeland;51.729;3.814
4325;Ellemeet;Zeeland;51.732;3.774
4326;Noordwelle;Zeeland;51.719;3.793
4327;Serooskerke;Zeeland;51.702;3.814
4328;Burgh-Haamstede;Zeeland;51.696;3.742
4330;Middelburg;Zeeland;51.5;3.612
4331;Middelburg;Zeeland;51.5;3.612
4332;Middelburg;Zeeland;51.502;3.624
4333;Middelburg;Zeeland;51.506;3.616
4334;Middelburg;Zeeland;51.5;3.605
4335;Middelburg;Zeeland;51.497;3.603
4336;Middelburg;Zeeland;51.49;3.612
4337;Middelburg;Zeeland;51.486;3.628
4338;Middelburg;Zeeland;51.499;3.631
4339;Middelburg;Zeeland;51.479;3.656
4340;Arnemuiden;Zeeland;51.5;3.677
4341;Arnemuiden;Zeeland;51.5;3.677
4351;Veere;Zeeland;51.549;3.669
4352;Gapinge;Zeeland;51.545;3.627
4353;Serooskerke;Zeeland;51.549;3.594
4354;Vrouwenpolder;Zeeland;51.576;3.616
4356;Oostkapelle;Zeeland;51.563;3.552
4357;Domburg;Zeeland;51.562;3.492
4360;Westkapelle;Zeeland;51.528;3.445
4361;Koudekerke;Zeeland;51.528;3.445
4363;Aagtekerke;Zeeland;51.546;3.51
4364;Aagtekerke;Zeeland;51.531;3.561
4365;Meliskerke;Zeeland;51.514;3.515
4370;Koudekerke;Zeeland;51.483;3.557
4371;Vlissingen;Zeeland;51.546;3.51
4373;Biggekerke;Zeeland;51.499;3.525
4374;Zoutelande;Zeeland;51.501;3.487
4380;Vlissingen;Zeeland;51.455;3.569
4381;Vlissingen;Zeeland;51.442;3.579
4382;Vlissingen;Zeeland;51.444;3.568
4383;Vlissingen;Zeeland;51.454;3.558
4384;Vlissingen;Zeeland;51.459;3.558
4385;Vlissingen;Zeeland;51.463;3.583
4386;Vlissingen;Zeeland;51.464;3.592
4387;Vlissingen;Zeeland;51.468;3.595
4388;Oost-Souburg;Zeeland;51.466;3.602
4389;Ritthem;Zeeland;51.463;3.675
4400;Yerseke;Zeeland;51.494;4.05
4401;Yerseke;Zeeland;51.494;4.05
4411;Rilland;Zeeland;51.416;4.179
4413;Krabbendijke;Zeeland;51.431;4.112
4414;Waarde;Zeeland;51.42;4.069
4415;Oostdijk;Zeeland;51.442;4.081
4416;Krabbendijke;Zeeland;51.451;4.03
4417;Hansweert;Zeeland;51.448;4.005
4421;Kapelle;Zeeland;51.486;3.958
4423;Schore;Zeeland;51.46;4.002
4424;Wemeldinge;Zeeland;51.516;3.996
4430;'s-Gravenpolder;Zeeland;51.458;3.899
4431;'s-Gravenpolder;Zeeland;51.458;3.899
4433;Hoedekenskerke;Zeeland;51.426;3.903
4434;Kwadendamme;Zeeland;51.433;3.875
4435;Baarland;Zeeland;51.408;3.879
4436;Oudelande;Zeeland;51.406;3.854
4437;Ellewoutsdijk;Zeeland;51.393;3.816
4438;Driewegen;Zeeland;51.424;3.81
4441;Ovezande;Zeeland;51.428;3.823
4443;Nisse;Zeeland;51.454;3.857
4444;'s-Heer Abtskerke;Zeeland;51.469;3.882
4450;Heinkenszand;Zeeland;51.471;3.818
4451;Heinkenszand;Zeeland;51.471;3.818
4453;'s-Heerenhoek;Zeeland;51.452;3.769
4454;Borssele;Zeeland;51.426;3.742
4455;Nieuwdorp;Zeeland;51.47;3.741
4456;Lewedorp;Zeeland;51.492;3.753
4458;'s-Heer Arendskerke;Zeeland;51.491;3.822
4460;Goes;Zeeland;51.503;3.891
4461;Goes;Zeeland;51.503;3.891
4462;Goes;Zeeland;51.498;3.901
4463;Goes;Zeeland;51.513;3.892
4464;Goes;Zeeland;51.511;3.901
4465;Goes;Zeeland;51.519;3.9
4470;Wolphaartsdijk;Zeeland;52.087;4.656
4471;'s-Heer Hendrikskinderen;Zeeland;51.531;3.823
4472;'s-Heer Hendrikskinderen;Zeeland;51.503;3.854
4474;Kattendijke;Zeeland;51.523;3.942
4475;Wilhelminadorp;Zeeland;51.531;3.902
4481;Kloetinge;Zeeland;51.496;3.911
4482;Kloetinge;Zeeland;51.49;3.927
4484;Kortgene;Zeeland;51.556;3.801
4485;Kats;Zeeland;51.567;3.887
4486;Colijnsplaat;Zeeland;51.601;3.847
4490;Wissenkerke;Zeeland;51.581;3.749
4491;Kamperland;Zeeland;51.581;3.749
4493;Kamperland;Zeeland;51.575;3.702
4494;Geersdijk;Zeeland;51.565;3.773
4500;Oostburg;Zeeland;51.328;3.48
4501;Oostburg;Zeeland;51.328;3.48
4503;Breskens;Zeeland;51.378;3.509
4504;Nieuwvliet;Zeeland;51.378;3.469
4505;Zuidzande;Zeeland;51.34;3.452
4506;Cadzand;Zeeland;51.369;3.408
4507;Schoondijke;Zeeland;51.356;3.554
4508;Waterlandkerkje;Zeeland;51.318;3.555
4510;Breskens;Zeeland;51.399;3.528
4511;Breskens;Zeeland;51.397;3.555
4513;Hoofdplaat;Zeeland;51.371;3.663
4515;Schoondijke;Zeeland;51.323;3.616
4520;Biervliet;Zeeland;51.326;3.688
4521;Biervliet;Zeeland;51.326;3.688
4522;IJzendijke;Zeeland;51.334;3.629
4524;Aardenburg;Zeeland;51.31;3.386
4525;Oostburg;Zeeland;51.349;3.382
4527;Aardenburg;Zeeland;51.275;3.44
4528;Waterlandkerkje;Zeeland;51.271;3.487
4529;Eede;Zeeland;51.246;3.442
4530;Terneuzen;Zeeland;51.334;3.823
4531;Terneuzen;Zeeland;51.334;3.823
4532;Terneuzen;Zeeland;51.333;3.832
4533;Terneuzen;Zeeland;51.331;3.862
4535;Terneuzen;Zeeland;51.322;3.852
4536;Terneuzen;Zeeland;51.321;3.845
4537;Terneuzen;Zeeland;51.334;3.829
4538;Terneuzen;Zeeland;51.333;3.828
4539;Spui;Zeeland;51.298;3.877
4540;Sluiskil;Zeeland;51.279;3.838
4541;Hoek;Zeeland;51.279;3.838
4542;Hoek;Zeeland;51.308;3.776
4543;Zaamslag;Zeeland;51.314;3.913
4550;Sas van Gent;Zeeland;51.23;3.798
4551;Sas van Gent;Zeeland;51.23;3.798
4553;Philippine;Zeeland;51.278;3.758
4554;Westdorpe;Zeeland;51.228;3.81
4560;Hulst;Zeeland;51.28;4.05
4561;Hulst;Zeeland;51.28;4.05
4562;Hulst;Zeeland;51.276;4.066
4564;Sint Jansteen;Zeeland;51.255;4.041
4565;Sint Jansteen;Zeeland;51.256;4.061
4566;Heikant;Zeeland;51.241;3.998
4567;Clinge;Zeeland;51.277;4.092
4568;Nieuw Namen;Zeeland;51.293;4.158
4569;Graauw;Zeeland;51.331;4.106
4570;Axel;Zeeland;51.262;3.915
4571;Axel;Zeeland;51.262;3.915
4574;Zuiddorpe;Zeeland;51.24;3.881
4575;Overslag;Zeeland;51.202;3.889
4576;Koewacht;Zeeland;51.226;3.974
4581;Axel;Zeeland;51.324;3.986
4583;Terhole;Zeeland;51.311;4.031
4584;Kuitaart;Zeeland;51.341;4.035
4585;Hengstdijk;Zeeland;51.345;3.996
4586;Lamswaarde;Zeeland;51.342;4.051
4587;Kloosterzande;Zeeland;51.368;4.011
4588;Walsoorden;Zeeland;51.383;4.03
4589;Ossenisse;Zeeland;51.386;3.987
4600;Bergen op Zoom;Noord-Brabant;51.491;4.288
4601;Bergen op Zoom;Noord-Brabant;51.491;4.288
4602;Bergen op Zoom;Noord-Brabant;51.491;4.288
4611;Bergen op Zoom;Noord-Brabant;51.491;4.288
4612;Bergen op Zoom;Noord-Brabant;51.494;4.275
4613;Bergen op Zoom;Noord-Brabant;51.5;4.283
4614;Bergen op Zoom;Noord-Brabant;51.499;4.297
4615;Bergen op Zoom;Noord-Brabant;51.488;4.295
4616;Bergen op Zoom;Noord-Brabant;51.476;4.288
4617;Bergen op Zoom;Noord-Brabant;51.477;4.279
4621;Bergen op Zoom;Noord-Brabant;51.489;4.298
4622;Bergen op Zoom;Noord-Brabant;51.497;4.298
4623;Bergen op Zoom;Noord-Brabant;51.496;4.311
4624;Bergen op Zoom;Noord-Brabant;51.479;4.302
4625;Bergen op Zoom;Noord-Brabant;51.478;4.302
4630;Hoogerheide;Noord-Brabant;51.433;4.317
4631;Hoogerheide;Noord-Brabant;51.433;4.317
4634;Woensdrecht;Noord-Brabant;51.409;4.275
4635;Huijbergen;Noord-Brabant;51.431;4.38
4640;Ossendrecht;Noord-Brabant;51.414;4.322
4641;Ossendrecht;Noord-Brabant;51.414;4.322
4645;Putte;Noord-Brabant;51.356;4.394
4650;Steenbergen;Noord-Brabant;51.588;4.328
4651;Oud Gastel;Noord-Brabant;51.588;4.328
4652;Steenbergen;Noord-Brabant;51.589;4.313
4655;De Heen;Noord-Brabant;51.606;4.271
4660;Halsteren;Noord-Brabant;51.516;4.3
4661;Halsteren;Noord-Brabant;51.516;4.3
4664;Lepelstraat;Noord-Brabant;51.551;4.277
4670;Dinteloord;Noord-Brabant;51.631;4.367
4671;Heijningen;Noord-Brabant;51.631;4.367
4675;Sint Philipsland;Zeeland;51.616;4.162
4681;Nieuw-Vossemeer;Noord-Brabant;51.588;4.215
4690;Tholen;Zeeland;51.536;4.226
4691;Tholen;Zeeland;51.536;4.226
4693;Poortvliet;Zeeland;51.541;4.158
4694;Scherpenisse;Zeeland;51.546;4.11
4695;Sint-Maartensdijk;Zeeland;51.553;4.052
4696;Stavenisse;Zeeland;51.595;4.026
4697;Sint-Annaland;Zeeland;51.593;4.081
4698;Oud-Vossemeer;Zeeland;51.571;4.198
4700;Roosendaal;Noord-Brabant;51.531;4.456
4701;Roosendaal;Noord-Brabant;51.531;4.456
4702;Roosendaal;Noord-Brabant;51.526;4.469
4703;Roosendaal;Noord-Brabant;51.53;4.438
4704;Roosendaal;Noord-Brabant;51.54;4.452
4705;Roosendaal;Noord-Brabant;51.547;4.472
4706;Roosendaal;Noord-Brabant;51.524;4.485
4707;Roosendaal;Noord-Brabant;51.525;4.454
4708;Roosendaal;Noord-Brabant;51.528;4.447
4709;Nispen;Noord-Brabant;51.486;4.46
4710;St. Willebrord;Noord-Brabant;52.087;4.656
4711;Rucphen;Noord-Brabant;51.551;4.593
4714;Schijf;Noord-Brabant;51.537;4.596
4715;Roosendaal;Noord-Brabant;51.532;4.549
4721;Schijf;Noord-Brabant;51.497;4.557
4722;Schijf;Noord-Brabant;51.496;4.565
4724;Wouw;Noord-Brabant;51.523;4.39
4725;Nispen;Noord-Brabant;51.484;4.394
4726;Heerle;Noord-Brabant;51.512;4.365
4727;Moerstraten;Noord-Brabant;51.525;4.346
4730;Oudenbosch;Noord-Brabant;51.586;4.539
4731;Oudenbosch;Noord-Brabant;51.586;4.539
4735;Zegge;Noord-Brabant;51.554;4.516
4740;Hoeven;Noord-Brabant;52.087;4.656
4741;Hoeven;Noord-Brabant;51.583;4.586
4744;Bosschenhoofd;Noord-Brabant;51.563;4.544
4750;Oud Gastel;Noord-Brabant;51.576;4.414
4751;Oudenbosch;Noord-Brabant;51.592;4.468
4754;Stampersgat;Noord-Brabant;51.614;4.443
4756;Kruisland;Noord-Brabant;51.565;4.408
4758;Standdaarbuiten;Noord-Brabant;51.611;4.518
4759;Noordhoek;Noord-Brabant;51.644;4.531
4760;Zevenbergen;Noord-Brabant;51.643;4.611
4761;Zevenbergen;Noord-Brabant;51.643;4.611
4762;Zevenbergen;Noord-Brabant;51.64;4.617
4765;Zevenbergschen Hoek;Noord-Brabant;51.668;4.681
4766;Lage Zwaluwe;Noord-Brabant;51.684;4.689
4771;Langeweg;Noord-Brabant;51.638;4.639
4772;Langeweg;Noord-Brabant;51.627;4.633
4780;Moerdijk;Noord-Brabant;51.705;4.624
4781;Moerdijk;Noord-Brabant;51.705;4.624
4782;Moerdijk;Noord-Brabant;51.703;4.623
4790;Klundert;Noord-Brabant;51.659;4.534
4791;Klundert;Noord-Brabant;51.659;4.534
4793;Fijnaart;Noord-Brabant;51.637;4.474
4794;Heijningen;Noord-Brabant;51.655;4.41
4796;Oudemolen;Noord-Brabant;51.652;4.464
4797;Willemstad;Noord-Brabant;51.691;4.438
4800;Breda;Noord-Brabant;51.593;4.777
4801;Breda;Noord-Brabant;51.593;4.777
4802;Breda;Noord-Brabant;51.593;4.777
4803;Breda;Noord-Brabant;51.593;4.777
4811;Breda;Noord-Brabant;51.593;4.777
4812;Breda;Noord-Brabant;51.581;4.765
4813;Breda;Noord-Brabant;51.579;4.744
4814;Breda;Noord-Brabant;51.592;4.77
4815;Breda;Noord-Brabant;51.6;4.773
4816;Breda;Noord-Brabant;51.598;4.781
4817;Breda;Noord-Brabant;51.596;4.81
4818;Breda;Noord-Brabant;51.581;4.78
4819;Breda;Noord-Brabant;51.579;4.776
4820;Breda;Noord-Brabant;51.604;4.753
4822;Breda;Noord-Brabant;51.619;4.739
4823;Breda;Noord-Brabant;51.609;4.72
4824;Breda;Noord-Brabant;51.604;4.753
4825;Breda;Noord-Brabant;51.602;4.769
4826;Breda;Noord-Brabant;51.604;4.778
4827;Breda;Noord-Brabant;51.61;4.794
4834;Breda;Noord-Brabant;51.575;4.795
4835;Breda;Noord-Brabant;51.572;4.782
4836;Breda;Noord-Brabant;51.562;4.784
4837;Breda;Noord-Brabant;51.571;4.776
4838;Breda;Noord-Brabant;51.551;4.736
4839;Breda;Noord-Brabant;51.578;4.711
4840;Prinsenbeek;Noord-Brabant;51.599;4.722
4841;Breda;Noord-Brabant;51.6;4.718
4844;Terheijden;Noord-Brabant;51.643;4.752
4845;Bavel;Noord-Brabant;51.659;4.739
4847;Teteringen;Noord-Brabant;51.608;4.816
4849;Dorst;Noord-Brabant;51.59;4.864
4850;Ulvenhout;Noord-Brabant;51.55;4.8
4851;Ulvenhout;Noord-Brabant;51.55;4.8
4854;Bavel;Noord-Brabant;51.562;4.827
4855;Galder;Noord-Brabant;51.527;4.778
4856;Strijbeek;Noord-Brabant;51.518;4.794
4858;Ulvenhout AC;Noord-Brabant;51.541;4.82
4859;Bavel AC;Noord-Brabant;51.556;4.861
4860;Chaam;Noord-Brabant;51.504;4.863
4861;Chaam;Noord-Brabant;51.504;4.863
4870;Etten-Leur;Noord-Brabant;51.581;4.64
4871;Etten-Leur;Noord-Brabant;51.581;4.64
4872;Etten-Leur;Noord-Brabant;51.569;4.637
4873;Etten-Leur;Noord-Brabant;51.568;4.637
4874;Etten-Leur;Noord-Brabant;51.572;4.621
4875;Etten-Leur;Noord-Brabant;51.568;4.631
4876;Etten-Leur;Noord-Brabant;51.568;4.634
4877;Etten-Leur;Noord-Brabant;51.572;4.609
4878;Etten-Leur;Noord-Brabant;51.568;4.611
4879;Etten-Leur;Noord-Brabant;51.56;4.604
4880;Zundert;Noord-Brabant;51.471;4.658
4881;Zundert;Noord-Brabant;51.471;4.658
4882;Klein Zundert;Noord-Brabant;51.481;4.656
4884;Wernhout;Noord-Brabant;51.455;4.64
4885;Achtmaal;Noord-Brabant;51.453;4.589
4890;Rijsbergen;Noord-Brabant;51.513;4.696
4891;Rijsbergen;Noord-Brabant;51.513;4.696
4900;Oosterhout;Noord-Brabant;51.651;4.857
4901;Oosterhout;Noord-Brabant;51.651;4.857
4902;Oosterhout;Noord-Brabant;51.641;4.856
4903;Dorst;Noord-Brabant;51.629;4.87
4904;Oosterhout;Noord-Brabant;51.629;4.857
4905;Oosterhout;Noord-Brabant;51.651;4.85
4906;Den Hout;Noord-Brabant;51.674;4.829
4907;Oosterhout;Noord-Brabant;51.654;4.874
4908;Oosterhout;Noord-Brabant;51.664;4.858
4909;Oosteind;Noord-Brabant;51.66;4.892
4911;Den Hout;Noord-Brabant;51.661;4.792
4920;Made;Noord-Brabant;51.68;4.8
4921;Made;Noord-Brabant;51.68;4.8
4924;Drimmelen;Noord-Brabant;51.734;4.811
4926;Lage Zwaluwe;Noord-Brabant;51.714;4.69
4927;Hooge Zwaluwe;Noord-Brabant;51.691;4.741
4930;Geertruidenberg;Noord-Brabant;51.706;4.862
4931;Geertruidenberg;Noord-Brabant;51.706;4.862
4940;Raamsdonksveer;Noord-Brabant;51.692;4.882
4941;Raamsdonksveer;Noord-Brabant;51.692;4.882
4942;Raamsdonksveer;Noord-Brabant;51.701;4.883
4944;Raamsdonk;Noord-Brabant;51.689;4.911
5000;Tilburg;Noord-Brabant;51.579;5.09
5001;Tilburg;Noord-Brabant;51.579;5.09
5002;Tilburg;Noord-Brabant;52.087;4.656
5003;Tilburg;Noord-Brabant;51.579;5.09
5004;Tilburg;Noord-Brabant;51.579;5.09
5011;Tilburg;Noord-Brabant;51.579;5.09
5012;Tilburg;Noord-Brabant;51.576;5.096
5013;Tilburg;Noord-Brabant;51.563;5.107
5014;Tilburg;Noord-Brabant;51.562;5.097
5015;Tilburg;Noord-Brabant;51.568;5.121
5017;Tilburg;Noord-Brabant;51.556;5.105
5018;Tilburg;Noord-Brabant;51.547;5.114
5021;Tilburg;Noord-Brabant;51.549;5.104
5022;Tilburg;Noord-Brabant;51.545;5.101
5025;Tilburg;Noord-Brabant;51.545;5.074
5026;Tilburg;Noord-Brabant;51.543;5.075
5032;Tilburg;Noord-Brabant;51.548;5.049
5035;Tilburg;Noord-Brabant;51.584;4.983
5036;Tilburg;Noord-Brabant;51.569;5.003
5037;Tilburg;Noord-Brabant;51.561;5.064
5038;Tilburg;Noord-Brabant;51.557;5.089
5041;Tilburg;Noord-Brabant;51.562;5.088
5042;Tilburg;Noord-Brabant;51.574;5.066
5043;Tilburg;Noord-Brabant;51.585;5.012
5044;Tilburg;Noord-Brabant;51.576;5.045
5045;Tilburg;Noord-Brabant;51.58;5.003
5046;Tilburg;Noord-Brabant;51.577;5.084
5047;Tilburg;Noord-Brabant;51.594;5
5048;Tilburg;Noord-Brabant;51.58;5.062
5049;Tilburg;Noord-Brabant;51.582;5.071
5050;Goirle;Noord-Brabant;51.519;5.068
5051;Goirle;Noord-Brabant;51.519;5.068
5052;Goirle;Noord-Brabant;51.525;5.055
5053;Oisterwijk;Noord-Brabant;51.529;5.086
5056;Berkel-Enschot;Noord-Brabant;51.577;5.137
5057;Berkel-Enschot;Noord-Brabant;51.592;5.138
5059;Heukelom;Noord-Brabant;51.583;5.161
5060;Oisterwijk;Noord-Brabant;51.577;5.174
5061;Oisterwijk;Noord-Brabant;51.575;5.178
5062;Oisterwijk;Noord-Brabant;51.576;5.215
5063;Oisterwijk;Noord-Brabant;51.58;5.17
5066;Oisterwijk;Noord-Brabant;51.548;5.181
5070;Udenhout;Noord-Brabant;51.612;5.152
5071;Udenhout;Noord-Brabant;51.612;5.152
5074;Biezenmortel;Noord-Brabant;51.615;5.193
5076;Haaren;Noord-Brabant;51.596;5.214
5080;Hilvarenbeek;Noord-Brabant;51.483;5.138
5081;Hilvarenbeek;Noord-Brabant;51.483;5.138
5084;Hilvarenbeek;Noord-Brabant;51.506;5.158
5085;Esbeek;Noord-Brabant;51.465;5.141
5087;Diessen;Noord-Brabant;51.474;5.173
5089;Haghorst;Noord-Brabant;51.49;5.227
5091;Oost West en Middelbeers;Noord-Brabant;51.467;5.248
5094;Lage Mierde;Noord-Brabant;51.404;5.147
5095;Hooge Mierde;Noord-Brabant;51.377;5.105
5096;Hulsel;Noord-Brabant;51.392;5.166
5100;Dongen;Noord-Brabant;51.625;4.935
5101;Dongen;Noord-Brabant;51.625;4.935
5102;Dongen;Noord-Brabant;51.634;4.932
5103;Dongen;Noord-Brabant;51.635;4.942
5104;Dongen;Noord-Brabant;51.621;4.945
5105;Dongen;Noord-Brabant;51.618;4.965
5106;Dongen;Noord-Brabant;51.647;4.944
5107;Dongen;Noord-Brabant;51.62;4.916
5109;'s Gravenmoer;Noord-Brabant;51.656;4.941
5110;Baarle-Nassau;Noord-Brabant;51.447;4.929
5111;Baarle-Nassau;Noord-Brabant;51.447;4.929
5113;Ulicoten;Noord-Brabant;51.451;4.868
5114;Baarle-Nassau;Noord-Brabant;51.424;4.796
5120;Rijen;Noord-Brabant;51.59;4.902
5121;Rijen;Noord-Brabant;51.59;4.902
5122;Rijen;Noord-Brabant;51.589;4.926
5124;Molenschot;Noord-Brabant;51.583;4.89
5125;Hulten;Noord-Brabant;51.571;4.955
5126;Gilze;Noord-Brabant;51.539;4.944
5130;Alphen;Noord-Brabant;51.493;4.956
5131;Riel;Noord-Brabant;51.493;4.956
5133;Riel;Noord-Brabant;51.537;4.994
5140;Waalwijk;Noord-Brabant;51.688;5.048
5141;Waalwijk;Noord-Brabant;51.688;5.048
5142;Waalwijk;Noord-Brabant;51.686;5.08
5143;Waalwijk;Noord-Brabant;51.684;5.077
5144;Sprang-Capelle;Noord-Brabant;51.683;5.068
5145;Waalwijk;Noord-Brabant;51.696;5.046
5146;Waalwijk;Noord-Brabant;51.674;5.041
5150;Drunen;Noord-Brabant;51.688;5.116
5151;Drunen;Noord-Brabant;51.688;5.116
5152;Drunen;Noord-Brabant;51.685;5.123
5154;Drunen;Noord-Brabant;51.695;5.142
5160;Sprang-Capelle;Noord-Brabant;51.674;5.023
5161;Sprang-Capelle;Noord-Brabant;51.678;4.987
5162;Waspik;Noord-Brabant;52.087;4.656
5165;Raamsdonk;Noord-Brabant;51.679;4.948
5170;Kaatsheuvel;Noord-Brabant;51.656;5.029
5171;Kaatsheuvel;Noord-Brabant;51.656;5.029
5172;Kaatsheuvel;Noord-Brabant;51.653;5.025
5175;Loon op Zand;Noord-Brabant;51.625;5.067
5176;De Moer;Noord-Brabant;51.625;5.015
5200;'s-Hertogenbosch;Noord-Brabant;51.688;5.294
5201;'s-Hertogenbosch;Noord-Brabant;51.688;5.294
5202;'s-Hertogenbosch;Noord-Brabant;51.688;5.294
5203;'s-Hertogenbosch;Noord-Brabant;51.688;5.294
5211;'s-Hertogenbosch;Noord-Brabant;51.688;5.294
5212;'s-Hertogenbosch;Noord-Brabant;51.697;5.306
5213;'s-Hertogenbosch;Noord-Brabant;51.691;5.318
5215;'s-Hertogenbosch;Noord-Brabant;51.688;5.317
5216;'s-Hertogenbosch;Noord-Brabant;51.68;5.311
5221;'s-Hertogenbosch;Noord-Brabant;51.72;5.269
5222;'s-Hertogenbosch;Noord-Brabant;51.698;5.291
5223;'s-Hertogenbosch;Noord-Brabant;51.696;5.297
5224;'s-Hertogenbosch;Noord-Brabant;51.696;5.267
5231;'s-Hertogenbosch;Noord-Brabant;51.704;5.318
5232;'s-Hertogenbosch;Noord-Brabant;51.705;5.319
5233;'s-Hertogenbosch;Noord-Brabant;51.714;5.316
5234;'s-Hertogenbosch;Noord-Brabant;51.725;5.284
5235;'s-Hertogenbosch;Noord-Brabant;51.722;5.316
5236;'s-Hertogenbosch;Noord-Brabant;51.729;5.326
5237;'s-Hertogenbosch;Noord-Brabant;51.732;5.3
5240;Rosmalen;Noord-Brabant;51.712;5.354
5241;Rosmalen;Noord-Brabant;51.712;5.354
5242;Rosmalen;Noord-Brabant;51.71;5.358
5243;Rosmalen;Noord-Brabant;51.717;5.366
5244;Rosmalen;Noord-Brabant;51.713;5.373
5245;Rosmalen;Noord-Brabant;51.729;5.356
5246;'s-Hertogenbosch;Noord-Brabant;51.699;5.335
5247;Rosmalen;Noord-Brabant;51.711;5.368
5248;Rosmalen;Noord-Brabant;51.705;5.381
5249;Rosmalen;Noord-Brabant;51.725;5.398
5250;Vlijmen;Noord-Brabant;51.695;5.214
5251;Vlijmen;Noord-Brabant;51.694;5.225
5252;Vlijmen;Noord-Brabant;51.698;5.21
5253;Nieuwkuijk;Noord-Brabant;51.693;5.192
5254;Haarsteeg;Noord-Brabant;51.711;5.203
5256;Haarsteeg;Noord-Brabant;51.733;5.141
5258;Berlicum;Noord-Brabant;51.681;5.402
5260;Vught;Noord-Brabant;51.669;5.294
5261;Vught;Noord-Brabant;51.669;5.294
5262;Vught;Noord-Brabant;51.655;5.291
5263;Vught;Noord-Brabant;51.663;5.288
5264;Vught;Noord-Brabant;51.673;5.274
5266;Vught;Noord-Brabant;51.666;5.21
5268;Helvoirt;Noord-Brabant;51.633;5.232
5270;Sint-Michielsgestel;Noord-Brabant;51.638;5.351
5271;Den Dungen;Noord-Brabant;51.638;5.351
5272;Sint-Michielsgestel;Noord-Brabant;51.638;5.359
5275;Den Dungen;Noord-Brabant;51.664;5.372
5280;Boxtel;Noord-Brabant;51.591;5.328
5281;Boxtel;Noord-Brabant;51.591;5.328
5282;Boxtel;Noord-Brabant;51.596;5.318
5283;Boxtel;Noord-Brabant;51.592;5.335
5291;Gemonde;Noord-Brabant;51.616;5.355
5292;Gemonde;Noord-Brabant;51.625;5.369
5293;Gemonde;Noord-Brabant;51.619;5.36
5294;Gemonde;Noord-Brabant;51.618;5.362
5296;Esch;Noord-Brabant;51.612;5.283
5298;Liempde;Noord-Brabant;51.565;5.373
5300;Zaltbommel;Gelderland;51.813;5.248
5301;Zaltbommel;Gelderland;51.813;5.248
5302;Zaltbommel;Gelderland;51.796;5.254
5305;Zuilichem;Gelderland;51.807;5.131
5306;Brakel;Gelderland;51.82;5.096
5307;Poederoijen;Gelderland;51.787;5.08
5308;Aalst;Gelderland;51.776;5.133
5310;Gameren;Gelderland;51.803;5.225
5311;Gameren;Gelderland;51.803;5.225
5313;Nieuwaal;Gelderland;51.811;5.18
5314;Bruchem;Gelderland;51.79;5.241
5315;Kerkwijk;Gelderland;51.779;5.22
5316;Delwijnen;Gelderland;51.77;5.191
5317;Nederhemert;Gelderland;51.767;5.161
5318;Bern;Gelderland;51.746;5.184
5320;Hedel;Gelderland;51.747;5.239
5321;Hedel;Gelderland;51.747;5.239
5324;Ammerzoden;Gelderland;51.75;5.22
5325;Well;Gelderland;51.768;5.205
5327;Hurwenen;Gelderland;51.811;5.326
5328;Rossum;Gelderland;51.801;5.337
5330;Kerkdriel;Gelderland;51.774;5.332
5331;Kerkdriel;Gelderland;51.774;5.332
5333;Hoenzadriel;Gelderland;51.76;5.336
5334;Velddriel;Gelderland;51.77;5.316
5335;Alem;Gelderland;51.789;5.336
5340;Oss;Noord-Brabant;51.772;5.524
5341;Oss;Noord-Brabant;51.772;5.524
5342;Oss;Noord-Brabant;51.758;5.526
5343;Oss;Noord-Brabant;51.749;5.533
5344;Oss;Noord-Brabant;51.759;5.515
5345;Oss;Noord-Brabant;51.761;5.513
5346;Oss;Noord-Brabant;51.775;5.512
5347;Oss;Noord-Brabant;51.775;5.533
5348;Oss;Noord-Brabant;51.77;5.533
5349;Oss;Noord-Brabant;51.765;5.535
5351;Berghem;Noord-Brabant;51.769;5.562
5360;Grave;Noord-Brabant;51.756;5.73
5361;Grave;Noord-Brabant;51.756;5.73
5363;Velp;Noord-Brabant;51.747;5.711
5364;Escharen;Noord-Brabant;51.74;5.74
5366;Megen;Noord-Brabant;51.824;5.56
5367;Macharen;Noord-Brabant;51.806;5.543
5368;Haren;Noord-Brabant;51.805;5.584
5370;Ravenstein;Noord-Brabant;51.797;5.653
5371;Ravenstein;Noord-Brabant;51.797;5.653
5373;Herpen;Noord-Brabant;51.774;5.644
5374;Schaijk;Noord-Brabant;51.746;5.63
5375;Reek;Noord-Brabant;51.744;5.683
5381;Vinkel;Noord-Brabant;51.707;5.464
5382;Vinkel;Noord-Brabant;51.705;5.469
5383;Vinkel;Noord-Brabant;51.715;5.476
5384;Heesch;Noord-Brabant;51.732;5.533
5386;Geffen;Noord-Brabant;51.742;5.46
5388;Nistelrode;Noord-Brabant;51.703;5.559
5390;Nuland;Noord-Brabant;51.73;5.433
5391;Nuland;Noord-Brabant;51.73;5.433
5392;Nuland;Noord-Brabant;51.73;5.432
5394;Oijen;Noord-Brabant;51.826;5.502
5395;Teeffelen;Noord-Brabant;51.797;5.496
5396;Lith;Noord-Brabant;51.801;5.459
5397;Lith;Noord-Brabant;51.804;5.442
5398;Maren-Kessel;Noord-Brabant;51.804;5.403
5400;Uden;Noord-Brabant;51.661;5.606
5401;Uden;Noord-Brabant;51.661;5.606
5402;Uden;Noord-Brabant;51.671;5.61
5403;Uden;Noord-Brabant;51.658;5.637
5404;Uden;Noord-Brabant;51.65;5.626
5405;Uden;Noord-Brabant;51.653;5.642
5406;Uden;Noord-Brabant;51.642;5.621
5408;Uden;Noord-Brabant;51.645;5.653
5409;Odiliapeel;Noord-Brabant;51.644;5.7
5410;Zeeland;Noord-Brabant;51.694;5.679
5411;Zeeland;Noord-Brabant;51.694;5.679
5420;Gemert;Noord-Brabant;51.553;5.704
5421;Gemert;Noord-Brabant;51.553;5.704
5422;Gemert;Noord-Brabant;51.558;5.699
5423;Handel;Noord-Brabant;51.586;5.706
5424;Elsendorp;Noord-Brabant;51.581;5.78
5425;De Mortel;Noord-Brabant;51.528;5.721
5427;Boekel;Noord-Brabant;51.602;5.673
5428;Venhorst;Noord-Brabant;51.608;5.739
5430;Cuijk;Noord-Brabant;51.738;5.875
5431;Cuijk;Noord-Brabant;51.738;5.875
5432;Cuijk;Noord-Brabant;51.733;5.866
5433;Katwijk NB;Noord-Brabant;51.75;5.87
5434;Vianen NB;Noord-Brabant;51.723;5.86
5435;Sint Agatha;Noord-Brabant;51.702;5.914
5437;Beers NB;Noord-Brabant;51.726;5.835
5438;Gassel;Noord-Brabant;51.741;5.78
5439;Linden;Noord-Brabant;51.749;5.842
5441;Oeffelt;Noord-Brabant;51.697;5.932
5443;Haps;Noord-Brabant;51.69;5.863
5445;Landhorst;Noord-Brabant;51.618;5.793
5446;Wanroij;Noord-Brabant;51.654;5.818
5447;Rijkevoort;Noord-Brabant;51.657;5.885
5449;Rijkevoort-De Walsert;Noord-Brabant;51.65;5.87
5450;Mill;Noord-Brabant;51.689;5.779
5451;Mill;Noord-Brabant;51.689;5.779
5453;Langenboom;Noord-Brabant;51.677;5.738
5454;Sint Hubert;Noord-Brabant;51.679;5.808
5455;Wilbertoord;Noord-Brabant;51.67;5.767
5460;Veghel;Noord-Brabant;51.618;5.54
5461;Veghel;Noord-Brabant;51.618;5.54
5462;Veghel;Noord-Brabant;51.612;5.535
5463;Veghel;Noord-Brabant;51.61;5.541
5464;Veghel;Noord-Brabant;51.633;5.55
5465;Veghel;Noord-Brabant;51.585;5.516
5466;Veghel;Noord-Brabant;51.607;5.52
5467;Veghel;Noord-Brabant;51.628;5.557
5469;Uden;Noord-Brabant;51.606;5.608
5471;Loosbroek;Noord-Brabant;51.682;5.504
5472;Loosbroek;Noord-Brabant;51.673;5.511
5473;Heeswijk-Dinther;Noord-Brabant;51.655;5.471
5476;Vorstenbosch;Noord-Brabant;51.652;5.552
5480;Schijndel;Noord-Brabant;51.621;5.429
5481;Sint-Michielsgestel;Noord-Brabant;51.621;5.429
5482;Schijndel;Noord-Brabant;51.611;5.448
5490;Sint-Oedenrode;Noord-Brabant;51.565;5.434
5491;Sint-Oedenrode;Noord-Brabant;51.565;5.469
5492;Sint-Oedenrode;Noord-Brabant;51.563;5.461
5500;Veldhoven;Noord-Brabant;51.421;5.396
5501;Veldhoven;Noord-Brabant;51.421;5.396
5502;Veldhoven;Noord-Brabant;51.423;5.411
5503;Veldhoven;Noord-Brabant;51.416;5.402
5504;Veldhoven;Noord-Brabant;51.406;5.392
5505;Veldhoven;Noord-Brabant;51.413;5.39
5506;Veldhoven;Noord-Brabant;51.417;5.382
5507;Veldhoven;Noord-Brabant;51.419;5.367
5508;Veldhoven;Noord-Brabant;51.422;5.392
5509;Veldhoven;Noord-Brabant;51.436;5.406
5511;Knegsel;Noord-Brabant;51.4;5.348
5512;Vessem;Noord-Brabant;51.407;5.29
5513;Wintelre;Noord-Brabant;51.441;5.332
5520;Eersel;Noord-Brabant;51.36;5.307
5521;Eersel;Noord-Brabant;51.36;5.307
5524;Steensel;Noord-Brabant;51.38;5.356
5525;Duizel;Noord-Brabant;51.374;5.299
5527;Hapert;Noord-Brabant;51.371;5.26
5528;Hoogeloon;Noord-Brabant;51.389;5.269
5529;Casteren;Noord-Brabant;51.393;5.244
5530;Bladel;Noord-Brabant;51.358;5.2
5531;Bladel;Noord-Brabant;51.358;5.2
5534;Netersel;Noord-Brabant;51.399;5.206
5540;Reusel;Noord-Brabant;51.354;5.161
5541;Reusel;Noord-Brabant;51.354;5.161
5550;Valkenswaard;Noord-Brabant;51.343;5.431
5551;Valkenswaard;Noord-Brabant;51.343;5.431
5552;Valkenswaard;Noord-Brabant;51.356;5.461
5553;Valkenswaard;Noord-Brabant;51.365;5.466
5554;Valkenswaard;Noord-Brabant;51.352;5.459
5555;Valkenswaard;Noord-Brabant;51.351;5.466
5556;Valkenswaard;Noord-Brabant;51.336;5.446
5561;Riethoven;Noord-Brabant;51.353;5.389
5563;Westerhoven;Noord-Brabant;51.341;5.417
5570;Bergeijk;Noord-Brabant;51.32;5.349
5571;Bergeijk;Noord-Brabant;51.32;5.349
5575;Luyksgestel;Noord-Brabant;51.281;5.305
5580;Waalre;Noord-Brabant;51.389;5.437
5581;Waalre;Noord-Brabant;51.389;5.437
5582;Waalre;Noord-Brabant;51.404;5.465
5583;Waalre;Noord-Brabant;51.386;5.482
5590;Heeze;Noord-Brabant;51.39;5.576
5591;Heeze;Noord-Brabant;51.39;5.576
5595;Leende;Noord-Brabant;51.357;5.564
5600;Eindhoven;Noord-Brabant;51.441;5.481
5601;Eindhoven;Noord-Brabant;51.441;5.481
5602;Eindhoven;Noord-Brabant;51.441;5.481
5604;Eindhoven;Noord-Brabant;51.441;5.481
5605;Eindhoven;Noord-Brabant;51.441;5.481
5606;Eindhoven;Noord-Brabant;52.087;4.656
5611;Eindhoven;Noord-Brabant;51.441;5.481
5612;Eindhoven;Noord-Brabant;51.444;5.475
5613;Eindhoven;Noord-Brabant;51.443;5.494
5614;Eindhoven;Noord-Brabant;51.431;5.492
5615;Eindhoven;Noord-Brabant;51.427;5.488
5616;Eindhoven;Noord-Brabant;51.436;5.469
5617;Eindhoven;Noord-Brabant;51.448;5.459
5621;Eindhoven;Noord-Brabant;51.451;5.463
5622;Eindhoven;Noord-Brabant;51.456;5.471
5623;Eindhoven;Noord-Brabant;51.457;5.473
5624;Eindhoven;Noord-Brabant;51.472;5.452
5625;Eindhoven;Noord-Brabant;51.467;5.477
5626;Eindhoven;Noord-Brabant;51.462;5.453
5627;Eindhoven;Noord-Brabant;51.474;5.442
5628;Eindhoven;Noord-Brabant;51.476;5.462
5629;Eindhoven;Noord-Brabant;51.484;5.479
5631;Eindhoven;Noord-Brabant;51.455;5.499
5632;Eindhoven;Noord-Brabant;51.468;5.499
5633;Eindhoven;Noord-Brabant;51.487;5.492
5641;Eindhoven;Noord-Brabant;51.45;5.515
5642;Eindhoven;Noord-Brabant;51.438;5.507
5643;Eindhoven;Noord-Brabant;51.423;5.494
5644;Eindhoven;Noord-Brabant;51.422;5.493
5645;Eindhoven;Noord-Brabant;51.417;5.504
5646;Eindhoven;Noord-Brabant;51.415;5.5
5647;Eindhoven;Noord-Brabant;51.423;5.524
5651;Eindhoven;Noord-Brabant;51.444;5.443
5652;Eindhoven;Noord-Brabant;51.433;5.452
5653;Eindhoven;Noord-Brabant;51.427;5.458
5654;Eindhoven;Noord-Brabant;51.425;5.466
5655;Eindhoven;Noord-Brabant;51.417;5.444
5656;Eindhoven;Noord-Brabant;51.411;5.462
5657;Eindhoven;Noord-Brabant;51.453;5.358
5658;Eindhoven;Noord-Brabant;51.449;5.412
5660;Geldrop;Noord-Brabant;51.413;5.56
5661;Geldrop;Noord-Brabant;51.409;5.542
5662;Geldrop;Noord-Brabant;51.424;5.551
5663;Geldrop;Noord-Brabant;51.421;5.545
5664;Geldrop;Noord-Brabant;51.419;5.553
5665;Geldrop;Noord-Brabant;51.42;5.572
5666;Geldrop;Noord-Brabant;51.422;5.567
5667;Geldrop;Noord-Brabant;51.429;5.561
5670;Nuenen;Noord-Brabant;51.475;5.539
5671;Nuenen;Noord-Brabant;51.475;5.539
5672;Nuenen;Noord-Brabant;51.467;5.542
5673;Nuenen;Noord-Brabant;51.478;5.561
5674;Nuenen;Noord-Brabant;51.459;5.537
5680;Best;Noord-Brabant;51.508;5.39
5681;Best;Noord-Brabant;51.52;5.398
5682;Best;Noord-Brabant;51.512;5.391
5683;Best;Noord-Brabant;51.512;5.393
5684;Best;Noord-Brabant;51.508;5.39
5685;Best;Noord-Brabant;51.495;5.383
5688;Oirschot;Noord-Brabant;51.503;5.311
5689;Oirschot;Noord-Brabant;51.498;5.314
5690;Son;Noord-Brabant;51.514;5.491
5691;Son en Breugel;Noord-Brabant;51.511;5.494
5692;Son en Breugel;Noord-Brabant;51.499;5.493
5694;Son en Breugel;Noord-Brabant;51.51;5.505
5700;Helmond;Noord-Brabant;51.486;5.662
5701;Helmond;Noord-Brabant;51.486;5.662
5702;Helmond;Noord-Brabant;51.486;5.661
5703;Helmond;Noord-Brabant;51.474;5.681
5704;Helmond;Noord-Brabant;51.461;5.698
5705;Helmond;Noord-Brabant;51.473;5.657
5706;Helmond;Noord-Brabant;51.472;5.652
5707;Helmond;Noord-Brabant;51.476;5.646
5708;Helmond;Noord-Brabant;51.482;5.627
5709;Helmond;Noord-Brabant;51.471;5.701
5710;Someren;Noord-Brabant;51.382;5.709
5711;Someren;Noord-Brabant;51.382;5.709
5712;Someren;Noord-Brabant;51.377;5.721
5715;Lierop;Noord-Brabant;51.42;5.687
5720;Asten;Noord-Brabant;51.405;5.754
5721;Someren;Noord-Brabant;51.403;5.743
5724;Asten;Noord-Brabant;51.418;5.747
5725;Heusden;Noord-Brabant;51.388;5.76
5730;Mierlo;Noord-Brabant;51.437;5.598
5731;Mierlo;Noord-Brabant;51.437;5.598
5735;Aarle-Rixtel;Noord-Brabant;51.508;5.637
5737;Lieshout;Noord-Brabant;51.521;5.595
5738;Mariahout;Noord-Brabant;51.529;5.583
5740;Beek en Donk;Noord-Brabant;51.534;5.631
5741;Aarle-Rixtel;Noord-Brabant;51.534;5.631
5750;Deurne;Noord-Brabant;51.464;5.803
5751;Deurne;Noord-Brabant;51.464;5.803
5752;Deurne;Noord-Brabant;51.473;5.801
5753;Deurne;Noord-Brabant;51.455;5.783
5754;Deurne;Noord-Brabant;51.453;5.829
5756;Vlierden;Noord-Brabant;51.444;5.765
5757;Deurne;Noord-Brabant;51.421;5.817
5758;Neerkant;Noord-Brabant;51.365;5.866
5759;Helenaveen;Noord-Brabant;51.387;5.919
5760;Bakel;Noord-Brabant;51.504;5.746
5761;Bakel;Noord-Brabant;51.504;5.746
5763;Milheeze;Noord-Brabant;51.496;5.799
5764;De Rips;Noord-Brabant;51.526;5.798
5766;Griendtsveen;Limburg;51.444;5.878
5768;Meijel;Limburg;51.342;5.885
5800;Venray;Limburg;51.522;5.974
5801;Venray;Limburg;51.522;5.974
5802;Venray;Limburg;51.528;5.98
5803;Venray;Limburg;51.528;5.987
5804;Venray;Limburg;51.533;5.98
5807;Oostrum;Limburg;51.528;6.005
5808;Oirlo;Limburg;51.502;6.01
5809;Leunen;Limburg;51.514;5.981
5811;Castenray;Limburg;51.493;6.016
5812;Heide;Limburg;51.504;5.951
5813;Ysselsteyn;Limburg;51.496;5.894
5814;Veulen;Limburg;51.485;5.968
5815;Merselo;Limburg;51.53;5.933
5816;Vredepeel;Limburg;51.542;5.895
5817;Smakt;Limburg;51.556;6.008
5821;Groeningen;Noord-Brabant;51.601;6.008
5823;Maashees;Noord-Brabant;51.577;6.026
5824;Holthees;Noord-Brabant;51.573;6.007
5825;Overloon;Noord-Brabant;51.569;5.948
5826;Groeningen;Noord-Brabant;51.605;6.001
5827;Vortum-Mullem;Noord-Brabant;51.621;5.982
5830;Boxmeer;Noord-Brabant;51.646;5.934
5831;Boxmeer;Noord-Brabant;51.646;5.934
5835;Beugen;Noord-Brabant;51.669;5.942
5836;Sambeek;Noord-Brabant;51.639;5.962
5840;Oploo;Noord-Brabant;51.609;5.875
5841;Oploo;Noord-Brabant;51.609;5.875
5843;Westerbeek;Noord-Brabant;51.588;5.886
5844;Stevensbeek;Noord-Brabant;51.614;5.926
5845;Sint Anthonis;Noord-Brabant;51.629;5.886
5846;Ledeacker;Noord-Brabant;51.634;5.875
5851;Afferden L;Flevoland;51.621;6.029
5853;Siebengewald;Limburg;51.639;6.087
5854;Bergen L;Limburg;51.599;6.032
5855;Well L;Limburg;51.552;6.108
5856;Wellerlooi;Limburg;51.531;6.132
5861;Wanssum;Limburg;51.529;6.083
5862;Geijsteren;Limburg;51.551;6.058
5863;Blitterswijck;Limburg;51.529;6.105
5864;Meerlo;Limburg;51.517;6.079
5865;Tienray;Limburg;51.496;6.092
5866;America;Limburg;51.492;6.113
5871;Broekhuizenvorst;Limburg;51.493;6.159
5872;Broekhuizen;Limburg;51.483;6.164
5900;Venlo;Limburg;51.369;6.174
5902;Venlo;Limburg;51.369;6.174
5911;Venlo;Limburg;51.369;6.174
5912;Venlo;Limburg;51.366;6.165
5913;Venlo;Limburg;51.364;6.172
5914;Venlo;Limburg;51.374;6.179
5915;Venlo;Limburg;51.358;6.178
5916;Venlo;Limburg;51.382;6.187
5921;Venlo;Limburg;51.369;6.138
5922;Venlo;Limburg;51.371;6.155
5923;Venlo;Limburg;51.361;6.148
5924;Venlo;Limburg;51.365;6.132
5925;Venlo;Limburg;51.372;6.136
5926;Venlo;Limburg;51.347;6.126
5927;Venlo;Limburg;51.38;6.115
5928;Venlo;Limburg;51.394;6.098
5930;Tegelen;Limburg;51.339;6.145
5931;Tegelen;Limburg;51.338;6.129
5932;Tegelen;Limburg;51.334;6.142
5935;Steyl;Limburg;51.331;6.126
5940;Velden;Limburg;51.421;6.168
5941;Velden;Limburg;51.421;6.168
5943;Lomm;Limburg;51.448;6.175
5944;Arcen;Limburg;51.473;6.18
5950;Belfeld;Limburg;51.319;6.115
5951;Tegelen;Limburg;51.319;6.115
5953;Reuver;Limburg;51.28;6.076
5954;Beesel;Limburg;51.269;6.046
5960;Horst;Limburg;51.455;6.051
5961;Horst;Limburg;51.455;6.051
5962;Melderslo;Limburg;51.452;6.078
5963;Hegelsom;Limburg;51.432;6.045
5964;America;Limburg;51.455;6.027
5966;America;Limburg;51.438;5.98
5970;Grubbenvorst;Limburg;51.419;6.143
5971;Grubbenvorst;Limburg;51.419;6.143
5973;Lottum;Limburg;51.459;6.159
5975;Sevenum;Limburg;51.413;6.034
5976;Kronenberg;Limburg;51.421;6.003
5977;Evertsoord;Limburg;51.404;5.919
5980;Panningen;Limburg;51.328;5.983
5981;Panningen;Limburg;51.328;5.983
5984;Koningslust;Limburg;51.347;6.014
5985;Grashoek;Limburg;51.374;5.946
5986;Beringe;Limburg;51.342;5.941
5987;Egchel;Limburg;51.319;5.972
5988;Helden;Limburg;51.325;5.99
5990;Baarlo;Limburg;51.336;6.098
5991;Baarlo;Limburg;51.336;6.098
5993;Maasbree;Limburg;51.352;6.063
5995;Kessel;Limburg;51.286;6.044
6000;Weert;Limburg;51.253;5.715
6001;Weert;Limburg;51.253;5.715
6002;Weert;Limburg;51.256;5.699
6003;Weert;Limburg;51.262;5.697
6004;Weert;Limburg;51.25;5.714
6005;Weert;Limburg;51.246;5.716
6006;Weert;Limburg;51.247;5.715
6011;Ell;Limburg;51.219;5.798
6012;Haler;Limburg;51.199;5.794
6013;Hunsel;Limburg;51.198;5.809
6014;Ittervoort;Limburg;51.168;5.825
6015;Neeritter;Limburg;51.163;5.807
6017;Thorn;Limburg;51.159;5.837
6019;Wessem;Limburg;51.159;5.872
6020;Budel;Noord-Brabant;51.262;5.575
6021;Budel;Noord-Brabant;51.262;5.575
6023;Budel-Schoot;Noord-Brabant;51.243;5.565
6024;Budel-Dorplein;Noord-Brabant;51.236;5.594
6026;Maarheeze;Noord-Brabant;51.306;5.622
6027;Soerendonk;Noord-Brabant;51.302;5.562
6028;Gastel;Noord-Brabant;51.287;5.549
6029;Sterksel;Noord-Brabant;51.343;5.631
6030;Nederweert;Limburg;51.289;5.771
6031;Nederweert;Limburg;51.289;5.771
6034;Nederweert-Eind;Limburg;51.277;5.784
6035;Ospel;Limburg;51.293;5.772
6037;Kelpen-Oler;Limburg;51.22;5.843
6039;Stramproy;Limburg;51.197;5.723
6040;Roermond;Limburg;51.213;6.001
6041;Roermond;Limburg;51.213;6.001
6042;Roermond;Limburg;51.196;5.997
6043;Roermond;Limburg;51.183;6
6044;Roermond;Limburg;51.183;6.01
6045;Roermond;Limburg;51.186;5.992
6049;Roermond;Limburg;51.183;5.972
6050;Maasbracht;Limburg;51.151;5.893
6051;Maasbracht;Limburg;51.151;5.893
6060;Posterholt;Limburg;51.117;6.036
6061;Posterholt;Limburg;51.117;6.036
6063;Vlodrop;Limburg;51.125;6.079
6065;Montfort;Limburg;51.122;5.953
6067;Linne;Limburg;51.157;5.951
6070;Swalmen;Limburg;51.203;5.996
6071;Swalmen;Limburg;51.214;6.043
6074;Melick;Limburg;51.154;6.007
6075;Herkenbosch;Limburg;51.152;6.066
6077;Sint Odilinberg;Limburg;51.148;6
6080;Haelen;Limburg;51.226;5.95
6081;Haelen;Limburg;51.226;5.95
6082;Buggenum;Limburg;51.232;5.972
6083;Nunhem;Limburg;51.24;5.969
6085;Horn;Limburg;51.208;5.943
6086;Neer;Limburg;51.272;6.004
6088;Roggel;Limburg;51.264;5.928
6089;Heibloem;Limburg;51.285;5.898
6091;Leveroy;Limburg;51.247;5.814
6092;Leveroy;Limburg;51.246;5.849
6093;Heythuysen;Limburg;51.245;5.907
6095;Baexem;Limburg;51.22;5.885
6096;Grathem;Limburg;51.189;5.859
6097;Heel;Limburg;51.179;5.9
6099;Beegden;Limburg;51.185;5.913
6100;Echt;Limburg;51.108;5.855
6101;Echt;Limburg;51.108;5.855
6102;Echt;Limburg;50.9;5.723
6104;Koningsbosch;Limburg;51.059;5.951
6105;Maria Hoop;Limburg;51.107;5.947
6107;Stevensweert;Limburg;51.12;5.838
6109;Oh en Laak;Limburg;51.11;5.845
6111;Sint Joost;Limburg;51.105;5.908
6112;Sint Joost;Limburg;51.113;5.902
6114;Susteren;Limburg;51.067;5.869
6116;Roosteren;Limburg;51.079;5.831
6118;Nieuwstadt;Limburg;51.038;5.858
6120;Born;Limburg;51.033;5.802
6121;Born;Limburg;51.033;5.802
6122;Buchten;Limburg;51.038;5.809
6123;Holtum;Limburg;51.046;5.824
6124;Papenhoven;Limburg;51.035;5.784
6125;Obbicht;Limburg;51.028;5.78
6127;Grevenbicht;Limburg;51.043;5.776
6129;Urmond;Limburg;51.005;5.773
6130;Sittard;Limburg;50.996;5.857
6131;Sittard;Limburg;50.996;5.857
6132;Sittard;Limburg;50.994;5.875
6133;Sittard;Limburg;50.99;5.856
6134;Sittard;Limburg;50.994;5.858
6135;Sittard;Limburg;51.006;5.859
6136;Sittard;Limburg;51.005;5.865
6137;Sittard;Limburg;50.999;5.874
6141;Limbricht;Limburg;51.01;5.84
6142;Einighausen;Limburg;50.993;5.822
6143;Guttecoven;Limburg;51.015;5.82
6151;Munstergeleen;Limburg;50.978;5.865
6153;Windraak;Limburg;50.972;5.885
6155;Puth;Limburg;50.949;5.875
6160;Geleen;Limburg;50.966;5.824
6161;Geleen;Limburg;50.964;5.817
6162;Geleen;Limburg;50.97;5.832
6163;Geleen;Limburg;50.977;5.824
6164;Geleen;Limburg;50.959;5.832
6165;Geleen;Limburg;50.96;5.823
6166;Geleen;Limburg;50.969;5.833
6167;Geleen;Limburg;50.976;5.82
6170;Stein;Limburg;50.979;5.777
6171;Stein;Limburg;50.979;5.777
6174;Sweikhuizen;Limburg;50.958;5.841
6176;Spaubeek;Limburg;50.932;5.841
6181;Elsloo;Limburg;50.955;5.785
6190;Beek;Limburg;50.939;5.793
6191;Beek;Limburg;50.939;5.793
6199;Maastricht-Airport;Limburg;50.923;5.778
6200;Maastricht;Limburg;50.858;5.694
6201;Maastricht;Limburg;50.858;5.694
6202;Maastricht;Limburg;50.858;5.694
6203;Maastricht;Limburg;50.858;5.694
6211;Maastricht;Limburg;50.858;5.694
6212;Maastricht;Limburg;50.842;5.693
6213;Maastricht;Limburg;50.841;5.681
6214;Maastricht;Limburg;50.849;5.676
6215;Maastricht;Limburg;50.837;5.66
6216;Maastricht;Limburg;50.853;5.658
6217;Maastricht;Limburg;50.857;5.66
6218;Maastricht;Limburg;50.862;5.667
6219;Maastricht;Limburg;50.862;5.688
6221;Maastricht;Limburg;50.859;5.703
6222;Maastricht;Limburg;50.864;5.7
6223;Maastricht;Limburg;50.869;5.698
6224;Maastricht;Limburg;50.859;5.711
6225;Maastricht;Limburg;50.858;5.73
6226;Maastricht;Limburg;50.852;5.72
6227;Maastricht;Limburg;50.843;5.722
6228;Maastricht;Limburg;50.828;5.726
6229;Maastricht;Limburg;50.815;5.72
6230;Meerssen;Limburg;50.881;5.745
6231;Meerssen;Limburg;50.873;5.741
6235;Meerssen;Limburg;50.901;5.794
6237;Moorveld;Limburg;50.913;5.762
6240;Bunde;Limburg;50.893;5.728
6241;Bunde;Limburg;50.893;5.728
6243;Geulle;Limburg;50.927;5.761
6245;Eijsden;Limburg;50.767;5.712
6247;Gronsveld;Limburg;50.814;5.73
6251;Eckelrade;Limburg;50.805;5.762
6252;Eckelrade;Limburg;50.802;5.762
6255;Noorbeek;Limburg;50.769;5.808
6261;Mheer;Limburg;50.781;5.792
6262;Banholt;Limburg;50.787;5.816
6265;Sint Geertruid;Limburg;50.797;5.765
6267;Cadier en Keer;Limburg;50.828;5.757
6268;Bemelen;Limburg;50.847;5.77
6269;Margraten;Limburg;50.818;5.822
6270;Gulpen;Limburg;50.816;5.902
6271;Gulpen;Limburg;50.816;5.902
6273;Ingber;Limburg;50.813;5.857
6274;Reijmerstok;Limburg;50.799;5.835
6276;Heijenrath;Limburg;50.77;5.877
6277;Heijenrath;Limburg;50.766;5.863
6278;Beutenaken;Limburg;50.78;5.855
6281;Gulpen;Limburg;50.797;5.927
6285;Epen;Limburg;50.777;5.914
6286;Wittem;Limburg;50.814;5.909
6287;Eys;Limburg;50.824;5.93
6289;Elkenrade;Limburg;50.84;5.919
6290;Vaals;Limburg;50.771;6.023
6291;Vaals;Limburg;50.771;6.023
6294;Vijlen;Limburg;50.788;5.965
6295;Lemiers;Limburg;50.784;5.993
6301;Valkenburg;Limburg;50.856;5.835
6305;Schin op Geul;Limburg;50.855;5.854
6307;Scheulder;Limburg;50.827;5.848
6311;Ransdaal;Limburg;50.863;5.886
6312;Ransdaal;Limburg;50.862;5.892
6321;Wijlre;Limburg;50.833;5.894
6325;Berg en Terblijt;Limburg;50.86;5.778
6333;Schimmert;Limburg;50.89;5.818
6336;Hulsberg;Limburg;50.892;5.854
6341;Walem;Limburg;50.863;5.87
6342;Walem;Limburg;50.86;5.866
6343;Klimmen;Limburg;50.877;5.883
6351;Bocholtz;Limburg;50.823;5.983
6353;Baneheide;Limburg;50.818;5.973
6360;Nuth;Limburg;50.911;5.893
6361;Nuth;Limburg;50.911;5.893
6363;Wijnandsrade;Limburg;50.905;5.884
6365;Schinnen;Limburg;50.937;5.909
6367;Voerendaal;Limburg;50.875;5.935
6369;Simpelveld;Limburg;50.834;5.984
6370;Landgraaf;Limburg;50.905;6.02
6371;Landgraaf;Limburg;50.905;6.02
6372;Landgraaf;Limburg;50.896;6.022
6373;Ingber;Limburg;50.911;5.999
6374;Landgraaf;Limburg;50.913;6.039
6400;Heerlen;Limburg;50.887;5.971
6401;Heerlen;Limburg;50.887;5.971
6411;Heerlen;Limburg;50.887;5.971
6412;Heerlen;Limburg;50.891;5.977
6413;Heerlen;Limburg;50.73;5.813
6414;Heerlen;Limburg;50.912;5.993
6415;Heerlen;Limburg;50.89;5.985
6416;Heerlen;Limburg;50.889;6.001
6417;Heerlen;Limburg;50.876;5.989
6418;Heerlen;Limburg;50.873;5.998
6421;Heerlen;Limburg;50.927;5.952
6422;Heerlen;Limburg;50.847;6.006
6430;Hoensbroek;Limburg;50.931;5.922
6431;Hoensbroek;Limburg;50.931;5.922
6432;Hoensbroek;Limburg;50.924;5.923
6433;Hoensbroek;Limburg;50.918;5.923
6436;Amstenrade;Limburg;50.939;5.918
6438;Doenrade;Limburg;50.957;5.909
6439;Doenrade;Limburg;50.964;5.902
6440;Brunssum;Limburg;50.952;5.975
6441;Brunssum;Limburg;50.952;5.975
6442;Brunssum;Limburg;50.951;5.976
6443;Brunssum;Limburg;50.946;5.982
6444;Brunssum;Limburg;50.945;5.969
6445;Brunssum;Limburg;50.933;5.965
6446;Brunssum;Limburg;50.937;5.949
6447;Merkelbeek;Limburg;50.951;5.947
6450;Schinveld;Limburg;50.971;5.977
6451;Schinveld;Limburg;50.971;5.977
6454;Jabeek;Limburg;50.978;5.938
6456;Bingelrade;Limburg;50.975;5.928
6460;Kerkrade;Limburg;50.868;6.064
6461;Kerkrade;Limburg;50.868;6.064
6462;Kerkrade;Limburg;50.859;6.067
6463;Kerkrade;Limburg;50.871;6.068
6464;Kerkrade;Limburg;50.879;6.067
6465;Kerkrade;Limburg;50.854;6.029
6466;Kerkrade;Limburg;50.865;6.042
6467;Kerkrade;Limburg;50.865;6.042
6468;Kerkrade;Limburg;50.873;6.058
6469;Kerkrade;Limburg;50.89;6.05
6471;Kerkrade;Limburg;50.891;6.062
6500;Nijmegen;Gelderland;51.846;5.855
6501;Nijmegen;Gelderland;51.846;5.855
6503;Nijmegen;Gelderland;51.846;5.855
6504;Nijmegen;Gelderland;51.846;5.855
6511;Nijmegen;Gelderland;51.846;5.855
6512;Nijmegen;Gelderland;51.843;5.853
6515;Nijmegen;Gelderland;51.888;5.846
6521;Nijmegen;Gelderland;51.842;5.867
6522;Nijmegen;Gelderland;51.844;5.874
6523;Nijmegen;Gelderland;51.834;5.874
6524;Nijmegen;Gelderland;51.841;5.865
6525;Nijmegen;Gelderland;51.828;5.868
6531;Nijmegen;Gelderland;51.833;5.853
6532;Nijmegen;Gelderland;51.828;5.839
6533;Nijmegen;Gelderland;51.827;5.856
6534;Nijmegen;Gelderland;51.826;5.825
6535;Nijmegen;Gelderland;51.805;5.818
6536;Nijmegen;Gelderland;51.804;5.811
6537;Nijmegen;Gelderland;51.805;5.803
6538;Nijmegen;Gelderland;51.808;5.805
6541;Nijmegen;Gelderland;51.849;5.851
6542;Nijmegen;Gelderland;51.843;5.827
6543;Nijmegen;Gelderland;51.829;5.823
6544;Nijmegen;Gelderland;51.835;5.812
6545;Nijmegen;Gelderland;51.845;5.814
6546;Nijmegen;Gelderland;51.835;5.793
6550;Weurt;Gelderland;51.854;5.821
6551;Weurt;Gelderland;51.854;5.821
6560;Groesbeek;Gelderland;51.785;5.93
6561;Groesbeek;Gelderland;51.785;5.93
6562;Groesbeek;Gelderland;51.776;5.932
6564;Heilig Landstichting;Gelderland;51.823;5.891
6566;Millingen aan de Rijn;Gelderland;51.862;6.05
6571;Berg en Dal;Gelderland;51.826;5.913
6572;Berg en Dal;Gelderland;51.824;5.916
6573;Beek;Gelderland;51.829;5.926
6574;Ubbergen;Gelderland;51.837;5.9
6575;Persingen;Gelderland;51.841;5.92
6576;Ooij;Gelderland;51.859;5.937
6577;Erlecom;Gelderland;51.848;5.965
6578;Leuth;Gelderland;51.838;5.989
6579;Kekerdom;Gelderland;51.863;6.015
6580;Malden;Gelderland;51.777;5.853
6581;Malden;Gelderland;51.777;5.853
6582;Heumen;Gelderland;51.77;5.866
6584;Molenhoek;Limburg;51.759;5.87
6585;Mook;Limburg;51.756;5.875
6586;Plasmolen;Limburg;51.739;5.92
6587;Middelaar;Limburg;51.73;5.896
6590;Gennep;Limburg;51.694;5.969
6591;Gennep;Limburg;51.694;5.969
6595;Ottersum;Limburg;51.702;5.983
6596;Milsbeek;Limburg;51.721;5.951
6598;Heijen;Limburg;51.676;5.977
6599;Ven-Zelderheide;Limburg;51.709;6.016
6600;Wijchen;Gelderland;51.812;5.72
6601;Wijchen;Gelderland;51.812;5.72
6602;Wijchen;Gelderland;51.806;5.724
6603;Wijchen;Gelderland;51.799;5.748
6604;Wijchen;Gelderland;51.819;5.722
6605;Wijchen;Gelderland;51.798;5.731
6606;Niftrik;Gelderland;51.797;5.677
6610;Overasselt;Gelderland;51.765;5.778
6611;Overasselt;Gelderland;51.765;5.778
6612;Nederasselt;Gelderland;51.773;5.746
6613;Balgoij;Gelderland;51.786;5.719
6615;Leur;Gelderland;51.826;5.699
6616;Hernen;Gelderland;51.839;5.672
6617;Bergharen;Gelderland;51.847;5.665
6620;Dreumel;Gelderland;51.84;5.421
6621;Dreumel;Gelderland;51.84;5.421
6624;Heerewaarden;Gelderland;51.815;5.388
6626;Alphen;Gelderland;51.82;5.474
6627;Maasbommel;Gelderland;51.822;5.54
6628;Altforst;Gelderland;51.846;5.563
6629;Appeltern;Gelderland;51.832;5.595
6631;Horssen;Gelderland;51.858;5.608
6634;Batenburg;Gelderland;51.821;5.629
6641;Beuningen Gld;Gelderland;51.861;5.79
6642;Beuningen Gld;Gelderland;51.854;5.761
6644;Ewijk;Gelderland;51.877;5.732
6645;Winssen;Gelderland;51.877;5.72
6650;Druten;Gelderland;51.892;5.613
6651;Afferden;Gelderland;51.892;5.613
6652;Druten;Gelderland;51.881;5.603
6653;Deest;Gelderland;51.891;5.676
6654;Afferden;Gelderland;51.881;5.64
6655;Druten;Gelderland;51.877;5.592
6657;Boven-Leeuwen;Gelderland;51.885;5.563
6658;Beneden-Leeuwen;Gelderland;51.883;5.532
6659;Wamel;Gelderland;51.881;5.476
6660;Elst;Gelderland;51.916;5.853
6661;Elst;Gelderland;51.927;5.844
6662;Elst;Gelderland;51.92;5.853
6663;Lent;Gelderland;51.868;5.854
6665;Driel;Gelderland;51.964;5.824
6666;Driel;Gelderland;51.96;5.764
6668;Randwijk;Gelderland;51.954;5.715
6669;Dodewaard;Gelderland;51.909;5.659
6670;Zetten;Gelderland;51.93;5.715
6671;Zetten;Gelderland;51.93;5.715
6672;Hemmen;Gelderland;51.935;5.702
6673;Andelst;Gelderland;51.903;5.732
6674;Herveld;Gelderland;51.898;5.759
6675;Valburg;Gelderland;51.911;5.795
6676;Homoet;Gelderland;51.931;5.793
6677;Slijk-Ewijk;Gelderland;51.889;5.755
6678;Oosterhout;Gelderland;51.884;5.833
6680;Bemmel;Gelderland;51.892;5.899
6681;Bemmel;Gelderland;51.892;5.899
6684;Ressen;Gelderland;51.891;5.874
6685;Haalderen;Gelderland;51.897;5.919
6686;Doornenburg;Gelderland;51.887;5.984
6687;Angeren;Gelderland;51.916;5.955
6690;Gendt;Gelderland;51.878;5.976
6691;Gendt;Gelderland;51.878;5.976
6700;Wageningen;Gelderland;51.968;5.667
6701;Wageningen;Gelderland;51.968;5.667
6702;Wageningen;Gelderland;51.965;5.658
6703;Wageningen;Gelderland;51.968;5.668
6704;Wageningen;Gelderland;51.981;5.681
6705;Wageningen;Gelderland;51.984;5.69
6706;Wageningen;Gelderland;51.97;5.669
6707;Wageningen;Gelderland;51.969;5.667
6708;Wageningen;Gelderland;51.969;5.656
6709;Wageningen;Gelderland;51.959;5.639
6710;Ede;Gelderland;52.043;5.67
6711;Ede;Gelderland;52.043;5.67
6712;Ede;Gelderland;52.045;5.668
6713;Ede;Gelderland;52.045;5.669
6714;Ede;Gelderland;52.041;5.654
6715;Ede;Gelderland;52.043;5.636
6716;Ede;Gelderland;52.034;5.63
6717;Ede;Gelderland;52.028;5.664
6718;Ede;Gelderland;52.049;5.681
6720;Bennekom;Gelderland;52.003;5.687
6721;Bennekom;Gelderland;52.003;5.687
6730;Otterlo;Gelderland;52.087;4.656
6731;Otterlo;Gelderland;52.106;5.768
6732;Harskamp;Gelderland;52.127;5.755
6733;Wekerom;Gelderland;52.105;5.706
6740;Lunteren;Gelderland;52.081;5.624
6741;Lunteren;Gelderland;52.081;5.624
6744;Lunteren;Gelderland;52.063;5.58
6745;Ede;Gelderland;52.047;5.574
6800;Arnhem;Gelderland;51.984;5.907
6801;Arnhem;Gelderland;51.984;5.907
6802;Arnhem;Gelderland;51.984;5.907
6803;Arnhem;Gelderland;51.984;5.907
6811;Arnhem;Gelderland;51.984;5.907
6812;Arnhem;Gelderland;51.983;5.883
6813;Arnhem;Gelderland;51.989;5.879
6814;Arnhem;Gelderland;51.985;5.908
6815;Arnhem;Gelderland;52;5.917
6816;Arnhem;Gelderland;52.004;5.88
6817;Arnhem;Gelderland;51.983;5.906
6821;Arnhem;Gelderland;51.985;5.911
6822;Arnhem;Gelderland;51.986;5.915
6823;Arnhem;Gelderland;51.995;5.931
6824;Arnhem;Gelderland;51.984;5.926
6825;Arnhem;Gelderland;51.988;5.954
6826;Arnhem;Gelderland;51.983;5.933
6827;Arnhem;Gelderland;51.973;5.917
6828;Arnhem;Gelderland;51.985;5.911
6831;Arnhem;Gelderland;51.957;5.889
6832;Arnhem;Gelderland;51.967;5.907
6833;Arnhem;Gelderland;51.97;5.909
6834;Arnhem;Gelderland;51.96;5.926
6835;Arnhem;Gelderland;51.957;5.902
6836;Arnhem;Gelderland;51.948;5.899
6841;Arnhem;Gelderland;51.97;5.906
6842;Arnhem;Gelderland;51.963;5.884
6843;Arnhem;Gelderland;51.963;5.864
6844;Arnhem;Gelderland;51.943;5.859
6845;Arnhem;Gelderland;51.941;5.871
6846;Arnhem;Gelderland;51.969;5.846
6850;Huissen;Gelderland;51.939;5.941
6851;Huissen;Gelderland;51.939;5.941
6852;Huissen;Gelderland;51.939;5.929
6860;Oosterbeek;Gelderland;51.992;5.807
6861;Oosterbeek;Gelderland;51.992;5.807
6862;Oosterbeek;Gelderland;51.985;5.857
6865;Doorwerth;Gelderland;51.975;5.796
6866;Heelsum;Gelderland;51.98;5.749
6869;Heveadorp;Gelderland;51.974;5.814
6870;Renkum;Gelderland;51.972;5.733
6871;Renkum;Gelderland;51.972;5.733
6874;Wolfheze;Gelderland;51.999;5.798
6877;Deelen;Gelderland;52.097;5.938
6880;Velp;Gelderland;52;5.985
6881;Velp;Gelderland;52;5.985
6882;Velp;Gelderland;51.993;5.961
6883;Velp;Gelderland;51.992;5.979
6891;Rozendaal;Gelderland;52.001;5.961
6900;Zevenaar;Gelderland;51.925;6.075
6901;Zevenaar;Gelderland;51.925;6.075
6902;Zevenaar;Gelderland;51.934;6.086
6903;Zevenaar;Gelderland;51.939;6.08
6904;Zevenaar;Gelderland;51.928;6.066
6905;Zevenaar;Gelderland;51.922;6.063
6909;Zevenaar;Gelderland;51.909;6.108
6911;Pannerden;Gelderland;51.891;6.035
6913;Aerdt;Gelderland;51.887;6.09
6914;Herwen;Gelderland;51.874;6.107
6915;Lobith;Gelderland;51.859;6.117
6916;Tolkamer;Gelderland;51.853;6.105
6917;Spijk;Gelderland;51.852;6.113
6920;Duiven;Gelderland;51.955;6.005
6921;Duiven;Gelderland;51.955;6.005
6922;Duiven;Gelderland;51.938;6.019
6923;Groessen;Gelderland;51.931;6.029
6924;Loo Gld;Gelderland;51.937;6.003
6930;Westervoort;Gelderland;51.971;5.978
6931;Westervoort;Gelderland;51.971;5.978
6932;Westervoort;Gelderland;51.952;5.973
6940;Didam;Gelderland;51.939;6.125
6941;Didam;Gelderland;51.939;6.125
6942;Didam;Gelderland;51.94;6.129
6950;Dieren;Gelderland;52.045;6.103
6951;Dieren;Gelderland;52.045;6.103
6952;Dieren;Gelderland;52.043;6.099
6953;Dieren;Gelderland;52.044;6.103
6955;Ellecom;Gelderland;52.033;6.089
6956;Spankeren;Gelderland;52.052;6.115
6957;Laag-Soeren;Gelderland;52.07;6.087
6960;Eerbeek;Gelderland;52.107;6.051
6961;Eerbeek;Gelderland;52.107;6.051
6964;Hall;Gelderland;52.112;6.103
6969;Margraten;Limburg;50.825;5.818
6970;Brummen;Gelderland;52.087;6.157
6971;Brummen;Gelderland;52.087;6.157
6974;Leuvenheim;Gelderland;52.071;6.133
6975;Tonden;Gelderland;52.135;6.157
6980;Doesburg;Gelderland;52.019;6.132
6981;Doesburg;Gelderland;52.019;6.132
6982;Doesburg;Gelderland;52.007;6.139
6983;Doesburg;Gelderland;52.004;6.126
6984;Doesburg;Gelderland;52.021;6.14
6986;Angerlo;Gelderland;51.993;6.131
6987;Giesbeek;Gelderland;51.996;6.073
6988;Lathum;Gelderland;51.984;6.025
6990;Rheden;Gelderland;52.008;6.024
6991;Rheden;Gelderland;52.008;6.024
6994;De Steeg;Gelderland;52.015;6.049
6996;Drempt;Gelderland;52.006;6.172
6997;Hoog-Keppel;Gelderland;52.005;6.198
6998;Laag-Keppel;Gelderland;51.994;6.225
6999;Hummelo;Gelderland;52.005;6.235
7000;Doetinchem;Gelderland;51.966;6.291
7001;Doetinchem;Gelderland;51.966;6.291
7002;Doetinchem;Gelderland;51.972;6.301
7003;Doetinchem;Gelderland;51.966;6.304
7004;Doetinchem;Gelderland;51.957;6.302
7005;Terborg;Gelderland;51.961;6.29
7006;Doetinchem;Gelderland;51.963;6.285
7007;Doetinchem;Gelderland;51.956;6.286
7008;Doetinchem;Gelderland;51.968;6.28
7009;Doetinchem;Gelderland;51.97;6.28
7011;Gaanderen;Gelderland;51.929;6.346
7020;Zelhem;Gelderland;52.006;6.35
7021;Zelhem;Gelderland;52.006;6.35
7025;Halle;Gelderland;51.991;6.427
7030;Wehl;Gelderland;51.96;6.21
7031;Doetinchem;Gelderland;51.96;6.21
7035;Kilder;Gelderland;51.939;6.232
7036;Loerbeek;Gelderland;51.92;6.2
7037;Beek;Gelderland;51.905;6.188
7038;Zeddam;Gelderland;51.898;6.26
7039;Stokkum;Gelderland;51.876;6.221
7040;'s-Heerenberg;Gelderland;51.875;6.242
7041;'s-Heerenberg;Gelderland;51.875;6.242
7044;Lengel;Gelderland;51.884;6.251
7045;Azewijn;Gelderland;51.888;6.305
7046;Vethuizen;Gelderland;51.914;6.295
7047;Braamt;Gelderland;51.922;6.264
7048;Wijnbergen;Gelderland;51.939;6.297
7050;Varsseveld;Gelderland;51.943;6.458
7051;Varsseveld;Gelderland;51.943;6.458
7054;Westendorp;Gelderland;51.935;6.435
7055;Heelweg;Gelderland;51.962;6.451
7060;Terborg;Gelderland;51.926;6.336
7061;Terborg;Gelderland;51.917;6.351
7064;Silvolde;Gelderland;51.912;6.38
7065;Sinderen;Gelderland;51.933;6.432
7070;Ulft;Gelderland;51.904;6.366
7071;Ulft;Gelderland;51.904;6.366
7075;Etten;Gelderland;51.916;6.34
7076;Varsselder;Gelderland;51.88;6.367
7077;Netterden;Gelderland;51.863;6.317
7078;Megchelen;Gelderland;51.859;6.387
7080;Gendringen;Gelderland;51.876;6.383
7081;Gendringen;Gelderland;51.873;6.384
7083;Voorst;Gelderland;51.876;6.393
7084;Breedenbroek;Gelderland;51.868;6.47
7090;Dinxperlo;Gelderland;51.863;6.489
7091;Dinxperlo;Gelderland;51.863;6.489
7095;De Heurne;Gelderland;51.874;6.483
7100;Winterswijk;Gelderland;51.975;6.718
7101;Winterswijk;Gelderland;51.975;6.718
7102;Winterswijk;Gelderland;51.969;6.709
7103;Winterswijk;Gelderland;51.976;6.718
7104;Winterswijk Meddo;Gelderland;52.005;6.714
7105;Winterswijk Huppel;Gelderland;51.989;6.777
7106;Winterswijk Ratum;Gelderland;51.97;6.791
7107;Winterswijk Kotten;Gelderland;51.944;6.776
7108;Winterswijk Woold;Gelderland;51.938;6.705
7109;Winterswijk Miste;Gelderland;51.947;6.642
7113;Winterswijk Henxel;Gelderland;51.984;6.741
7115;Winterswijk Brinkheurne;Gelderland;51.961;6.764
7119;Winterswijk Miste;Gelderland;51.968;6.66
7120;Aalten;Gelderland;51.929;6.581
7121;Aalten;Gelderland;51.929;6.581
7122;Aalten;Gelderland;51.918;6.577
7123;Aalten;Gelderland;51.914;6.587
7126;Bredevoort;Gelderland;51.94;6.63
7130;Lichtenvoorde;Gelderland;51.986;6.553
7131;Lichtenvoorde;Gelderland;51.986;6.553
7132;Lichtenvoorde;Gelderland;51.983;6.551
7134;Vragender;Gelderland;51.988;6.593
7135;Harreveld;Gelderland;51.978;6.534
7136;Zieuwent;Gelderland;52.041;6.518
7137;Lievelde;Gelderland;52.018;6.58
7140;Groenlo;Gelderland;52.042;6.617
7141;Groenlo;Gelderland;52.042;6.617
7142;Groenlo;Gelderland;52.028;6.656
7150;Eibergen;Gelderland;52.1;6.654
7151;Eibergen;Gelderland;52.1;6.654
7152;Eibergen;Gelderland;52.095;6.67
7156;Beltrum;Gelderland;52.065;6.565
7157;Rekken;Gelderland;52.089;6.704
7160;Neede;Gelderland;52.129;6.632
7161;Neede;Gelderland;52.129;6.632
7165;Rietmolen;Gelderland;52.133;6.643
7200;Zutphen;Gelderland;52.145;6.205
7201;Zutphen;Gelderland;52.145;6.205
7202;Zutphen;Gelderland;52.145;6.193
7203;Zutphen;Gelderland;52.149;6.204
7204;Zutphen;Gelderland;52.145;6.212
7205;Zutphen;Gelderland;52.138;6.185
7206;Zutphen;Gelderland;52.126;6.21
7207;Zutphen;Gelderland;52.116;6.203
7211;Eefde;Gelderland;52.159;6.221
7213;Gorssel;Gelderland;52.201;6.203
7214;Epse;Gelderland;52.221;6.202
7215;Joppe;Gelderland;52.205;6.228
7216;Kring van Dorth;Gelderland;52.216;6.267
7217;Harfsen;Gelderland;52.186;6.267
7218;Almen;Gelderland;52.163;6.296
7220;Steenderen;Gelderland;52.064;6.187
7221;Steenderen;Gelderland;52.064;6.187
7223;Baak;Gelderland;52.063;6.223
7224;Rha;Gelderland;52.053;6.148
7225;Olburgen;Gelderland;52.047;6.125
7226;Bronkhorst;Gelderland;52.072;6.18
7227;Toldijk;Gelderland;52.054;6.218
7230;Warnsveld;Gelderland;52.142;6.221
7231;Warnsveld;Gelderland;52.142;6.221
7232;Warnsveld;Gelderland;52.133;6.23
7233;Vierakker;Gelderland;52.11;6.263
7234;Wichmond;Gelderland;52.09;6.26
7240;Lochem;Gelderland;52.161;6.415
7241;Lochem;Gelderland;52.161;6.415
7242;Lochem;Gelderland;52.159;6.413
7244;Barchem;Gelderland;52.126;6.442
7245;Laren;Gelderland;52.189;6.37
7250;Vorden;Gelderland;52.103;6.312
7251;Vorden;Gelderland;52.103;6.312
7255;Hengelo (Gld);Gelderland;52.05;6.311
7256;Keijenborg;Gelderland;52.027;6.297
7260;Ruurlo;Gelderland;52.085;6.446
7261;Ruurlo;Gelderland;52.085;6.446
7263;Marinvelde;Gelderland;52.021;6.489
7270;Borculo;Gelderland;52.117;6.531
7271;Borculo;Gelderland;52.117;6.531
7273;Haarlo;Gelderland;52.107;6.544
7274;Geesteren;Gelderland;52.137;6.521
7275;Gelselaar;Gelderland;52.166;6.525
7283;Emmen;Drenthe;52.792;6.945
7300;Apeldoorn;Gelderland;52.217;5.96
7301;Apeldoorn;Gelderland;52.217;5.96
7302;Apeldoorn;Gelderland;52.217;5.96
7303;Apeldoorn;Gelderland;52.217;5.96
7311;Apeldoorn;Gelderland;52.217;5.96
7312;Apeldoorn;Gelderland;52.21;5.949
7313;Apeldoorn;Gelderland;52.226;5.938
7314;Apeldoorn;Gelderland;52.218;5.955
7315;Apeldoorn;Gelderland;52.237;5.949
7316;Apeldoorn;Gelderland;52.217;5.964
7317;Apeldoorn;Gelderland;52.219;5.971
7320;Apeldoorn;Gelderland;52.221;5.95
7321;Apeldoorn;Gelderland;52.214;5.989
7322;Apeldoorn;Gelderland;52.217;5.971
7323;Apeldoorn;Gelderland;52.234;5.981
7324;Apeldoorn;Gelderland;52.237;5.984
7325;Klarenbeek;Gelderland;52.206;6.012
7326;Apeldoorn;Gelderland;52.202;5.999
7327;Apeldoorn;Gelderland;52.19;5.986
7328;Apeldoorn;Gelderland;52.195;5.987
7329;Apeldoorn;Gelderland;52.202;5.995
7331;Apeldoorn;Gelderland;52.204;5.959
7332;Apeldoorn;Gelderland;52.204;5.977
7333;Apeldoorn;Gelderland;52.194;5.964
7334;Apeldoorn;Gelderland;52.193;5.962
7335;Apeldoorn;Gelderland;52.204;5.958
7336;Ugchelen;Gelderland;52.201;5.947
7339;Ugchelen;Gelderland;52.183;5.943
7341;Beemte Broekland;Gelderland;52.249;5.982
7342;Apeldoorn;Gelderland;52.244;5.997
7345;Wenum Wiesel;Gelderland;52.243;5.955
7346;Hoog Soeren;Gelderland;52.23;5.846
7348;Radio Kootwijk;Gelderland;52.167;5.843
7350;Hoenderloo;Gelderland;52.117;5.874
7351;Hoenderloo;Gelderland;52.117;5.874
7352;Hoenderloo;Gelderland;52.111;5.877
7360;Beekbergen;Gelderland;52.156;5.961
7361;Beekbergen;Gelderland;52.156;5.961
7364;Lieren;Gelderland;52.173;5.988
7370;Loenen;Gelderland;52.124;6.023
7371;Loenen;Gelderland;52.124;6.023
7380;Klarenbeek;Gelderland;52.17;6.037
7381;Klarenbeek;Gelderland;52.145;6.043
7382;Klarenbeek;Gelderland;52.171;6.066
7383;Voorst;Gelderland;52.187;6.133
7384;Wilp;Gelderland;52.225;6.145
7390;Twello;Gelderland;52.235;6.092
7391;Twello;Gelderland;52.235;6.092
7392;Twello;Gelderland;52.24;6.122
7395;Teuge;Gelderland;52.235;6.054
7396;Terwolde;Gelderland;52.284;6.098
7397;Nijbroek;Gelderland;52.272;6.07
7399;Empe;Gelderland;52.156;6.143
7400;Deventer;Overijssel;52.25;6.161
7401;Deventer;Overijssel;52.25;6.161
7411;Deventer;Overijssel;52.247;6.166
7412;Deventer;Overijssel;52.258;6.149
7413;Deventer;Overijssel;52.257;6.166
7414;Deventer;Overijssel;52.27;6.145
7415;Deventer;Overijssel;52.262;6.165
7416;Deventer;Overijssel;52.258;6.168
7417;Deventer;Overijssel;52.254;6.173
7418;Deventer;Overijssel;52.238;6.179
7419;Deventer;Overijssel;52.247;6.154
7420;Deventer;Overijssel;52.247;6.194
7421;Deventer;Overijssel;52.245;6.219
7422;Deventer;Overijssel;52.248;6.214
7423;Deventer;Overijssel;52.251;6.208
7424;Deventer;Overijssel;52.263;6.221
7425;Deventer;Overijssel;52.255;6.222
7426;Deventer;Overijssel;52.254;6.254
7427;Deventer;Overijssel;52.247;6.232
7428;Deventer;Overijssel;52.23;6.224
7429;Colmschate;Overijssel;52.251;6.217
7430;Diepenveen;Overijssel;52.28;6.159
7431;Diepenveen;Overijssel;52.282;6.15
7433;Schalkhaar;Overijssel;52.266;6.187
7434;Lettele;Overijssel;52.261;6.289
7435;Okkenbroek;Overijssel;52.278;6.327
7437;Bathmen;Overijssel;52.248;6.285
7439;Steenenkamer;Gelderland;52.247;6.148
7440;Nijverdal;Overijssel;52.36;6.462
7441;Nijverdal;Overijssel;52.36;6.462
7442;Nijverdal;Overijssel;52.363;6.466
7443;Nijverdal;Overijssel;52.364;6.481
7447;Hellendoorn;Overijssel;52.379;6.452
7448;Haarle;Overijssel;52.359;6.381
7450;Holten;Overijssel;52.281;6.425
7451;Holten;Overijssel;52.281;6.425
7460;Rijssen;Overijssel;52.312;6.513
7461;Rijssen;Overijssel;52.312;6.513
7462;Rijssen;Overijssel;52.308;6.519
7463;Rijssen;Overijssel;52.308;6.496
7466;Zuna;Overijssel;52.326;6.477
7467;Notter;Overijssel;52.319;6.533
7468;Wierden;Overijssel;52.294;6.574
7470;Goor;Overijssel;52.234;6.594
7471;Goor;Overijssel;52.234;6.594
7472;Goor;Overijssel;52.245;6.584
7475;Markelo;Overijssel;52.235;6.49
7478;Diepenheim;Overijssel;52.2;6.549
7480;Haaksbergen;Overijssel;52.167;6.755
7481;Haaksbergen;Overijssel;52.167;6.755
7482;Haaksbergen;Overijssel;52.166;6.738
7483;Haaksbergen;Overijssel;52.164;6.736
7490;Delden;Overijssel;52.262;6.713
7491;Delden;Overijssel;52.262;6.713
7495;Ambt Delden;Overijssel;52.242;6.641
7496;Hengevelde;Overijssel;52.199;6.641
7497;Bentelo;Overijssel;52.224;6.682
7500;Enschede;Overijssel;52.218;6.893
7503;Enschede;Overijssel;52.218;6.893
7504;Enschede;Overijssel;52.218;6.893
7511;Enschede;Overijssel;52.218;6.893
7512;Enschede;Overijssel;52.216;6.894
7513;Enschede;Overijssel;52.22;6.882
7514;Enschede;Overijssel;52.223;6.878
7521;Enschede;Overijssel;52.226;6.879
7522;Enschede;Overijssel;52.27;6.85
7523;Enschede;Overijssel;52.228;6.9
7524;Enschede;Overijssel;52.242;6.915
7525;Enschede;Overijssel;52.278;6.901
7531;Enschede;Overijssel;52.229;6.902
7532;Enschede;Overijssel;52.216;6.978
7533;Enschede;Overijssel;52.222;6.913
7534;Enschede;Overijssel;52.217;6.942
7535;Enschede;Overijssel;52.213;6.91
7536;Enschede;Overijssel;52.189;6.93
7541;Enschede;Overijssel;52.211;6.905
7542;Enschede;Overijssel;52.189;6.894
7543;Enschede;Overijssel;52.208;6.88
7544;Enschede;Overijssel;52.199;6.88
7545;Enschede;Overijssel;52.217;6.857
7546;Enschede;Overijssel;52.193;6.858
7547;Enschede;Overijssel;52.22;6.863
7548;Enschede;Overijssel;52.201;6.802
7550;Hengelo;Overijssel;52.266;6.79
7551;Hengelo;Overijssel;52.266;6.79
7552;Hengelo;Overijssel;52.251;6.802
7553;Hengelo;Overijssel;52.257;6.783
7554;Hengelo;Overijssel;52.212;6.745
7555;Hengelo;Overijssel;52.265;6.78
7556;Hengelo;Overijssel;52.272;6.783
7557;Hengelo;Overijssel;52.264;6.802
7558;Hengelo;Overijssel;52.285;6.824
7559;Hengelo;Overijssel;52.287;6.819
7561;Tubbergen;Overijssel;52.3;6.832
7562;Oldenzaal;Overijssel;52.31;6.876
7570;Oldenzaal;Overijssel;52.299;6.928
7571;Oldenzaal;Overijssel;52.315;6.928
7572;Oldenzaal;Overijssel;52.316;6.93
7573;Oldenzaal;Overijssel;52.308;6.928
7574;Oldenzaal;Overijssel;52.301;6.931
7575;Oldenzaal;Overijssel;52.303;6.931
7576;Oldenzaal;Overijssel;52.309;6.908
7577;Oldenzaal;Overijssel;52.323;6.929
7580;Losser;Overijssel;52.263;7.007
7581;Losser;Overijssel;52.263;7.007
7582;Losser;Overijssel;52.262;7.002
7585;Glane;Overijssel;52.232;7.005
7586;Overdinkel;Overijssel;52.241;7.034
7587;de Lutte;Overijssel;52.314;6.989
7588;Beuningen;Overijssel;52.341;7.018
7590;Denekamp;Overijssel;52.373;7.011
7591;Denekamp;Overijssel;52.373;7.011
7595;Weerselo;Overijssel;52.352;6.854
7596;Rossum;Overijssel;52.356;6.925
7597;Saasveld;Overijssel;52.327;6.839
7600;Almelo;Overijssel;52.35;6.666
7601;Almelo;Overijssel;52.35;6.666
7602;Almelo;Overijssel;52.374;6.615
7603;Almelo;Overijssel;52.365;6.673
7604;Almelo;Overijssel;52.354;6.657
7605;Almelo;Overijssel;52.35;6.659
7606;Almelo;Overijssel;52.341;6.653
7607;Almelo;Overijssel;52.357;6.662
7608;Almelo;Overijssel;52.378;6.687
7609;Almelo;Overijssel;52.338;6.636
7610;Almelo;Overijssel;52.375;6.638
7611;Aadorp;Overijssel;52.377;6.633
7614;Mariaparochie;Overijssel;52.379;6.707
7615;Harbrinkhoek;Overijssel;52.384;6.723
7620;Borne;Overijssel;52.304;6.726
7621;Borne;Overijssel;52.304;6.726
7622;Borne;Overijssel;52.303;6.744
7623;Borne;Overijssel;52.292;6.772
7625;Zenderen;Overijssel;52.325;6.722
7626;Hertme;Overijssel;52.327;6.763
7627;Bornerbroek;Overijssel;52.325;6.624
7630;Ootmarsum;Overijssel;52.41;6.9
7631;Ootmarsum;Overijssel;52.41;6.9
7634;Tilligte;Overijssel;52.402;6.938
7635;Lattrop-Breklenkamp;Overijssel;52.465;6.986
7636;Agelo;Overijssel;52.405;6.924
7637;Oud Ootmarsum;Overijssel;52.418;6.907
7638;Nutter;Overijssel;52.417;6.877
7640;Wierden;Overijssel;52.344;6.591
7641;Wierden;Overijssel;52.365;6.591
7642;Wierden;Overijssel;52.358;6.59
7645;Wierden;Overijssel;52.384;6.578
7650;Tubbergen;Overijssel;52.402;6.787
7651;Tubbergen;Overijssel;52.402;6.787
7661;Vasse;Overijssel;52.435;6.828
7662;Hezingen;Overijssel;52.436;6.927
7663;Mander;Overijssel;52.444;6.845
7664;Manderveen;Overijssel;52.452;6.819
7665;Albergen;Overijssel;52.373;6.764
7666;Fleringen;Overijssel;52.382;6.804
7667;Reutum;Overijssel;52.388;6.846
7668;Haarle;Overijssel;52.409;6.852
7670;Vriezenveen;Overijssel;52.413;6.63
7671;Vriezenveen;Overijssel;52.413;6.63
7672;Vriezenveen;Overijssel;52.412;6.604
7675;Bruinehaar;Overijssel;52.477;6.697
7676;Vriezenveen;Overijssel;52.441;6.622
7678;Geesteren;Overijssel;52.419;6.739
7679;Langeveen;Overijssel;52.461;6.702
7680;Vroomshoop;Overijssel;52.459;6.572
7681;Vroomshoop;Overijssel;52.459;6.572
7683;Den Ham;Overijssel;52.466;6.489
7685;Beerzerveld;Overijssel;52.493;6.575
7686;Geerdijk;Overijssel;52.476;6.563
7687;Daarlerveen;Overijssel;52.443;6.577
7688;Daarle;Overijssel;52.419;6.513
7691;Bergentheim;Overijssel;52.526;6.61
7692;Marinberg;Overijssel;52.509;6.574
7693;Sibculo;Overijssel;52.482;6.639
7694;Kloosterhaar;Overijssel;52.495;6.67
7695;Bruchterveld;Overijssel;52.531;6.642
7696;Brucht;Overijssel;52.55;6.628
7700;Dedemsvaart;Overijssel;52.604;6.452
7701;Dedemsvaart;Overijssel;52.604;6.452
7702;Dedemsvaart;Overijssel;52.591;6.453
7705;Drogteropslagen;Drenthe;52.623;6.482
7707;Balkbrug;Overijssel;52.6;6.389
7710;Nieuwleusen;Overijssel;52.574;6.291
7711;Dalfsen;Overijssel;52.574;6.291
7715;Punthorst;Overijssel;52.618;6.268
7720;Dalfsen;Overijssel;52.536;6.278
7721;Dalfsen;Overijssel;52.507;6.263
7722;Dalfsen;Overijssel;52.519;6.252
7730;Ommen;Overijssel;52.508;6.423
7731;Ommen;Overijssel;52.508;6.423
7734;Vilsteren;Overijssel;52.484;6.356
7735;Arrin;Overijssel;52.529;6.441
7736;Beerze;Overijssel;52.51;6.554
7737;Stegeren;Overijssel;52.557;6.479
7738;Witharen;Overijssel;52.564;6.396
7739;Vinkenbuurt;Overijssel;52.578;6.358
7740;Coevorden;Drenthe;52.668;6.752
7741;Coevorden;Drenthe;52.668;6.752
7742;Coevorden;Drenthe;52.662;6.753
7751;Dalen;Drenthe;52.696;6.758
7753;Dalerpeel;Drenthe;52.682;6.689
7754;Wachtum;Drenthe;52.724;6.75
7755;Dalerveen;Drenthe;52.45;6.624
7756;Dalen;Drenthe;52.671;6.788
7760;Schoonebeek;Drenthe;52.658;6.896
7761;Schoonebeek;Drenthe;52.658;6.896
7764;Zandpol;Drenthe;52.694;6.858
7765;Weiteveen;Drenthe;52.67;6.972
7766;Emmen;Drenthe;52.649;6.945
7770;Hardenberg;Overijssel;52.576;6.613
7771;Hardenberg;Overijssel;52.576;6.613
7772;Hardenberg;Overijssel;52.575;6.618
7773;Hardenberg;Overijssel;52.576;6.603
7775;Lutten;Overijssel;52.608;6.554
7776;Slagharen;Overijssel;52.621;6.553
7777;Schuinesloot;Overijssel;52.635;6.545
7778;Loozen;Overijssel;52.59;6.686
7779;Holthone;Overijssel;52.636;6.683
7780;De Krim;Overijssel;52.65;6.617
7781;De Krim;Overijssel;52.637;6.583
7782;De Krim;Overijssel;52.65;6.617
7783;Gramsbergen;Overijssel;52.612;6.674
7784;Ane;Overijssel;52.609;6.653
7785;Anevelde;Overijssel;52.599;6.649
7786;Den Velde;Overijssel;52.601;6.693
7787;Holtheme;Overijssel;52.625;6.701
7788;Anerveen;Overijssel;52.625;6.64
7791;Radewijk;Overijssel;52.553;6.712
7792;Hoogenweg;Overijssel;52.551;6.656
7793;Hoogenweg;Overijssel;52.568;6.647
7794;Rheeze;Overijssel;52.551;6.577
7795;Diffelen;Overijssel;52.528;6.563
7796;Heemserveen;Overijssel;52.571;6.591
7797;Rheezerveen;Overijssel;52.581;6.555
7798;Collendoorn;Overijssel;52.588;6.617
7800;Emmen;Drenthe;52.784;6.92
7801;Emmen;Drenthe;52.784;6.92
7811;Emmen;Drenthe;52.781;6.891
7812;Emmen;Drenthe;52.774;6.887
7813;Emmen;Drenthe;52.757;6.87
7814;Emmen;Drenthe;52.815;6.908
7815;Emmen;Drenthe;52.803;6.888
7821;Emmen;Drenthe;52.774;6.921
7822;Emmen;Drenthe;52.795;6.903
7823;Emmen;Drenthe;52.788;6.927
7824;Emmen;Drenthe;52.784;6.913
7825;Emmen;Drenthe;52.748;6.949
7826;Emmen;Drenthe;52.769;6.958
7827;Emmen;Drenthe;52.745;6.905
7828;Emmen;Drenthe;52.732;6.9
7831;Nieuw-Weerdinge;Drenthe;52.845;6.956
7833;Nieuw-Amsterdam;Drenthe;52.715;6.853
7841;Sleen;Drenthe;52.772;6.803
7842;Diphoorn;Drenthe;52.77;6.818
7843;Erm;Drenthe;52.753;6.819
7844;Veenoord;Drenthe;52.714;6.851
7845;Holsloot;Drenthe;52.731;6.799
7846;Noord-Sleen;Drenthe;52.788;6.805
7847;'t Haantje;Drenthe;52.814;6.83
7848;Schoonoord;Drenthe;52.847;6.759
7849;De Kiel;Drenthe;52.861;6.746
7851;Zweeloo;Drenthe;52.794;6.727
7852;Wezup;Drenthe;52.81;6.721
7853;Wezuperbrug;Drenthe;52.841;6.73
7854;Aalden;Drenthe;52.79;6.724
7855;Meppen;Drenthe;52.782;6.699
7856;Aalden;Drenthe;52.772;6.75
7858;Eeserveen;Drenthe;52.883;6.742
7859;Eeserveen;Drenthe;52.869;6.775
7861;Oosterhesselen;Drenthe;52.759;6.715
7863;Gees;Drenthe;52.749;6.692
7864;Zwinderen;Drenthe;52.704;6.677
7871;Klijndijk;Drenthe;52.833;6.859
7872;Valthe;Drenthe;52.843;6.875
7873;Odoorn;Drenthe;52.85;6.85
7874;Odoornerveen;Drenthe;52.855;6.762
7875;Exloo;Drenthe;52.883;6.87
7876;Valthermond;Drenthe;52.857;6.916
7877;2e Valthermond;Drenthe;52.908;7.02
7881;Emmer-Compascuum;Drenthe;52.812;7.048
7884;Barger-Compascuum;Drenthe;52.756;7.044
7885;Nieuw-Dordrecht;Drenthe;52.747;6.966
7887;Emmer-Compascuum;Drenthe;52.711;6.924
7889;Klazienaveen-Noord;Drenthe;52.757;7.004
7890;Klazienaveen;Drenthe;52.726;6.97
7891;Klazienaveen;Drenthe;52.726;6.97
7892;Klazienaveen;Drenthe;52.732;6.972
7894;Zwartemeer;Drenthe;52.722;7.03
7895;Roswinkel;Drenthe;52.838;7.042
7900;Hoogeveen;Drenthe;52.733;6.474
7901;Hoogeveen;Drenthe;52.733;6.474
7902;Hoogeveen;Drenthe;52.731;6.478
7903;Hoogeveen;Drenthe;52.735;6.487
7904;Hoogeveen;Drenthe;52.726;6.514
7905;Hoogeveen;Drenthe;52.719;6.495
7906;Hoogeveen;Drenthe;52.72;6.479
7907;Alteveer gem Hoogeveen;Drenthe;52.719;6.477
7908;Hoogeveen;Drenthe;52.719;6.455
7909;Hoogeveen;Drenthe;52.727;6.46
7910;Nieuweroord;Drenthe;52.738;6.588
7911;Nieuweroord;Drenthe;52.717;6.562
7912;Nieuweroord;Drenthe;52.725;6.553
7913;Hollandscheveld;Drenthe;52.716;6.538
7914;Hollandscheveld;Drenthe;52.723;6.532
7915;Alteveer gem Hoogeveen;Drenthe;52.685;6.496
7916;Elim;Drenthe;52.68;6.581
7917;Geesbrug;Drenthe;52.727;6.634
7918;Nieuwlande;Drenthe;52.703;6.611
7920;Zuidwolde;Drenthe;53.263;6.597
7921;Zuidwolde;Drenthe;52.679;6.43
7924;de Wijk;Drenthe;52.681;6.393
7925;Linde;Drenthe;52.638;6.448
7926;Hollandscheveld;Drenthe;52.668;6.504
7927;Alteveer;Drenthe;52.672;6.488
7928;Stuifzand;Drenthe;52.771;6.495
7929;Nieuwlande Coevorden;Drenthe;52.697;6.635
7931;Fluitenberg;Drenthe;52.733;6.447
7932;Echten;Drenthe;52.717;6.402
7933;Elim;Drenthe;52.772;6.451
7934;Stuifzand;Drenthe;52.741;6.481
7935;Eursinge;Drenthe;52.78;6.44
7936;Tiendeveen;Drenthe;52.745;6.545
7937;Tiendeveen;Drenthe;52.764;6.521
7938;Nieuw-Balinge;Drenthe;52.772;6.614
7940;Meppel;Drenthe;52.701;6.194
7941;Meppel;Drenthe;52.698;6.19
7942;Meppel;Drenthe;52.701;6.194
7943;Meppel;Drenthe;52.694;6.2
7944;Meppel;Drenthe;52.683;6.184
7946;Wanneperveen;Overijssel;52.704;6.124
7948;Meppel;Drenthe;52.73;6.164
7949;Rogat;Drenthe;52.689;6.265
7950;Staphorst;Overijssel;52.647;6.207
7951;Staphorst;Overijssel;52.647;6.207
7954;Staphorst;Overijssel;52.629;6.174
7955;IJhorst;Overijssel;52.664;6.285
7957;de Wijk;Drenthe;52.675;6.284
7958;Koekange;Drenthe;52.677;6.325
7961;Ruinerwold;Drenthe;52.717;6.245
7963;Ruinen;Drenthe;52.763;6.361
7964;Ansen;Drenthe;52.781;6.336
7965;Broekhuizen;Drenthe;52.698;6.265
7966;De Schiphorst;Drenthe;52.681;6.268
7970;Havelte;Drenthe;52.778;6.244
7971;Havelte;Drenthe;52.778;6.244
7973;Kallenkote;Drenthe;52.793;6.227
7974;Havelterberg;Drenthe;52.774;6.183
7975;Uffelte;Drenthe;52.787;6.277
7981;Diever;Drenthe;52.857;6.314
7983;Diever;Drenthe;52.855;6.286
7984;Dieverbrug;Drenthe;52.846;6.332
7985;Geeuwenbrug;Drenthe;52.872;6.367
7986;Wittelte;Drenthe;52.834;6.275
7990;Dwingeloo;Drenthe;52.812;6.345
7991;Dwingeloo;Drenthe;52.828;6.369
8000;Zwolle;Overijssel;52.503;6.099
8001;Zwolle;Overijssel;52.503;6.099
8003;Zwolle;Overijssel;52.503;6.099
8004;Zwolle;Overijssel;52.503;6.099
8007;Zwolle;Overijssel;52.087;4.656
8011;Zwolle;Overijssel;52.51;6.081
8012;Zwolle;Overijssel;52.503;6.099
8013;Zwolle;Overijssel;52.5;6.109
8014;Zwolle;Overijssel;52.494;6.111
8015;Zwolle;Overijssel;52.473;6.122
8016;Zwolle;Overijssel;52.485;6.103
8017;Zwolle;Overijssel;52.5;6.078
8019;Zwolle;Overijssel;52.507;6.082
8021;Zwolle;Overijssel;52.512;6.104
8022;Zwolle;Overijssel;52.516;6.107
8023;Zwolle;Overijssel;52.515;6.11
8024;Zwolle;Overijssel;52.522;6.119
8025;Zwolle;Overijssel;52.513;6.124
8026;Zwolle;Overijssel;52.493;6.148
8028;Zwolle;Overijssel;52.545;6.175
8031;Zwolle;Overijssel;52.523;6.084
8032;Zwolle;Overijssel;52.525;6.102
8033;Zwolle;Overijssel;52.531;6.11
8034;Zwolle;Overijssel;52.549;6.108
8035;Zwolle;Overijssel;52.534;6.149
8041;Zwolle;Overijssel;52.506;6.055
8042;Zwolle;Overijssel;52.522;6.057
8043;Zwolle;Overijssel;52.534;6.067
8044;Zwolle;Overijssel;52.549;6.04
8045;Zwolle;Overijssel;52.552;6.057
8050;Hattem;Gelderland;52.464;6.069
8051;Hattem;Gelderland;52.464;6.069
8052;Hattem;Gelderland;52.479;6.051
8055;Laag Zuthem;Overijssel;52.468;6.192
8060;Hasselt;Overijssel;52.595;6.092
8061;Genemuiden;Overijssel;52.595;6.092
8064;Zwartsluis;Overijssel;52.639;6.07
8066;Belt-Schutsloot;Overijssel;52.669;6.051
8070;Nunspeet;Gelderland;52.371;5.786
8071;Nunspeet;Gelderland;52.371;5.786
8072;Nunspeet;Gelderland;52.382;5.806
8075;Elspeet;Gelderland;52.293;5.787
8076;Nunspeet;Gelderland;52.342;5.789
8077;Hulshorst;Gelderland;52.368;5.725
8079;Noordeinde Gld;Gelderland;52.517;5.874
8080;Elburg;Gelderland;52.439;5.824
8081;Elburg;Gelderland;52.439;5.824
8082;Elburg;Gelderland;52.44;5.868
8084;'t Harde;Gelderland;52.408;5.881
8085;Doornspijk;Gelderland;52.422;5.825
8090;Wezep;Gelderland;52.462;5.993
8091;Oldebroek;Gelderland;52.462;5.993
8094;Mastenbroek;Gelderland;52.471;6.016
8095;'t Loo Oldebroek;Gelderland;52.446;5.942
8096;Oldebroek;Gelderland;52.443;5.897
8097;Oosterwolde Gld;Gelderland;52.451;5.876
8100;Raalte;Overijssel;52.388;6.27
8101;Raalte;Overijssel;52.388;6.27
8102;Raalte;Overijssel;52.391;6.277
8103;Raalte;Overijssel;52.39;6.289
8105;Luttenberg;Overijssel;52.405;6.368
8106;Marinheem;Overijssel;52.382;6.31
8107;Broekland;Overijssel;52.368;6.205
8111;Heeten;Overijssel;52.334;6.282
8112;Nieuw Heeten;Overijssel;52.319;6.352
8120;Olst;Overijssel;52.34;6.106
8121;Olst;Overijssel;52.34;6.106
8124;Wesepe;Overijssel;52.325;6.206
8131;Wijhe;Overijssel;52.39;6.139
8140;Heino;Overijssel;52.435;6.236
8141;Heino;Overijssel;52.435;6.236
8144;Lierderholthuis;Overijssel;52.434;6.206
8146;Dalmsholte;Overijssel;52.471;6.345
8147;Giethmen;Overijssel;52.48;6.376
8148;Lemele;Overijssel;52.454;6.414
8151;Lemelerveld;Overijssel;52.448;6.343
8152;Lemelerveld;Overijssel;52.447;6.342
8153;Lemelerveld;Overijssel;52.431;6.351
8154;Lemelerveld;Overijssel;52.433;6.31
8160;Epe;Gelderland;52.361;5.985
8161;Epe;Gelderland;52.361;5.985
8162;Epe;Gelderland;52.352;5.988
8166;Emst;Gelderland;52.325;5.979
8167;Oene;Gelderland;52.354;6.054
8170;Vaassen;Gelderland;52.29;5.97
8171;Vaassen;Gelderland;52.29;5.97
8172;Vaassen;Gelderland;52.285;5.955
8180;Heerde;Gelderland;52.389;6.043
8181;Heerde;Gelderland;52.389;6.043
8190;Wapenveld;Gelderland;52.433;6.071
8191;Wapenveld;Gelderland;52.433;6.071
8193;Vorchten;Gelderland;52.392;6.121
8194;Veessen;Gelderland;52.373;6.083
8196;Welsum;Overijssel;52.314;6.089
8198;Marle;Overijssel;52.412;6.126
8200;Lelystad;Flevoland;52.535;5.519
8202;Lelystad;Flevoland;52.535;5.519
8203;Lelystad;Flevoland;52.535;5.519
8211;Lelystad;Flevoland;52.535;5.519
8212;Lelystad;Flevoland;52.517;5.498
8218;Lelystad;Flevoland;52.457;5.418
8219;Lelystad;Flevoland;52.493;5.515
8221;Lelystad;Flevoland;52.55;5.485
8222;Lelystad;Flevoland;52.53;5.491
8223;Lelystad;Flevoland;52.519;5.484
8224;Lelystad;Flevoland;52.519;5.484
8225;Lelystad;Flevoland;52.506;5.487
8226;Lelystad;Flevoland;52.497;5.491
8231;Lelystad;Flevoland;52.521;5.465
8232;Lelystad;Flevoland;52.508;5.465
8233;Lelystad;Flevoland;52.504;5.477
8239;Lelystad;Flevoland;52.487;5.481
8241;Lelystad;Flevoland;52.528;5.45
8242;Lelystad;Flevoland;52.516;5.454
8243;Lelystad;Flevoland;52.515;5.455
8244;Lelystad;Flevoland;52.501;5.42
8245;Lelystad;Flevoland;52.488;5.437
8250;Dronten;Flevoland;52.52;5.708
8251;Dronten;Flevoland;52.52;5.708
8252;Dronten;Flevoland;52.52;5.698
8253;Dronten;Flevoland;52.577;5.766
8254;Dronten;Flevoland;52.524;5.727
8255;Swifterbant;Flevoland;52.571;5.644
8256;Biddinghuizen;Flevoland;52.451;5.692
8260;Kampen;Overijssel;52.556;5.919
8261;Kampen;Overijssel;52.556;5.919
8262;Kampen;Overijssel;52.564;5.896
8263;Kampen;Overijssel;52.566;5.899
8264;Kampen;Overijssel;52.559;5.89
8265;Kampen;Overijssel;52.549;5.911
8266;Kampen;Overijssel;52.552;5.922
8267;Kampen;Overijssel;52.561;5.92
8271;IJsselmuiden;Overijssel;52.559;5.924
8274;Wilsum;Overijssel;52.54;5.964
8275;IJsselmuiden;Overijssel;52.542;5.965
8276;Zalk;Overijssel;52.513;5.972
8277;IJsselmuiden;Overijssel;52.58;5.933
8278;Kampen;Overijssel;52.534;5.943
8280;Genemuiden;Overijssel;52.622;6.036
8281;Genemuiden;Overijssel;52.62;6.043
8291;Genemuiden;Overijssel;52.591;6.032
8293;Mastenbroek;Overijssel;52.564;5.992
8294;Mastenbroek;Overijssel;52.566;6.028
8300;Emmeloord;Flevoland;52.709;5.752
8301;Emmeloord;Flevoland;52.709;5.752
8302;Emmeloord;Flevoland;52.715;5.755
8303;Emmeloord;Flevoland;52.699;5.732
8304;Emmeloord;Flevoland;52.694;5.755
8305;Emmeloord;Flevoland;52.71;5.777
8307;Ens;Flevoland;52.639;5.823
8308;Emmeloord;Flevoland;52.642;5.722
8309;Tollebeek;Flevoland;52.676;5.678
8311;Tollebeek;Flevoland;52.722;5.645
8312;Espel;Flevoland;52.761;5.663
8313;Rutten;Flevoland;52.803;5.699
8314;Bant;Flevoland;52.766;5.751
8315;Luttelgeest;Flevoland;52.742;5.855
8316;Marknesse;Flevoland;52.706;5.864
8317;Kraggenburg;Flevoland;52.663;5.902
8319;Schokland;Flevoland;52.637;5.775
8320;Urk;Flevoland;52.664;5.609
8321;Urk;Flevoland;52.664;5.609
8322;Urk;Flevoland;52.668;5.624
8325;Vollenhove;Overijssel;52.681;5.95
8326;Sint Jansklooster;Overijssel;52.689;5.973
8330;Steenwijk;Overijssel;52.785;6.133
8331;Steenwijk;Overijssel;52.785;6.133
8332;Steenwijk;Overijssel;52.795;6.124
8333;Steenwijk;Overijssel;52.781;6.15
8334;Tuk;Overijssel;52.798;6.094
8335;Witte Paarden;Overijssel;52.81;6.076
8336;Baars;Overijssel;52.817;6.108
8337;De Pol;Overijssel;52.777;5.956
8338;Willemsoord;Overijssel;52.827;6.067
8339;Marijenkampen;Overijssel;52.813;6.055
8341;Steenwijkerwold;Overijssel;52.801;6.054
8342;Basse;Overijssel;52.809;6.036
8343;Zuidveen;Overijssel;52.763;6.107
8344;Onna;Overijssel;52.765;6.163
8345;Kallenkote;Overijssel;52.787;6.154
8346;De Bult;Overijssel;52.812;6.129
8347;Eesveen;Overijssel;52.818;6.157
8351;Wapserveen;Drenthe;52.81;6.211
8355;Giethoorn;Overijssel;52.759;6.084
8356;Blokzijl;Overijssel;52.725;5.962
8361;IJsselham;Overijssel;52.81;5.966
8362;Nederland;Overijssel;52.754;5.967
8363;Wetering;Overijssel;52.751;5.996
8371;Scheerwolde;Overijssel;52.784;6.045
8372;Baarlo;Overijssel;52.744;5.965
8373;Blankenham;Overijssel;52.789;5.874
8374;Kuinre;Overijssel;52.802;5.859
8375;Oldemarkt;Overijssel;52.818;5.977
8376;Ossenzijl;Overijssel;52.817;5.924
8377;Kalenberg;Overijssel;52.787;5.975
8378;Paasloo;Overijssel;52.799;5.986
8381;Frederiksoord;Drenthe;52.857;6.206
8382;Frederiksoord;Drenthe;52.835;6.186
8383;Nijensleek;Drenthe;52.839;6.176
8384;Frederiksoord;Drenthe;52.856;6.16
8385;Vledderveen;Drenthe;52.875;6.184
8386;Doldersum;Drenthe;52.874;6.241
8387;Boschoord;Drenthe;52.891;6.222
8388;Oosterstreek;Friesland;52.899;6.171
8389;Zandhuizen;Friesland;52.925;6.173
8390;Noordwolde;Friesland;52.892;6.138
8391;Noordwolde;Friesland;52.892;6.138
8392;Boijl;Friesland;52.91;6.199
8393;Vinkega;Friesland;52.865;6.125
8394;De Hoeve;Friesland;52.897;6.093
8395;Steggerda;Friesland;52.859;6.11
8396;Peperga;Friesland;52.84;6.056
8397;De Blesse;Friesland;52.83;6.054
8398;Blesdijke;Friesland;52.845;6.005
8400;Gorredijk;Friesland;52.997;6.066
8401;Gorredijk;Friesland;52.997;6.066
8403;Jonkersln;Friesland;52.978;6.033
8404;Langezwaag;Friesland;52.98;6.012
8405;Luxwoude;Friesland;52.986;5.971
8406;Tijnje;Friesland;53.032;5.987
8407;Terwispel;Friesland;53.012;6.027
8408;Lippenhuizen;Friesland;53;6.11
8409;Hemrik;Friesland;53.036;6.153
8410;Jubbega;Friesland;52.992;6.098
8411;Jubbega;Friesland;52.992;6.098
8412;Hoornsterzwaag;Friesland;52.989;6.18
8413;Oudehorne;Friesland;52.948;6.098
8414;Nieuwehorne;Friesland;52.948;6.054
8415;Bontebok;Friesland;52.963;6.028
8420;Oldeberkoop;Friesland;52.922;6.112
8421;Elsloo;Friesland;52.922;6.112
8422;Nijeberkoop;Friesland;52.951;6.173
8423;Makkinga;Friesland;52.977;6.215
8424;Elsloo;Friesland;52.942;6.237
8425;Langedijke;Friesland;52.966;6.271
8426;Appelscha;Friesland;52.961;6.342
8427;Ravenswoud;Friesland;52.961;6.377
8428;Fochteloo;Friesland;52.991;6.337
8430;Oosterwolde;Friesland;52.991;6.291
8431;Appelscha;Friesland;52.991;6.291
8432;Haule;Friesland;53.036;6.33
8433;Haulerwijk;Friesland;53.066;6.328
8434;Waskemeer;Friesland;53.057;6.284
8435;Donkerbroek;Friesland;53.019;6.236
8437;Zorgvlied;Drenthe;52.921;6.255
8438;Wateren;Drenthe;52.912;6.275
8439;Oude Willem;Drenthe;52.897;6.302
8440;Heerenveen;Friesland;52.967;5.925
8441;Heerenveen;Friesland;52.967;5.925
8442;Heerenveen;Friesland;52.959;5.922
8443;Oranjewoud;Friesland;52.948;5.935
8444;Heerenveen;Friesland;52.937;5.95
8445;Heerenveen;Friesland;52.946;5.927
8446;Heerenveen;Friesland;52.957;5.917
8447;Heerenveen;Friesland;52.959;5.915
8448;Heerenveen;Friesland;52.971;5.932
8449;Terband;Friesland;53.006;5.892
8451;Oudeschoot;Friesland;52.932;5.955
8452;Nieuweschoot;Friesland;52.933;5.932
8453;Oranjewoud;Friesland;52.949;5.965
8454;Mildam;Friesland;52.948;5.992
8455;Katlijk;Friesland;52.951;5.999
8456;De Knipe;Friesland;52.968;5.962
8457;Gersloot;Friesland;53.005;5.962
8458;Tjalleberd;Friesland;52.996;5.937
8459;Luinjeberd;Friesland;52.989;5.92
8461;Rottum;Friesland;52.95;5.901
8462;Rotstergaast;Friesland;52.922;5.91
8463;Rotsterhaule;Friesland;52.93;5.851
8464;Sintjohannesga;Friesland;52.938;5.877
8465;Oudehaske;Friesland;52.954;5.878
8466;Nijehaske;Friesland;52.955;5.905
8467;Vegelinsoord;Friesland;52.985;5.873
8468;Haskerdijken;Friesland;52.992;5.881
8469;Nieuwebrug;Friesland;52.989;5.886
8470;Wolvega;Friesland;52.881;5.99
8471;Wolvega;Friesland;52.881;5.99
8472;Wolvega;Friesland;52.879;6.007
8474;Oldeholtpade;Friesland;52.891;6.051
8475;Nijeholtpade;Friesland;52.91;6.073
8476;Ter Idzard;Friesland;52.922;6.008
8477;Oldeholtwolde;Friesland;52.927;5.973
8478;Sonnega;Friesland;52.881;5.969
8479;Oldetrijne;Friesland;52.864;5.953
8481;Nijetrijne;Friesland;52.845;5.917
8482;Spanga;Friesland;52.824;5.88
8483;Scherpenzeel;Friesland;52.834;5.875
8484;Langelille;Friesland;52.841;5.847
8485;Munnekeburen;Friesland;52.853;5.891
8486;Oldelamer;Friesland;52.879;5.944
8487;Nijelamer;Friesland;52.895;5.947
8488;Nijeholtwolde;Friesland;52.894;5.999
8489;Slijkenburg;Friesland;52.806;5.844
8490;Akkrum;Friesland;53.053;5.846
8491;Akkrum;Friesland;53.053;5.846
8493;Terherne;Friesland;53.037;5.778
8494;Nes;Friesland;53.071;5.848
8495;Aldeboarn;Friesland;53.052;5.875
8497;Gongahuizen;Friesland;53.084;5.916
8500;Joure;Friesland;52.97;5.79
8501;Joure;Friesland;52.97;5.79
8502;Joure;Friesland;52.97;5.807
8503;Joure;Friesland;52.961;5.778
8505;Snikzwaag;Friesland;52.985;5.787
8506;Haskerhorne;Friesland;52.958;5.846
8507;Rohel;Friesland;52.927;5.823
8508;Delfstrahuizen;Friesland;52.873;5.823
8511;Goingarijp;Friesland;53.013;5.774
8512;Broek;Friesland;52.987;5.751
8513;Ouwsterhaule;Friesland;52.929;5.824
8514;Ouwster-Nijega;Friesland;52.924;5.819
8515;Oldeouwer;Friesland;52.916;5.812
8516;Doniaga;Friesland;52.905;5.743
8517;Scharsterbrug;Friesland;52.93;5.784
8520;Sint Nicolaasga;Friesland;52.932;5.767
8521;Sint Nicolaasga;Friesland;52.932;5.767
8522;Tjerkgaast;Friesland;52.902;5.678
8523;Idskenhuizen;Friesland;52.931;5.714
8524;Teroele;Friesland;52.936;5.694
8525;Langweer;Friesland;52.945;5.743
8526;Boornzwaag;Friesland;52.99;5.731
8527;Legemeer;Friesland;52.937;5.728
8528;Dijken;Friesland;52.954;5.709
8529;Koufurderrige;Friesland;52.958;5.656
8530;Lemmer;Friesland;52.836;5.723
8531;Lemmer;Friesland;52.836;5.723
8532;Lemmer;Friesland;52.854;5.698
8534;Eesterga;Friesland;52.864;5.726
8535;Follega;Friesland;52.89;5.738
8536;Oosterzee;Friesland;52.86;5.742
8537;Echten;Friesland;52.873;5.797
8538;Bantega;Friesland;52.847;5.795
8539;Echtenerbrug;Friesland;52.873;5.816
8541;Akmarijp;Friesland;52.995;5.793
8542;Terkaple;Friesland;53.01;5.787
8551;Gauw;Friesland;52.939;5.625
8552;Smallebrugge;Friesland;52.96;5.636
8553;Indijk;Friesland;52.948;5.622
8554;Ypecolsga;Friesland;52.935;5.611
8556;Sloten;Friesland;52.894;5.646
8560;Balk;Friesland;52.897;5.577
8561;Balk;Friesland;52.897;5.577
8563;Wijckel;Friesland;52.891;5.606
8564;Ruigahuizen;Friesland;52.888;5.568
8565;Sondel;Friesland;52.872;5.603
8566;Nijemirdum;Friesland;52.855;5.579
8567;Oudemirdum;Friesland;52.873;5.545
8571;Harich;Friesland;52.881;5.538
8572;Rijs;Friesland;52.868;5.49
8573;Mirns;Friesland;52.857;5.463
8574;Bakhuizen;Friesland;52.868;5.463
8581;Elahuizen;Friesland;52.913;5.538
8582;Oudega;Friesland;52.904;5.521
8583;Kolderwolde;Friesland;52.891;5.493
8584;Hemelum;Friesland;52.879;5.457
8600;Sneek;Friesland;53.03;5.663
8601;Sneek;Friesland;53.03;5.663
8602;Sneek;Friesland;53.037;5.653
8603;Sneek;Friesland;53.034;5.66
8604;Sneek;Friesland;53.04;5.674
8605;Sneek;Friesland;53.033;5.667
8606;Sneek;Friesland;53.032;5.666
8607;Sneek;Friesland;53.027;5.663
8608;Sneek;Friesland;53.027;5.656
8611;Emst;Friesland;52.963;5.545
8612;Idzega;Friesland;52.979;5.554
8613;Sandfirden;Friesland;52.988;5.519
8614;Greonterp;Friesland;52.992;5.547
8615;Blauwhuis;Friesland;53.025;5.534
8616;Westhem;Friesland;53.017;5.543
8617;Abbega;Friesland;53.028;5.576
8618;Oosthem;Friesland;53.018;5.598
8621;Heeg;Friesland;52.968;5.599
8622;Hommerts;Friesland;52.976;5.649
8623;Hommerts;Friesland;52.996;5.646
8624;Oppenhuizen;Friesland;52.999;5.698
8625;Heeg;Friesland;53.012;5.697
8626;Offingawier;Friesland;53.031;5.695
8627;Gauw;Friesland;53.056;5.71
8628;Gonga;Friesland;53.052;5.693
8629;Scharnegoutum;Friesland;53.058;5.681
8631;Longa;Friesland;53.05;5.681
8632;Tirns;Friesland;53.06;5.63
8633;Ysbrechtum;Friesland;53.041;5.637
8635;Boazum;Friesland;53.088;5.693
8636;Britswert;Friesland;53.112;5.674
8637;Britswert;Friesland;53.107;5.693
8641;Rien;Friesland;53.094;5.66
8642;Lytsewierrum;Friesland;53.079;5.674
8644;Dearsum;Friesland;53.083;5.712
8647;Sibrandabuorren;Friesland;53.067;5.705
8650;IJlst;Friesland;53.011;5.623
8651;IJlst;Friesland;53.011;5.623
8658;Greonterp;Friesland;53.014;5.507
8700;Bolsward;Friesland;53.058;5.537
8701;Bolsward;Friesland;53.058;5.537
8702;Bolsward;Friesland;53.072;5.533
8710;Workum;Friesland;52.98;5.443
8711;Workum;Friesland;52.98;5.443
8713;Hindeloopen;Friesland;52.937;5.403
8715;Stavoren;Friesland;52.884;5.362
8721;Warns;Friesland;52.886;5.401
8722;Molkwerum;Friesland;52.906;5.409
8723;Koudum;Friesland;52.917;5.454
8724;It Heidenskip;Friesland;52.97;5.472
8730;Wommels;Friesland;53.108;5.586
8731;Britswert;Friesland;53.108;5.586
8732;Jorwert;Friesland;53.125;5.588
8733;Iens;Friesland;53.124;5.608
8734;Easterein;Friesland;53.089;5.634
8735;Itens;Friesland;53.103;5.636
8736;Reahs;Friesland;53.077;5.631
8737;Hidaard;Friesland;53.075;5.596
8741;Hartwerd;Friesland;53.07;5.567
8742;Burgwerd;Friesland;53.085;5.546
8743;Hichtum;Friesland;53.084;5.518
8744;Schettens;Friesland;53.081;5.483
8745;Longerhouw;Friesland;53.069;5.478
8746;Schraard;Friesland;53.079;5.46
8747;Wons;Friesland;53.085;5.421
8748;Witmarsum;Friesland;53.103;5.468
8749;Pingjum;Friesland;53.116;5.441
8751;Zurich;Friesland;53.114;5.401
8752;Kornwerderzand;Friesland;53.072;5.336
8753;Cornwerd;Friesland;53.086;5.384
8754;Makkum;Friesland;53.058;5.409
8755;Idsegahuizum;Friesland;53.043;5.417
8756;Piaam;Friesland;53.032;5.417
8757;Gaast;Friesland;53.016;5.41
8758;Allingawier;Friesland;53.042;5.463
8759;Exmorra;Friesland;53.057;5.476
8761;Ferwoude;Friesland;53.009;5.449
8762;Hieslum;Friesland;53.01;5.496
8763;Parrega;Friesland;53.016;5.485
8764;Dedgum;Friesland;53.024;5.495
8765;Tjerkwerd;Friesland;53.041;5.494
8766;Breezanddijk;Friesland;53.019;5.208
8771;Folsgare;Friesland;53.056;5.562
8772;Tjalhuizum;Friesland;53.047;5.61
8773;Folsgare;Friesland;53.035;5.605
8774;Wolsum;Friesland;53.036;5.546
8775;Nijhuizum;Friesland;52.982;5.487
8800;Franeker;Friesland;53.184;5.549
8801;Tzum;Friesland;53.184;5.549
8802;Franeker;Friesland;53.192;5.525
8804;Tzum;Friesland;53.161;5.56
8805;Hitzum;Friesland;53.164;5.528
8806;Achlum;Friesland;53.164;5.497
8807;Herbaijum;Friesland;53.186;5.496
8808;Dongjum;Friesland;53.206;5.543
8809;Boer;Friesland;53.212;5.563
8811;Ried;Friesland;53.221;5.585
8812;Peins;Friesland;53.206;5.597
8813;Schalsum;Friesland;53.196;5.57
8814;Zweins;Friesland;53.194;5.605
8816;Skingen;Friesland;53.205;5.625
8821;Kimswerd;Friesland;53.134;5.419
8822;Arum;Friesland;53.136;5.471
8823;Lollum;Friesland;53.134;5.532
8831;Britswert;Friesland;53.155;5.614
8832;Hns;Friesland;53.159;5.668
8833;Leons;Friesland;53.152;5.679
8834;Baard;Friesland;53.143;5.666
8835;Easterlittens;Friesland;53.142;5.644
8841;Baaium;Friesland;53.165;5.638
8842;Kbaard;Friesland;53.155;5.602
8843;Boazum;Friesland;53.134;5.62
8844;Hinnaard;Friesland;53.124;5.628
8845;Waaksens;Friesland;53.113;5.534
8851;Sexbierum;Friesland;53.237;5.552
8852;Firdgum;Friesland;53.244;5.569
8853;Klooster Lidlum;Friesland;53.234;5.516
8854;Oosterbierum;Friesland;53.233;5.51
8855;Sexbierum;Friesland;53.221;5.486
8856;Pietersbierum;Friesland;53.215;5.471
8857;Wijnaldum;Friesland;53.202;5.447
8860;Harlingen;Friesland;53.174;5.423
8861;Harlingen;Friesland;53.174;5.423
8862;Harlingen;Friesland;53.167;5.432
8871;Midlum;Friesland;53.183;5.467
8872;Midlum;Friesland;53.183;5.449
8880;West-Terschelling;Friesland;53.358;5.215
8881;Baaiduinen;Friesland;53.358;5.215
8882;Hee;Friesland;53.378;5.255
8883;Kaard;Friesland;53.376;5.27
8884;Baaiduinen;Friesland;53.381;5.273
8885;Kinnum;Friesland;53.374;5.275
8891;Midsland;Friesland;53.383;5.287
8892;Striep;Friesland;53.377;5.294
8893;Landerum;Friesland;53.386;5.3
8894;Formerum;Friesland;53.389;5.306
8895;Hoorn;Friesland;53.396;5.332
8896;Hoorn;Friesland;53.396;5.339
8897;Oosterend;Friesland;53.399;5.362
8899;Vlieland;Friesland;53.296;5.072
8900;Leeuwarden;Friesland;53.197;5.788
8901;Leeuwarden;Friesland;53.197;5.788
8902;Leeuwarden;Friesland;53.197;5.788
8903;Leeuwarden;Friesland;53.197;5.788
8911;Leeuwarden;Friesland;53.197;5.788
8912;Leeuwarden;Friesland;53.196;5.782
8913;Leeuwarden;Friesland;53.203;5.786
8914;Leeuwarden;Friesland;53.204;5.775
8915;Leeuwarden;Friesland;53.212;5.78
8916;Leeuwarden;Friesland;53.206;5.787
8917;Leeuwarden;Friesland;53.211;5.801
8918;Leeuwarden;Friesland;53.217;5.807
8919;Leeuwarden;Friesland;53.213;5.78
8921;Leeuwarden;Friesland;53.202;5.804
8922;Leeuwarden;Friesland;53.206;5.8
8923;Leeuwarden;Friesland;53.214;5.815
8924;Leeuwarden;Friesland;53.202;5.824
8925;Leeuwarden;Friesland;53.209;5.837
8926;Leeuwarden;Friesland;53.212;5.845
8927;Leeuwarden;Friesland;53.217;5.826
8931;Leeuwarden;Friesland;53.186;5.795
8932;Leeuwarden;Friesland;53.187;5.793
8933;Leeuwarden;Friesland;53.197;5.801
8934;Leeuwarden;Friesland;53.189;5.812
8935;Leeuwarden;Friesland;53.184;5.803
8936;Leeuwarden;Friesland;53.193;5.819
8937;Leeuwarden;Friesland;53.2;5.825
8938;Leeuwarden;Friesland;53.196;5.838
8939;Leeuwarden;Friesland;53.181;5.824
8941;Leeuwarden;Friesland;53.168;5.795
9000;Grou;Friesland;53.097;5.841
9001;Grou;Friesland;53.097;5.841
9003;Warten;Friesland;53.149;5.888
9004;Warstiens;Friesland;53.161;5.863
9005;Wergea;Friesland;53.149;5.843
9006;Eagum;Friesland;53.13;5.828
9007;Idaerd;Friesland;53.118;5.814
9008;Reduzum;Friesland;53.116;5.785
9009;Friens;Friesland;53.098;5.797
9011;Jirnsum;Friesland;53.072;5.801
9012;Raerd;Friesland;53.099;5.76
9013;Poppenwier;Friesland;53.069;5.762
9014;Tersoal;Friesland;53.067;5.746
9021;Boazum;Friesland;53.107;5.738
9022;Mantgum;Friesland;53.128;5.72
9023;Jorwert;Friesland;53.146;5.71
9024;Baard;Friesland;53.152;5.745
9025;Bears;Friesland;53.155;5.734
9026;Bears;Friesland;53.168;5.74
9027;Hilaard;Friesland;53.169;5.685
9031;Boksum;Friesland;53.177;5.731
9032;Blessum;Friesland;53.183;5.721
9033;Deinum;Friesland;53.199;5.738
9034;Marsum;Friesland;53.213;5.734
9035;Dronryp;Friesland;53.19;5.645
9036;Menaam;Friesland;53.216;5.666
9037;Slappeterp;Friesland;53.213;5.622
9038;Ingelum;Friesland;53.226;5.728
9040;Berltsum;Friesland;53.243;5.643
9041;Berltsum;Friesland;53.243;5.643
9043;Wier;Friesland;53.251;5.621
9044;Bitgum;Friesland;53.235;5.673
9045;Bitgummole;Friesland;53.236;5.699
9047;Minnertsga;Friesland;52.813;5.405
9050;Stiens;Friesland;53.265;5.756
9051;Stiens;Friesland;53.265;5.756
9053;Feinsum;Friesland;53.276;5.77
9054;Hijum;Friesland;53.292;5.767
9055;Britsum;Friesland;53.251;5.8
9056;Koarnjum;Friesland;53.24;5.801
9057;Jelsum;Friesland;53.224;5.808
9060;Gytsjerk;Friesland;52.087;4.656
9061;Gytsjerk;Friesland;53.236;5.898
9062;Oentsjerk;Friesland;53.249;5.896
9063;Mnein;Friesland;53.248;5.933
9064;Aldtsjerk;Friesland;53.275;5.869
9067;Readtsjerk;Friesland;53.272;5.894
9071;Alde Leie;Friesland;53.282;5.726
9072;Nij Altoenae;Friesland;53.294;5.654
9073;Marrum;Friesland;53.327;5.804
9074;Hallum;Friesland;53.313;5.788
9075;Westhoek;Friesland;53.285;5.594
9076;St.-Annaparochie;Friesland;53.277;5.657
9077;St.-Jacobiparochie;Friesland;53.275;5.608
9078;Oudebildtzijl;Friesland;53.289;5.725
9079;Lekkum;Friesland;53.276;5.604
9081;Lekkum;Friesland;53.225;5.818
9082;Miedum;Friesland;53.236;5.84
9083;Snakkerburen;Friesland;53.221;5.808
9084;Goutum;Friesland;53.181;5.774
9085;Teerns;Friesland;53.18;5.834
9086;Hempens;Friesland;53.179;5.836
9087;Swichum;Friesland;53.153;5.821
9088;Wirdum;Friesland;53.148;5.799
9089;Wytgaard;Friesland;53.143;5.786
9091;Wyns;Friesland;53.243;5.833
9100;Dokkum;Friesland;53.331;5.999
9101;Dokkum;Friesland;53.331;5.999
9102;Dokkum;Friesland;53.332;6.001
9103;Dokkum;Friesland;53.317;6.013
9104;Damwld;Friesland;53.304;6.01
9105;Rinsumageast;Friesland;53.283;5.902
9106;Sibrandahs;Friesland;53.315;5.954
9107;Jannum;Friesland;53.312;5.918
9108;Broeksterwld;Friesland;53.275;6.005
9109;De Falom;Friesland;53.267;6.017
9111;Burdaard;Friesland;53.305;5.884
9112;Burdaard;Friesland;53.283;5.885
9113;Wlterswld;Friesland;53.302;6.025
9114;Driezum;Friesland;53.319;6.05
9121;Aalsum;Friesland;53.341;5.996
9122;Wetsens;Friesland;53.348;6.03
9123;Metslawier;Friesland;53.36;6.065
9124;Jouswier;Friesland;53.344;6.082
9125;Oostrum;Friesland;53.329;6.049
9131;Ee;Friesland;53.337;6.075
9132;Engwierum;Friesland;53.321;6.139
9133;Anjum;Friesland;53.38;6.161
9134;Lioessens;Friesland;53.387;6.098
9135;Morra;Friesland;53.369;6.086
9136;Paesens;Friesland;53.396;6.105
9137;Oosternijkerk;Friesland;53.373;6.037
9138;Niawier;Friesland;53.365;6.034
9141;Wierum;Friesland;53.393;6.01
9142;Moddergat;Friesland;53.401;6.08
9143;Nes;Friesland;53.393;6.063
9144;Hantumhuizen;Friesland;53.361;5.982
9145;Ternaard;Friesland;53.386;5.96
9146;Hantumeruitburen;Friesland;53.346;6.011
9147;Hantum;Friesland;53.362;5.967
9148;Hiaure;Friesland;53.347;5.978
9150;Holwerd;Friesland;52.087;4.656
9151;Holwerd;Friesland;53.367;5.925
9152;Waaxens;Friesland;53.358;5.923
9153;Brantgum;Friesland;53.358;5.942
9154;Foudgum;Friesland;53.344;5.955
9155;Raard;Friesland;53.332;5.942
9156;Bornwird;Friesland;53.331;5.968
9160;Hollum;Friesland;53.438;5.653
9161;Hollum;Friesland;53.438;5.653
9162;Ballum;Friesland;53.438;5.676
9163;Ballum;Friesland;53.443;5.781
9164;Buren;Friesland;53.448;5.798
9166;Schiermonnikoog;Friesland;53.479;6.163
9171;Blije;Friesland;53.36;5.862
9172;Ferwert;Friesland;53.352;5.841
9173;Hegebeintum;Friesland;53.334;5.857
9174;Ginnum;Friesland;52.259;5.363
9175;Reitsum;Friesland;53.329;5.9
9176;Lichtaard;Friesland;53.327;5.913
9177;Schiermonnikoog;Friesland;53.31;5.876
9178;Wnswert;Friesland;53.308;5.845
9200;Drachten;Friesland;53.114;6.08
9201;Drachten;Friesland;53.114;6.08
9202;Drachten;Friesland;53.115;6.111
9203;Drachten;Friesland;53.107;6.096
9204;Drachten;Friesland;53.097;6.081
9205;Drachten;Friesland;53.091;6.06
9206;Drachten;Friesland;53.106;6.076
9207;Drachten;Friesland;53.125;6.088
9211;Kortehemmen;Friesland;53.085;6.065
9212;Boornbergum;Friesland;53.087;6.035
9213;De Wilgen;Friesland;53.096;6.038
9214;Smalle Ee;Friesland;53.103;6.021
9215;De Veenhoop;Friesland;53.08;5.979
9216;Oudega;Friesland;53.125;5.999
9217;Nijega;Friesland;53.14;6.029
9218;Opeinde;Friesland;53.133;6.077
9219;De Tike;Friesland;53.152;6.011
9221;Rottevalle;Friesland;53.145;6.118
9222;Drachtstercompagnie;Friesland;53.122;6.162
9223;Houtigehage;Friesland;53.155;6.149
9230;Surhuisterveen;Friesland;53.176;6.152
9231;Surhuisterveen;Friesland;53.176;6.152
9233;Boelenslaan;Friesland;53.168;6.12
9240;Wijnjewoude;Friesland;53.057;6.206
9241;Wijnjewoude;Friesland;53.057;6.206
9243;Bakkeveen;Friesland;53.085;6.258
9244;Beetsterzwaag;Friesland;53.068;6.078
9245;Nij Beets;Friesland;53.074;5.983
9246;Olterterp;Friesland;53.065;6.098
9247;Ureterp;Friesland;53.097;6.17
9248;Siegerswoude;Friesland;53.101;6.244
9249;Frieschepalen;Friesland;53.11;6.205
9250;Burgum;Friesland;53.197;5.988
9251;Burgum;Friesland;53.197;5.988
9254;Hurdegaryp;Friesland;53.217;5.939
9255;Tytsjerk;Friesland;53.216;5.909
9256;Ryptsjerk;Friesland;53.223;5.912
9257;Noardburgum;Friesland;53.224;6.01
9258;Jistrum;Friesland;53.204;6.074
9260;Eastermar;Friesland;53.175;6.058
9261;Eastermar;Friesland;53.175;6.058
9262;Sumar;Friesland;53.174;5.999
9263;Garyp;Friesland;53.144;5.979
9264;Earnewld;Friesland;53.139;5.936
9265;Suwld;Friesland;53.179;5.928
9269;Feanwlden;Friesland;53.237;5.98
9270;De Westereen;Friesland;53.277;5.991
9271;De Westereen;Friesland;53.255;6.031
9280;Harkema;Friesland;53.181;6.133
9281;Harkema;Friesland;53.181;6.133
9283;Surhuizum;Friesland;53.209;6.174
9284;Augustinusga;Friesland;53.213;6.152
9285;Buitenpost;Friesland;53.243;6.152
9286;Twijzel;Friesland;53.232;6.092
9287;Twijzelerheide;Friesland;53.243;6.045
9288;Kootstertille;Friesland;53.212;6.095
9289;Drogeham;Friesland;53.202;6.114
9290;Kollum;Friesland;53.285;6.146
9291;Kollum;Friesland;53.285;6.146
9292;Augsbuurt;Friesland;53.28;6.185
9293;Kollumerpomp;Friesland;53.306;6.19
9294;Oudwoude;Friesland;53.281;6.113
9295;Westergeest;Friesland;53.282;6.092
9296;Triemen;Friesland;53.28;6.094
9297;Veenklooster;Friesland;53.265;6.117
9298;Kollumerzwaag;Friesland;53.263;6.099
9299;Zwagerbosch;Friesland;53.243;6.045
9300;Roden;Drenthe;53.137;6.434
9301;Roden;Drenthe;53.137;6.434
9302;Roden;Drenthe;53.129;6.407
9304;Lieveren;Drenthe;53.116;6.482
9305;Roderesch;Drenthe;53.117;6.42
9306;Alteveer;Drenthe;53.114;6.428
9307;Steenbergen;Drenthe;53.1;6.406
9311;Nieuw-Roden;Drenthe;53.131;6.401
9312;Nietap;Drenthe;53.163;6.395
9313;Leutingewolde;Drenthe;53.156;6.432
9314;Foxwolde;Drenthe;53.151;6.459
9315;Roderwolde;Drenthe;53.167;6.469
9320;Peize;Drenthe;53.148;6.49
9321;Peize;Drenthe;53.148;6.49
9330;Norg;Drenthe;53.066;6.46
9331;Norg;Drenthe;53.066;6.46
9333;Langelo;Drenthe;53.092;6.443
9334;Peest;Drenthe;53.06;6.498
9335;Zuidvelde;Drenthe;53.045;6.458
9336;Huis ter Heide;Drenthe;53.024;6.482
9337;Westervelde;Drenthe;53.052;6.444
9341;Veenhuizen;Drenthe;53.041;6.391
9342;Een;Drenthe;53.073;6.392
9343;Een-West;Drenthe;53.083;6.338
9350;Leek;Groningen;53.163;6.393
9351;Nietap;Groningen;53.163;6.393
9354;Zevenhuizen;Groningen;53.123;6.348
9355;Midwolde;Groningen;53.174;6.382
9356;Tolbert;Groningen;53.171;6.366
9359;Boerakker;Groningen;53.204;6.331
9361;Boerakker;Groningen;53.184;6.331
9362;Boerakker;Groningen;53.184;6.329
9363;De Wilp;Groningen;53.148;6.277
9364;Nuis;Groningen;53.15;6.293
9365;Niebert;Groningen;53.154;6.316
9366;Jonkersvaart;Groningen;53.127;6.293
9367;De Wilp;Groningen;53.123;6.251
9400;Assen;Drenthe;52.996;6.57
9401;Assen;Drenthe;52.996;6.57
9402;Assen;Drenthe;52.997;6.556
9403;Assen;Drenthe;52.997;6.572
9404;Assen;Drenthe;52.994;6.575
9405;Assen;Drenthe;52.996;6.525
9406;Assen;Drenthe;52.997;6.554
9407;Assen;Drenthe;53.012;6.555
9408;Assen;Drenthe;52.998;6.51
9409;Loon;Drenthe;53.012;6.611
9410;Beilen;Drenthe;52.86;6.511
9411;Beilen;Drenthe;52.86;6.511
9412;Beilen;Drenthe;52.871;6.52
9413;Beilen;Drenthe;52.849;6.509
9414;Hooghalen;Drenthe;52.92;6.542
9415;Hijken;Drenthe;52.893;6.502
9416;Oranje;Drenthe;52.906;6.449
9417;Spier;Drenthe;52.803;6.475
9418;Wijster;Drenthe;52.818;6.514
9419;Drijber;Drenthe;52.778;6.542
9420;Bovensmilde;Drenthe;52.978;6.488
9421;Bovensmilde;Drenthe;52.978;6.488
9422;Appelscha;Drenthe;52.95;6.447
9423;Hoogersmilde;Drenthe;52.905;6.394
9430;Westerbork;Drenthe;52.854;6.605
9431;Westerbork;Drenthe;52.851;6.609
9432;Zuidveld;Drenthe;52.866;6.636
9433;Zwiggelte;Drenthe;52.873;6.588
9434;Eursinge;Drenthe;52.84;6.604
9435;Bruntinge;Drenthe;52.819;6.589
9436;Mantinge;Drenthe;52.804;6.613
9437;Balinge;Drenthe;52.81;6.629
9438;Garminge;Drenthe;52.823;6.62
9439;Mantinge;Drenthe;52.815;6.658
9441;Orvelte;Drenthe;52.843;6.658
9442;Elp;Drenthe;52.882;6.645
9443;Schoonloo;Drenthe;52.904;6.701
9444;Grolloo;Drenthe;52.935;6.673
9445;Vredenheim;Drenthe;52.945;6.661
9446;Amen;Drenthe;52.94;6.611
9447;Papenvoort;Drenthe;52.95;6.704
9448;Marwijksoord;Drenthe;52.965;6.647
9449;Nooitgedacht;Drenthe;52.976;6.664
9451;Rolde;Drenthe;52.988;6.64
9452;Nijlande;Drenthe;52.973;6.625
9453;Eldersloo;Drenthe;52.965;6.613
9454;Ekehaar;Drenthe;52.953;6.601
9455;Geelbroek;Gelderland;52.951;6.572
9456;Eleveld;Drenthe;52.957;6.583
9457;Deurze;Drenthe;52.982;6.61
9458;Balloo;Drenthe;52.995;6.631
9459;Ballorveld;Drenthe;53.023;6.636
9460;Gieten;Drenthe;53.006;6.766
9461;Gieten;Drenthe;53.006;6.766
9462;Gasselte;Drenthe;52.978;6.798
9463;Eext;Drenthe;53.021;6.739
9464;Eexterzandvoort;Drenthe;53.03;6.786
9465;Anderen;Drenthe;53.002;6.683
9466;Gasteren;Drenthe;53.036;6.667
9467;Anloo;Drenthe;53.043;6.703
9468;Annen;Drenthe;53.064;6.712
9469;Schipborg;Drenthe;53.073;6.669
9470;Zuidlaren;Drenthe;53.092;6.686
9471;Wolvega;Drenthe;53.092;6.686
9472;Zuidlaren;Drenthe;53.078;6.697
9473;Zuidlaren;Drenthe;53.109;6.71
9474;Zuidlaarderveen;Drenthe;53.106;6.748
9475;Midlaren;Drenthe;53.109;6.678
9479;Noordlaren;Groningen;53.122;6.667
9480;Vries;Drenthe;53.078;6.583
9481;Vries;Drenthe;53.078;6.583
9482;Tynaarlo;Drenthe;53.079;6.609
9483;Zeegse;Drenthe;53.067;6.644
9484;Oudemolen;Drenthe;53.05;6.64
9485;Taarlo;Drenthe;53.032;6.625
9486;Rhee;Drenthe;53.034;6.572
9487;Ter Aard;Drenthe;53.027;6.545
9488;Zeijerveld;Drenthe;53.033;6.521
9489;Assen;Drenthe;53.017;6.526
9491;Zeijerveld;Drenthe;53.048;6.548
9492;Ubbena;Drenthe;53.049;6.574
9493;De Punt;Drenthe;53.106;6.631
9494;Yde;Drenthe;53.114;6.594
9495;Winde;Drenthe;53.127;6.524
9496;Bunne;Drenthe;53.114;6.533
9497;Donderen;Drenthe;53.092;6.553
9500;Stadskanaal;Groningen;52.992;6.952
9501;Stadskanaal;Groningen;52.992;6.952
9502;Stadskanaal;Groningen;52.997;6.964
9503;Stadskanaal;Groningen;52.999;6.932
9511;Gieterveen;Drenthe;52.778;6.896
9512;Nieuwediep;Drenthe;53.051;6.844
9514;Gasselternijveen;Drenthe;52.986;6.849
9515;Gasselternijveenschemond;Drenthe;52.993;6.935
9521;Nieuw-Buinen;Drenthe;52.937;6.887
9523;Drouwenermond;Drenthe;52.989;6.939
9524;Buinerveen;Drenthe;52.935;6.883
9525;Drouwenerveen;Drenthe;52.974;6.845
9526;Bronnegerveen;Drenthe;52.962;6.821
9527;Bronneger;Drenthe;52.952;6.823
9528;Buinen;Drenthe;52.932;6.826
9530;Borger;Drenthe;52.926;6.79
9531;Borger;Drenthe;52.926;6.79
9533;Drouwen;Drenthe;52.95;6.791
9534;Westdorp;Drenthe;52.906;6.771
9535;Ellertshaar;Drenthe;52.894;6.738
9536;Ees;Drenthe;52.911;6.801
9537;Eesergroen;Drenthe;52.897;6.789
9540;Vlagtwedde;Groningen;53.024;7.104
9541;Vlagtwedde;Groningen;53.024;7.104
9545;Bourtange;Groningen;53.009;7.188
9550;Sellingen;Groningen;52.934;7.142
9551;Sellingen;Groningen;52.934;7.142
9560;Ter Apel;Groningen;52.874;7.072
9561;Ter Apel;Groningen;52.874;7.072
9563;Ter Apelkanaal;Groningen;52.9;7.048
9564;Zandberg;Drenthe;52.918;7.025
9566;Veelerveen;Groningen;53.056;7.123
9571;2e Exlormond;Drenthe;52.9;6.918
9573;1e Exlormond;Drenthe;52.919;6.913
9574;Exlorveen;Drenthe;52.905;6.907
9580;Musselkanaal;Groningen;52.936;7.007
9581;Musselkanaal;Groningen;52.936;7.007
9584;Musselkanaal;Groningen;52.95;7.037
9585;Vledderveen;Groningen;52.989;7.006
9591;Onstwedde;Groningen;53.032;7.037
9600;Hoogezand;Groningen;53.167;6.756
9601;Hoogezand;Groningen;53.167;6.756
9602;Hoogezand;Groningen;53.159;6.742
9603;Hoogezand;Groningen;53.156;6.756
9605;Kiel-Windeweer;Groningen;53.12;6.773
9606;Kropswolde;Groningen;53.158;6.723
9607;Foxhol;Groningen;53.168;6.72
9608;Westerbroek;Groningen;53.183;6.662
9609;Waterhuizen;Groningen;53.185;6.649
9610;Sappemeer;Groningen;53.164;6.778
9611;Sappemeer;Groningen;53.164;6.778
9613;Overschild;Groningen;53.223;6.648
9615;Kolham;Groningen;53.185;6.765
9616;Kolham;Groningen;53.193;6.713
9617;Harkstede;Groningen;53.212;6.703
9618;Woudbloem;Groningen;53.215;6.735
9619;Froombosch;Groningen;53.196;6.785
9620;Slochteren;Groningen;53.22;6.805
9621;Slochteren;Groningen;53.22;6.805
9623;Lageland;Groningen;53.239;6.717
9624;Luddeweer;Groningen;53.247;6.745
9625;Overschild;Groningen;53.276;6.775
9626;Schildwolde;Groningen;53.222;6.808
9627;Hellum;Groningen;53.237;6.834
9628;Siddeburen;Groningen;53.248;6.867
9629;Steendam;Groningen;53.267;6.837
9631;Borgercompagnie;Groningen;53.117;6.82
9632;Borgercompagnie;Groningen;53.124;6.814
9633;Tripscompagnie;Groningen;53.145;6.825
9635;Noordbroek;Groningen;53.193;6.877
9636;Noordbroek;Groningen;53.163;6.862
9640;Veendam;Groningen;49.564;6.421
9641;Veendam;Groningen;53.106;6.88
9642;Veendam;Groningen;53.102;6.869
9644;Veendam;Groningen;53.095;6.895
9645;Veendam;Groningen;53.118;6.869
9646;Veendam;Groningen;53.11;6.866
9648;Sappemeer;Groningen;53.087;6.861
9649;Muntendam;Groningen;53.135;6.866
9651;Meeden;Groningen;53.137;6.905
9654;Annerveenschekanaal;Drenthe;53.085;6.79
9655;Oud Annerveen;Drenthe;53.087;6.764
9656;Spijkerboor;Drenthe;53.077;6.764
9657;Nieuw Annerveen;Drenthe;53.069;6.776
9658;Eexterveen;Drenthe;53.056;6.796
9659;Eexterveenschekanaal;Drenthe;53.063;6.823
9661;Alteveer;Groningen;53.041;7.024
9663;Nieuwe Pekela;Groningen;53.086;6.976
9665;Oude Pekela;Groningen;53.109;7.026
9670;Winschoten;Groningen;53.141;7.036
9671;Winschoten;Groningen;53.141;7.036
9672;Winschoten;Groningen;53.136;7.043
9673;Winschoten;Groningen;53.139;7.028
9674;Winschoten;Groningen;53.147;7.022
9675;Winschoten;Groningen;53.147;7.037
9677;Heiligerlee;Groningen;53.155;7.005
9678;Westerlee;Groningen;53.147;7.009
9679;Scheemda;Groningen;53.175;6.972
9681;Midwolda;Groningen;53.189;6.987
9682;Oostwold;Groningen;53.2;7.04
9684;Finsterwolde;Groningen;53.196;7.082
9685;Blauwestad;Groningen;53.171;7.033
9686;Beerta;Groningen;53.172;7.095
9687;Nieuw Beerta;Groningen;53.193;7.181
9688;Drieborg;Groningen;53.204;7.181
9691;Oudezijl;Groningen;53.188;7.198
9693;Bad Nieuweschans;Groningen;53.184;7.2
9695;Bellingwolde;Groningen;53.099;7.143
9696;Oudeschans;Groningen;53.154;7.148
9697;Blijham;Groningen;53.107;7.076
9698;Wedde;Groningen;53.068;7.073
9699;Vriescheloo;Groningen;53.091;7.14
9700;Groningen;Groningen;53.213;6.561
9701;Groningen;Groningen;53.213;6.561
9702;Groningen;Groningen;53.213;6.561
9703;Groningen;Groningen;53.213;6.561
9704;Groningen;Groningen;53.213;6.561
9711;Groningen;Groningen;53.213;6.561
9712;Groningen;Groningen;53.216;6.561
9713;Groningen;Groningen;53.217;6.581
9714;Groningen;Groningen;53.227;6.562
9715;Groningen;Groningen;53.227;6.561
9716;Groningen;Groningen;53.228;6.56
9717;Groningen;Groningen;53.219;6.549
9718;Groningen;Groningen;53.214;6.555
9721;Groningen;Groningen;53.203;6.575
9722;Groningen;Groningen;53.201;6.577
9723;Groningen;Groningen;53.208;6.584
9724;Groningen;Groningen;53.211;6.571
9725;Groningen;Groningen;53.21;6.571
9726;Groningen;Groningen;53.211;6.571
9727;Groningen;Groningen;53.209;6.556
9728;Groningen;Groningen;53.201;6.559
9731;Groningen;Groningen;53.226;6.598
9732;Groningen;Groningen;53.235;6.628
9733;Groningen;Groningen;53.238;6.629
9734;Groningen;Groningen;53.232;6.632
9735;Groningen;Groningen;53.237;6.596
9736;Groningen;Groningen;53.253;6.595
9737;Groningen;Groningen;53.25;6.593
9738;Groningen;Groningen;53.243;6.569
9741;Groningen;Groningen;53.229;6.554
9742;Groningen;Groningen;53.226;6.55
9743;Groningen;Groningen;53.221;6.54
9744;Groningen;Groningen;53.211;6.503
9745;Groningen;Groningen;53.215;6.501
9746;Groningen;Groningen;53.229;6.516
9747;Groningen;Groningen;53.243;6.532
9749;Noordlaren;Drenthe;53.121;6.669
9750;Haren;Groningen;51.797;5.577
9751;Haren Gn;Groningen;53.176;6.601
9752;Haren Gn;Groningen;53.183;6.587
9753;Haren Gn;Groningen;53.174;6.621
9755;Onnen;Groningen;53.157;6.641
9756;Glimmen;Groningen;53.145;6.625
9760;Eelde;Drenthe;52.087;4.656
9761;Eelde;Drenthe;53.14;6.567
9765;Paterswolde;Drenthe;53.144;6.567
9766;Eelderwolde;Drenthe;53.179;6.535
9771;Sauwerd;Groningen;53.294;6.534
9773;Wetsinge;Groningen;53.304;6.531
9774;Adorp;Groningen;53.273;6.536
9780;Bedum;Groningen;53.299;6.596
9781;Bedum;Groningen;53.299;6.596
9784;Noordwolde;Groningen;53.273;6.589
9785;Zuidwolde;Groningen;53.263;6.597
9790;Ten Boer;Groningen;53.272;6.697
9791;Ten Boer;Groningen;53.272;6.697
9792;Ten Post;Groningen;53.297;6.73
9793;Winneweer;Groningen;53.31;6.742
9794;Lellens;Groningen;53.3;6.71
9795;Woltersum;Groningen;53.271;6.732
9796;Sint Annen;Groningen;53.297;6.666
9797;Thesinge;Groningen;53.265;6.65
9798;Garmerwolde;Groningen;53.244;6.657
9800;Zuidhorn;Groningen;53.247;6.406
9801;Kommerzijl;Groningen;53.247;6.406
9804;Noordhorn;Groningen;53.255;6.401
9805;Briltil;Groningen;53.232;6.398
9811;Enumatil;Groningen;53.215;6.408
9812;Enumatil;Groningen;53.216;6.409
9821;Oldekerk;Groningen;53.22;6.342
9822;Niekerk;Groningen;53.226;6.355
9824;Noordwijk;Groningen;53.168;6.259
9825;Lucaswolde;Groningen;53.181;6.282
9827;Lettelbert;Groningen;53.19;6.411
9828;Oostwold;Groningen;53.2;6.434
9831;Groningen;Groningen;53.254;6.459
9832;Den Horn;Groningen;53.227;6.441
9833;Den Ham;Groningen;53.272;6.43
9841;Niezijl;Groningen;53.267;6.347
9842;Niezijl;Groningen;53.267;6.342
9843;Grijpskerk;Groningen;53.263;6.313
9844;Pieterzijl;Groningen;53.281;6.268
9845;Visvliet;Groningen;53.266;6.252
9851;Burum;Friesland;53.273;6.23
9852;Warfstermolen;Friesland;53.297;6.229
9853;Munnekezijl;Friesland;53.303;6.269
9860;Grootegast;Groningen;53.216;6.289
9861;Grootegast;Groningen;53.216;6.289
9862;Sebaldeburen;Groningen;53.22;6.3
9863;Doezum;Groningen;53.194;6.24
9864;Doezum;Groningen;53.18;6.239
9865;Opende;Groningen;53.175;6.189
9866;Lutjegast;Groningen;53.235;6.261
9871;Stroobos;Friesland;53.238;6.215
9872;Stroobos;Friesland;53.238;6.21
9873;Gerkesklooster;Friesland;53.238;6.201
9881;Kommerzijl;Groningen;53.286;6.323
9882;Kommerzijl;Groningen;53.287;6.326
9883;Oldehove;Groningen;53.304;6.393
9884;Niehove;Groningen;53.29;6.366
9885;Lauwerzijl;Groningen;53.31;6.296
9886;Saaksum;Groningen;53.313;6.418
9891;Ezinge;Groningen;53.307;6.443
9892;Feerwerd;Groningen;53.304;6.464
9893;Garnwerd;Groningen;53.304;6.49
9900;Appingedam;Groningen;53.319;6.854
9901;Appingedam;Groningen;53.319;6.854
9902;Appingedam;Groningen;53.319;6.862
9903;Appingedam;Groningen;53.319;6.851
9904;Krewerd;Groningen;53.353;6.85
9905;Holwierde;Groningen;53.356;6.871
9906;Bierum;Groningen;53.382;6.855
9907;Losdorp;Groningen;53.377;6.832
9908;Godlinze;Groningen;53.372;6.814
9909;Spijk Gn;Groningen;53.39;6.838
9911;Oosterwijtwerd;Groningen;53.336;6.809
9912;Leermens;Groningen;53.345;6.796
9913;Eenum;Groningen;53.339;6.773
9914;Zeerijp;Groningen;53.344;6.748
9915;Leermens;Groningen;53.363;6.775
9917;Wirdum Gn;Groningen;53.322;6.78
9918;Garrelsweer;Groningen;53.32;6.764
9919;Garsthuizen;Groningen;53.334;6.747
9921;Stedum;Groningen;53.321;6.696
9922;Westeremden;Groningen;53.341;6.721
9923;Garsthuizen;Groningen;53.369;6.714
9924;Startenhuizen;Groningen;53.368;6.71
9925;Startenhuizen;Groningen;53.371;6.698
9930;Delfzijl;Groningen;53.334;6.903
9931;Delfzijl;Groningen;53.334;6.903
9932;Delfzijl;Groningen;53.32;6.909
9933;Delfzijl;Groningen;53.34;6.917
9934;Delfzijl;Groningen;53.33;6.93
9936;Farmsum;Groningen;53.326;6.926
9937;Meedhuizen;Groningen;53.29;6.911
9939;Tjuchem;Groningen;53.278;6.861
9942;'t Waar;Groningen;53.22;6.944
9943;Nieuw Scheemda;Groningen;53.212;6.942
9944;Nieuwolda;Groningen;53.244;6.972
9945;Wagenborgen;Groningen;53.258;6.927
9946;Woldendorp;Groningen;53.273;7.028
9947;Termunten;Groningen;53.298;7.041
9948;Termunterzijl;Groningen;53.299;7.037
9949;Borgsweer;Groningen;53.299;7.016
9950;Winsum;Groningen;53.153;5.635
9951;Winsum;Groningen;53.331;6.516
9953;Baflo;Groningen;53.359;6.51
9954;Tinallinge;Groningen;53.358;6.553
9955;Rasquert;Groningen;53.363;6.541
9956;Den Andel;Groningen;53.394;6.513
9957;Saaxumhuizen;Groningen;53.382;6.494
9959;Onderdendam;Groningen;53.334;6.571
9961;Mensingeweer;Groningen;53.347;6.479
9962;Schouwerzijl;Groningen;53.331;6.449
9963;Warfhuizen;Groningen;53.342;6.425
9964;Wehe-den Hoorn;Groningen;53.361;6.416
9965;Leens;Groningen;53.361;6.375
9966;Warfhuizen;Groningen;53.335;6.387
9967;Eenrum;Groningen;53.358;6.463
9968;Pieterburen;Groningen;53.401;6.446
9969;Westernieland;Groningen;53.397;6.473
9970;Ulrum;Groningen;53.358;6.333
9971;Ulrum;Groningen;53.358;6.333
9972;Niekerk;Groningen;53.342;6.33
9973;Houwerzijl;Groningen;53.336;6.34
9974;Zoutkamp;Groningen;53.338;6.309
9975;Vierhuizen;Groningen;53.359;6.289
9976;Lauwersoog;Groningen;53.402;6.22
9977;Kloosterburen;Groningen;53.387;6.374
9978;Hornhuizen;Groningen;53.388;6.364
9979;Eemshaven;Groningen;53.412;6.872
9980;Uithuizen;Groningen;53.407;6.671
9981;Winsum;Groningen;53.407;6.671
9982;Uithuizermeeden;Groningen;53.41;6.711
9983;Roodeschool;Groningen;53.413;6.798
9984;Oudeschip;Groningen;53.422;6.783
9985;Oosternieland;Groningen;53.404;6.763
9986;Oldenzijl;Groningen;53.394;6.734
9987;Zijldijk;Groningen;53.401;6.772
9988;Usquert;Groningen;53.4;6.61
9989;Oudeschip;Groningen;53.393;6.56
9990;Middelstum;Groningen;53.348;6.643
9991;Middelstum;Groningen;53.348;6.643
9992;Huizinge;Groningen;53.343;6.674
9993;Middelstum;Groningen;53.323;6.649
9994;Toornwerd;Groningen;53.359;6.65
9995;Kantens;Groningen;53.36;6.623
9996;Eppenhuizen;Groningen;53.38;6.701
9997;Zandeweer;Groningen;53.382;6.677
9998;Rottum;Groningen;53.386;6.644
9999;Melderslo;Groningen;53.369;6.595